{"type":"FeatureCollection","name":"cliopatria_snapshot_-2000","properties":{"year":-2000,"source":"Cliopatria (Seshat Global History Databank)","license":"CC BY 4.0","licenseUrl":"https://creativecommons.org/licenses/by/4.0/","attribution":"Cliopatria / Seshat Global History Databank (CC BY 4.0). Korea polities excluded.","excluded":"korea_related","wikidataNote":"Feature properties.wikidata → https://www.wikidata.org/wiki/<id>","ohmNote":"OpenHistoricalMap planet dumps at s3://planet.openhistoricalmap.org — optional detail layer, not used in this snapshot build."},"features":[{"type":"Feature","properties":{"name":"Indus Valley Civilization","fromYear":-2000,"toYear":-1801,"type":"POLITY","areaKm2":755121.2924974479,"wikipedia":"Indus Valley Civilisation","wikidata":"Q42534","seshatId":"pk_kachi_urban_2","source":"cliopatria"},"geometry":{"type":"MultiPolygon","coordinates":[[[[75.73487854003906,33.65024948120117],[75.87239837646484,33.5859489440918],[76.03653717041016,33.00732421875],[76.174072265625,32.94303894042969],[76.06634521484375,32.81447219848633],[76.14289093017578,32.81447219848633],[76.09649658203125,32.62162780761719],[75.53185272216797,32.171695709228516],[75.50212097167969,32.043148040771484],[75.71626281738281,31.978878021240234],[75.5088882446289,31.40045166015625],[75.86618041992188,30.950578689575195],[75.83819580078125,30.822044372558594],[76.03836059570312,30.69350814819336],[76.0107192993164,30.564971923828125],[76.21104431152344,30.436433792114258],[76.18375396728516,30.307893753051758],[76.4736557006836,30.243623733520508],[76.3707504272461,30.115081787109375],[76.79874420166016,29.986536026000977],[76.77197265625,29.857990264892578],[76.94625091552734,29.600887298583984],[76.81768035888672,28.958093643188477],[76.23931884765625,28.700960159301758],[75.78628540039062,28.700960159301758],[75.76207733154297,28.572391510009766],[74.17705535888672,28.572391510009766],[72.63333892822266,28.379535675048828],[72.07188415527344,28.186676025390625],[71.78133392333984,28.25096321105957],[70.85476684570312,28.12238883972168],[70.60723114013672,27.993812561035156],[70.24107360839844,28.058101654052734],[69.73677062988281,27.736658096313477],[69.42058563232422,27.158044815063477],[69.2972640991211,26.32224464416504],[69.3722915649414,26.32224464416504],[69.53953552246094,25.357851028442383],[70.51991271972656,24.843517303466797],[70.57825469970703,24.714935302734375],[70.72774505615234,24.714935302734375],[70.78619384765625,24.586353302001953],[71.08509063720703,24.586353302001953],[71.20223999023438,24.329193115234375],[71.35160827636719,24.329193115234375],[71.41033935546875,24.200613021850586],[71.97592163085938,23.943456649780273],[72.10173034667969,23.75058937072754],[72.87576293945312,23.36486053466797],[72.86788940429688,22.657697677612305],[72.68992614746094,22.400548934936523],[72.74272918701172,22.20768928527832],[72.37797546386719,22.271976470947266],[72.34249877929688,21.950544357299805],[72.11245727539062,21.88625717163086],[72.17279815673828,21.7576847076416],[72.3214340209961,21.7576847076416],[72.27970123291016,21.371967315673828],[72.10365295410156,21.114822387695312],[71.09152221679688,20.664819717407227],[70.72064208984375,20.664819717407227],[70.29546356201172,20.857677459716797],[69.88987731933594,21.24339485168457],[69.90315246582031,21.371967315673828],[69.49736022949219,21.7576847076416],[69.34872436523438,21.7576847076416],[68.94945526123047,22.20768928527832],[68.97650909423828,22.46483612060547],[69.40931701660156,22.33626365661621],[69.49740600585938,22.46483612060547],[69.86946868896484,22.46483612060547],[70.26250457763672,22.657697677612305],[70.36528778076172,22.914846420288086],[69.45060729980469,22.72198486328125],[68.80825805664062,22.97913360595703],[68.55245971679688,23.36486053466797],[68.3359375,23.429147720336914],[68.35022735595703,23.557723999023438],[68.12652587890625,23.557723999023438],[68.15538787841797,23.814878463745117],[67.63314819335938,23.814878463745117],[67.49114990234375,23.879167556762695],[67.43836975097656,24.07203483581543],[67.28907775878906,24.07203483581543],[67.32612609863281,24.393482208251953],[67.25143432617188,24.393482208251953],[67.2146987915039,24.714935302734375],[66.63204956054688,24.843517303466797],[66.67909240722656,25.229267120361328],[66.34514617919922,25.55072784423828],[66.02147674560547,25.357851028442383],[64.8160629272461,25.29355812072754],[64.80064392089844,25.164974212646484],[64.2845230102539,25.229267120361328],[64.22502136230469,25.357851028442383],[63.62620544433594,25.357851028442383],[63.536216735839844,25.229267120361328],[62.563419342041016,25.229267120361328],[62.47393035888672,25.100683212280273],[62.02507400512695,25.100683212280273],[62.1365852355957,25.422143936157227],[62.30133819580078,25.55072784423828],[64.28009796142578,25.807899475097656],[65.08811950683594,25.67931365966797],[65.695556640625,25.743606567382812],[66.02015686035156,25.936485290527344],[65.84618377685547,26.32224464416504],[65.87225341796875,26.515121459960938],[65.79719543457031,26.515121459960938],[65.77373504638672,27.41520881652832],[65.69850158691406,27.41520881652832],[66.05645751953125,28.765243530273438],[66.55416870117188,29.922264099121094],[67.11345672607422,30.500701904296875],[67.87273406982422,30.500701904296875],[67.97278594970703,30.629240036010742],[68.93391418457031,30.886310577392578],[69.07313537597656,31.20764923095703],[69.25104522705078,31.336183547973633],[69.31610870361328,31.65752601623535],[69.57125091552734,31.78606605529785],[69.6113052368164,31.978878021240234],[69.76393127441406,31.978878021240234],[70.40827941894531,32.493072509765625],[70.35980224609375,32.62162780761719],[70.78483581542969,32.81447219848633],[70.93338012695312,33.13589859008789],[71.31344604492188,33.45735549926758],[71.72701263427734,33.5859489440918],[71.75711059570312,33.71455001831055],[71.8956069946289,33.65024948120117],[72.1716079711914,33.84315490722656],[72.57122802734375,33.90746307373047],[72.67906951904297,34.03607940673828],[73.30998229980469,34.10039138793945],[73.38690185546875,34.10039138793945],[73.35548400878906,33.971771240234375],[74.35493469238281,33.971771240234375],[74.63056945800781,33.84315490722656],[75.53658294677734,33.77885055541992],[75.65809631347656,33.65024948120117],[75.73487854003906,33.65024948120117]]],[[[70.21991729736328,27.92952537536621],[70.23046875,27.993812561035156],[70.30582427978516,27.993812561035156],[70.29525756835938,27.92952537536621],[70.21991729736328,27.92952537536621]]],[[[76.52241516113281,30.115081787109375],[76.53593444824219,30.179353713989258],[76.61178588867188,30.179353713989258],[76.5982437133789,30.115081787109375],[76.52241516113281,30.115081787109375]]]]}},{"type":"Feature","properties":{"name":"Sumerian City-States","fromYear":-2000,"toYear":-1801,"type":"POLITY","areaKm2":53983.44046533461,"wikipedia":"History of Sumer","wikidata":"Q2345840","seshatId":null,"source":"cliopatria"},"geometry":{"type":"MultiPolygon","coordinates":[[[[48.09514617919922,30.822044372558594],[48.01913833618164,30.822044372558594],[48.027122497558594,30.886310577392578],[48.103145599365234,30.886310577392578],[48.09514617919922,30.822044372558594]]],[[[46.46096420288086,32.94303894042969],[46.53754425048828,32.94303894042969],[46.368812561035156,32.23596954345703],[46.44519805908203,32.23596954345703],[46.480648040771484,31.91460609436035],[46.85393142700195,31.8503360748291],[46.98200225830078,31.65752601623535],[47.13445281982422,31.65752601623535],[47.262481689453125,31.464719772338867],[47.695072174072266,31.271915435791016],[47.80701446533203,30.950578689575195],[48.027122497558594,30.886310577392578],[47.95109558105469,30.886310577392578],[47.25126266479492,30.757776260375977],[47.235774993896484,30.629240036010742],[46.696475982666016,30.564971923828125],[46.590572357177734,30.307893753051758],[45.77046203613281,30.436433792114258],[45.38117218017578,31.014846801757812],[45.44972610473633,31.593257904052734],[45.30503845214844,31.65752601623535],[45.39683532714844,31.78606605529785],[45.18363952636719,31.91460609436035],[45.062408447265625,32.171695709228516],[44.833316802978516,32.171695709228516],[44.71202850341797,32.428794860839844],[44.32204055786133,32.36451721191406],[44.33769226074219,32.493072509765625],[44.1926155090332,32.557350158691406],[44.16355895996094,32.94303894042969],[44.4256477355957,33.20018768310547],[44.57895278930664,33.20018768310547],[44.58714294433594,33.26447677612305],[44.74873733520508,33.32876968383789],[44.94573974609375,33.07160949707031],[45.46541976928711,32.94303894042969],[45.899105072021484,33.32876968383789],[46.129180908203125,33.32876968383789],[46.16311264038086,33.00732421875],[46.38438415527344,32.94303894042969],[46.46096420288086,32.94303894042969]]]]}},{"type":"Feature","properties":{"name":"Elam","fromYear":-2000,"toYear":-1801,"type":"POLITY","areaKm2":111341.68821524376,"wikipedia":"Elam","wikidata":"Q128904","seshatId":"ir_elam_2","source":"cliopatria"},"geometry":{"type":"Polygon","coordinates":[[[46.813568115234375,33.84315490722656],[46.683536529541016,33.45735549926758],[46.89609146118164,33.32876968383789],[47.347354888916016,33.26447677612305],[47.48293685913086,33.13589859008789],[48.54673767089844,33.07160949707031],[48.68178939819336,32.94303894042969],[48.98810958862305,32.94303894042969],[49.046443939208984,32.81447219848633],[49.27607345581055,32.81447219848633],[49.24876022338867,32.62162780761719],[49.716880798339844,32.685909271240234],[49.85148620605469,32.557350158691406],[49.8241081237793,32.36451721191406],[50.03515625,32.23596954345703],[50.0170783996582,32.107421875],[50.286407470703125,31.8503360748291],[49.97879409790039,31.271915435791016],[50.10526657104492,31.079113006591797],[50.07136154174805,30.822044372558594],[50.358516693115234,30.69350814819336],[50.476985931396484,30.436433792114258],[50.14065933227539,30.179353713989258],[49.91311264038086,30.179353713989258],[49.929290771484375,30.307893753051758],[49.7016487121582,30.307893753051758],[49.566043853759766,30.436433792114258],[49.110572814941406,30.436433792114258],[49.126670837402344,30.564971923828125],[49.28668975830078,30.629240036010742],[49.14290237426758,30.69350814819336],[48.103145599365234,30.886310577392578],[48.027122497558594,30.886310577392578],[47.80701446533203,30.950578689575195],[47.695072174072266,31.271915435791016],[47.262481689453125,31.464719772338867],[47.13445281982422,31.65752601623535],[46.98200225830078,31.65752601623535],[46.85393142700195,31.8503360748291],[46.480648040771484,31.91460609436035],[46.44519805908203,32.23596954345703],[46.368812561035156,32.23596954345703],[46.53754425048828,32.94303894042969],[46.46096420288086,32.94303894042969],[46.38438415527344,32.94303894042969],[46.16311264038086,33.00732421875],[46.129180908203125,33.32876968383789],[45.899105072021484,33.32876968383789],[45.46541976928711,32.94303894042969],[44.94573974609375,33.07160949707031],[44.74873733520508,33.32876968383789],[44.58714294433594,33.26447677612305],[44.59535598754883,33.32876968383789],[44.296756744384766,33.393062591552734],[44.43983459472656,33.90746307373047],[44.319732666015625,34.164703369140625],[44.48211669921875,34.22901916503906],[44.52500534057617,34.55062484741211],[44.7648811340332,34.614952087402344],[44.877113342285156,34.87228775024414],[45.10858154296875,34.87228775024414],[45.30441665649414,34.614952087402344],[45.417205810546875,34.87228775024414],[45.58054733276367,34.93662643432617],[45.6077766418457,35.12965774536133],[45.89838409423828,35.00096893310547],[45.707767486572266,34.743614196777344],[46.03915023803711,34.3576545715332],[46.080440521240234,34.10039138793945],[46.67778778076172,33.971771240234375],[46.736724853515625,33.84315490722656],[46.813568115234375,33.84315490722656]]]}},{"type":"Feature","properties":{"name":"Middle Kingdom of Egypt","fromYear":-2000,"toYear":-1801,"type":"POLITY","areaKm2":93286.0629244843,"wikipedia":"Middle Kingdom of Egypt","wikidata":"Q191324","seshatId":"eg_middle_k","source":"cliopatria"},"geometry":{"type":"Polygon","coordinates":[[[31.100712813184785,31.601398909376332],[30.97784513487638,31.583536085866363],[31.126454099179075,31.496664196680797],[30.90250020747968,31.420273208275432],[30.54416328369458,31.393191110728825],[30.95610918281863,31.575691127543095],[30.35544506854661,31.50284501322864],[30.289718207709452,31.23735409662011],[30.064445171497525,31.32027307975135],[29.497160077412527,30.94561350529802],[29.502583909813826,30.502766742745933],[30.115655180987133,30.06689028785865],[30.37513545877673,29.720170380093034],[30.38526836739363,29.422147580137334],[30.02923075937185,29.18600714528452],[29.94601875462713,28.915036982428212],[30.052122451793366,28.77325026984942],[30.448412711608604,28.71085510726299],[30.74802596902192,27.232689084040377],[31.619609768703235,26.434736194336566],[31.84759135794851,25.944417362442707],[32.54328787225204,25.892914350652624],[32.347672562234614,25.725773156022026],[32.24184161392235,25.306159087785502],[32.63707079901521,25.005303718371426],[32.76496131174994,24.712365595545613],[32.7481902860308,24.000722843443253],[33.1323302880233,23.995802001554413],[33.108127742127095,25.044678825285935],[32.895238332730926,25.16628773201873],[32.69416545397499,25.493956176070828],[32.947769292131625,25.89087413654745],[32.90137901724346,26.194896404784057],[32.171805682304054,26.41109001945793],[31.524272601943938,26.998793286445707],[31.383178339626408,27.26633843787617],[30.980737285993307,27.416592999634588],[30.930940053842043,28.03348833833653],[31.001844706188294,28.51000486287415],[31.37019594180969,29.305804680081025],[31.87211118809071,29.267181378985402],[32.53772168551441,29.407499535929993],[32.3408270836643,29.594864173234686],[32.47763617301253,29.936800058803303],[32.84801885076164,30.16182550154576],[32.72910154311648,30.558076823234998],[32.762468338735985,30.867648168919068],[32.68537449575814,31.04491985873768],[32.32958225752087,31.269300044308867],[32.21475403958888,31.282427109872735],[32.27979123936085,31.124300158646317],[32.14306328711131,31.0741641409831],[31.777463277057542,31.27739109480343],[31.909654105433173,31.527564250767764],[32.0172182301798,31.380554051378187],[32.20249114810904,31.290936083305773],[31.9214823111845,31.529882183453562],[31.87170017735304,31.534918030038103],[31.55694512751292,31.44221803626223],[31.103098511956162,31.601133686728325],[31.100712813184785,31.601398909376332]]]}}]}