{"type":"FeatureCollection","name":"cliopatria_snapshot_-3000","properties":{"year":-3000,"source":"Cliopatria (Seshat Global History Databank)","license":"CC BY 4.0","licenseUrl":"https://creativecommons.org/licenses/by/4.0/","attribution":"Cliopatria / Seshat Global History Databank (CC BY 4.0). Korea polities excluded.","excluded":"korea_related","wikidataNote":"Feature properties.wikidata → https://www.wikidata.org/wiki/<id>","ohmNote":"OpenHistoricalMap planet dumps at s3://planet.openhistoricalmap.org — optional detail layer, not used in this snapshot build."},"features":[{"type":"Feature","properties":{"name":"Elam","fromYear":-3200,"toYear":-2701,"type":"POLITY","areaKm2":4927.8478131011,"wikipedia":"Elam","wikidata":"Q128904","seshatId":null,"source":"cliopatria"},"geometry":{"type":"Polygon","coordinates":[[[48.0578498840332,32.30024337768555],[47.981449127197266,32.30024337768555],[47.94719314575195,32.043148040771484],[48.099849700927734,32.043148040771484],[48.21845626831055,31.78606605529785],[48.523494720458984,31.78606605529785],[48.54059982299805,31.91460609436035],[48.86314392089844,32.043148040771484],[48.89824676513672,32.30024337768555],[48.61023712158203,32.428794860839844],[48.62794876098633,32.557350158691406],[48.32206344604492,32.557350158691406],[48.134246826171875,32.30024337768555],[48.0578498840332,32.30024337768555]]]}},{"type":"Feature","properties":{"name":"Sumerian City-States","fromYear":-3000,"toYear":-2701,"type":"POLITY","areaKm2":45289.54883803891,"wikipedia":"History of Sumer","wikidata":"Q2345840","seshatId":null,"source":"cliopatria"},"geometry":{"type":"Polygon","coordinates":[[[46.54073715209961,31.78606605529785],[46.633235931396484,31.91460609436035],[46.48877716064453,31.978878021240234],[46.45344924926758,32.30024337768555],[46.377052307128906,32.30024337768555],[46.6141242980957,32.94303894042969],[46.16311264038086,33.00732421875],[46.14643478393555,33.45735549926758],[45.73723220825195,33.26447677612305],[45.550323486328125,33.00732421875],[45.02235794067383,33.07160949707031],[44.74873733520508,33.32876968383789],[44.59535598754883,33.32876968383789],[44.57895278930664,33.20018768310547],[44.4256477355957,33.20018768310547],[44.16355895996094,32.94303894042969],[44.1926155090332,32.557350158691406],[44.33769226074219,32.493072509765625],[44.32204055786133,32.36451721191406],[44.71202850341797,32.428794860839844],[44.833316802978516,32.171695709228516],[45.062408447265625,32.171695709228516],[45.19933319091797,32.043148040771484],[45.80741500854492,30.757776260375977],[46.438812255859375,30.307893753051758],[46.590572357177734,30.307893753051758],[46.696475982666016,30.564971923828125],[47.235774993896484,30.629240036010742],[47.29846954345703,31.143381118774414],[46.84192657470703,31.143381118774414],[46.532676696777344,31.7217960357666],[46.54073715209961,31.78606605529785]]]}},{"type":"Feature","properties":{"name":"Early Dynastic Period of Egypt","fromYear":-3000,"toYear":-2701,"type":"POLITY","areaKm2":93286.0629244843,"wikipedia":"Early Dynastic Period (Egypt)","wikidata":"Q187979","seshatId":"eg_dynasty_1","source":"cliopatria"},"geometry":{"type":"Polygon","coordinates":[[[31.100712813184785,31.601398909376332],[30.97784513487638,31.583536085866363],[31.126454099179075,31.496664196680797],[30.90250020747968,31.420273208275432],[30.54416328369458,31.393191110728825],[30.95610918281863,31.575691127543095],[30.35544506854661,31.50284501322864],[30.289718207709452,31.23735409662011],[30.064445171497525,31.32027307975135],[29.497160077412527,30.94561350529802],[29.502583909813826,30.502766742745933],[30.115655180987133,30.06689028785865],[30.37513545877673,29.720170380093034],[30.38526836739363,29.422147580137334],[30.02923075937185,29.18600714528452],[29.94601875462713,28.915036982428212],[30.052122451793366,28.77325026984942],[30.448412711608604,28.71085510726299],[30.74802596902192,27.232689084040377],[31.619609768703235,26.434736194336566],[31.84759135794851,25.944417362442707],[32.54328787225204,25.892914350652624],[32.347672562234614,25.725773156022026],[32.24184161392235,25.306159087785502],[32.63707079901521,25.005303718371426],[32.76496131174994,24.712365595545613],[32.7481902860308,24.000722843443253],[33.1323302880233,23.995802001554413],[33.108127742127095,25.044678825285935],[32.895238332730926,25.16628773201873],[32.69416545397499,25.493956176070828],[32.947769292131625,25.89087413654745],[32.90137901724346,26.194896404784057],[32.171805682304054,26.41109001945793],[31.524272601943938,26.998793286445707],[31.383178339626408,27.26633843787617],[30.980737285993307,27.416592999634588],[30.930940053842043,28.03348833833653],[31.001844706188294,28.51000486287415],[31.37019594180969,29.305804680081025],[31.87211118809071,29.267181378985402],[32.53772168551441,29.407499535929993],[32.3408270836643,29.594864173234686],[32.47763617301253,29.936800058803303],[32.84801885076164,30.16182550154576],[32.72910154311648,30.558076823234998],[32.762468338735985,30.867648168919068],[32.68537449575814,31.04491985873768],[32.32958225752087,31.269300044308867],[32.21475403958888,31.282427109872735],[32.27979123936085,31.124300158646317],[32.14306328711131,31.0741641409831],[31.777463277057542,31.27739109480343],[31.909654105433173,31.527564250767764],[32.0172182301798,31.380554051378187],[32.20249114810904,31.290936083305773],[31.9214823111845,31.529882183453562],[31.87170017735304,31.534918030038103],[31.55694512751292,31.44221803626223],[31.103098511956162,31.601133686728325],[31.100712813184785,31.601398909376332]]]}},{"type":"Feature","properties":{"name":"Indus Valley Civilization","fromYear":-3000,"toYear":-2701,"type":"POLITY","areaKm2":4997.632390870805,"wikipedia":"Indus Valley Civilisation","wikidata":"Q42534","seshatId":"pk_kachi_pre_urban","source":"cliopatria"},"geometry":{"type":"Polygon","coordinates":[[[68.04823303222656,27.029460906982422],[67.93557739257812,26.772293090820312],[68.0857925415039,26.772293090820312],[68.1990966796875,26.515121459960938],[68.49932861328125,26.515121459960938],[68.51779174804688,26.643707275390625],[68.83687591552734,26.772293090820312],[68.87496948242188,27.029460906982422],[68.59357452392578,27.158044815063477],[68.61300659179688,27.2866268157959],[68.31217193603516,27.2866268157959],[68.1233901977539,27.029460906982422],[68.04823303222656,27.029460906982422]]]}}]}