{"type":"FeatureCollection","properties":{"year":825,"source":"korea","fillHint":"layer in polity|polity_prehistory|hypothesis; prefer uiDefault"},"features":[{"type":"Feature","properties":{"id":"clio-tang-dynasty-763","layer":"polity","nameEn":"Tang Dynasty","nameKo":"당","category":"이웃 정치체(맥락)","role":"context","startYear":763,"endYear":849,"confidence":"context","license":"CC-BY-4.0 (Cliopatria, Seshat) — 단순화·클리핑 등 변경 있음","wikipedia":"Tang dynasty","wikidata":"Q9683","sources":["CLIO"],"uiDefault":false,"label":[119.324,39.902],"note":null,"source":"korea"},"geometry":{"type":"Polygon","coordinates":[[[117.9129,40.5496],[118.0713,40.5496],[118.2003,40.3554],[118.9983,40.2259],[119.5452,40.3554],[119.7596,40.0317],[119.9175,40.0317],[119.3804,39.7729],[119.2153,39.3203],[118.9894,39.1911],[118.0569,39.0618],[118.0457,39.1911],[117.8884,39.1911],[117.5764,38.7389],[117.6549,38.7389],[117.6025,38.4806],[118.0536,38.2869],[118.0674,38.1578],[118.583,38.0933],[118.6476,38.2224],[118.8042,38.2224],[118.7718,38.1578],[119.4571,37.9643],[119.3928,37.8352],[119.2366,37.8352],[118.984,37.3193],[119.14,37.3193],[119.1557,37.1904],[119.7011,37.1904],[119.8266,37.4483],[120.2022,37.5773],[120.1881,37.7062],[120.7538,37.8998],[121.112,37.8352],[121.171,37.6417],[121.4833,37.6417],[121.4969,37.5128],[122.1535,37.5773],[122.1211,37.5128],[122.7129,37.4483],[122.4742,37.126],[122.5664,36.9971],[122.3939,36.8037],[121.9121,36.9326],[121.2121,36.6105],[120.9789,36.6105],[120.9648,36.4172],[120.7318,36.4172],[120.6585,36.0952],[120.3185,36.0308],[119.9865,35.6445],[119.6187,35.5158],[119.2276,34.8079],[119.459,34.8079],[119.4309,34.7436],[119.7113,34.6793],[119.7323,34.5506],[120.3418,34.3577],[120.4894,34.1647],[120.5505,33.5859],[120.9263,33.2002],[120.9192,32.6216],[121.4026,32.4931],[121.5033,32.1717],[121.9112,32],[117,32],[117,41.4312],[117.5986,41.3922],[117.6033,41.2625],[117.7623,41.2625],[117.8467,41.1328],[117.7726,41.0032],[117.8576,40.8736],[117.8209,40.8088],[117.9002,40.8088],[117.8271,40.6792],[117.9129,40.5496]]]}},{"type":"Feature","properties":{"id":"clio-unified-silla-682","layer":"polity","nameEn":"Unified Silla","nameKo":"통일신라","category":"국가(Cliopatria)","role":"korean","startYear":682,"endYear":891,"confidence":"medium","license":"CC-BY-4.0 (Cliopatria, Seshat) — 단순화·클리핑 등 변경 있음","wikipedia":"Unified Silla","wikidata":"Q715257","sources":["CLIO"],"uiDefault":true,"label":[128.058,37.19],"note":null,"source":"korea"},"geometry":{"type":"MultiPolygon","coordinates":[[[[126.3563,33.5217],[126.9988,33.5859],[126.7801,33.2645],[126.7035,33.2645],[126.1388,33.2002],[126.3563,33.5217]]],[[[128.3638,38.8034],[129.1002,37.5773],[129.2563,37.5773],[129.4748,37.2549],[129.4069,37.126],[129.5393,36.9326],[129.3964,36.3528],[129.474,36.3528],[129.4214,36.0952],[129.5765,36.0952],[129.6669,35.9664],[129.5387,35.7089],[129.6161,35.7089],[129.1471,35.0653],[128.5294,35.0653],[128.5451,34.9366],[128.8074,35.001],[128.6849,34.7436],[128.3297,34.8079],[128.3136,34.9366],[128.0821,34.9366],[128.0679,34.7436],[127.7595,34.7436],[127.3783,34.422],[127.2243,34.422],[127.1297,34.5506],[127.2968,34.7436],[127.2196,34.7436],[127.0229,34.4863],[126.6262,34.2933],[126.4246,34.3577],[126.4837,34.4863],[126.3476,34.3577],[126.1166,34.3577],[126.4784,34.8079],[126.1998,34.8723],[126.3812,35.2584],[126.3039,35.2584],[126.5192,35.7089],[126.7678,35.902],[126.6128,35.902],[126.6757,36.0308],[126.5206,36.0308],[126.4286,36.1596],[126.4516,36.6749],[126.2638,36.6105],[126.0498,36.8037],[126.3032,36.9971],[126.6475,37.0615],[126.7023,37.3193],[126.5352,37.4483],[126.6025,37.5773],[126.2459,37.6417],[126.3477,37.8352],[125.8449,37.7707],[125.8347,37.8998],[125.6783,37.8998],[125.3871,37.6417],[125.231,37.6417],[125.2981,37.7707],[125.2093,37.8998],[124.8967,37.8998],[125.0767,38.0933],[124.7637,38.0933],[124.8664,38.2869],[124.7881,38.2869],[124.9614,38.6097],[125.1533,38.6743],[125.1885,38.7389],[125.5734,38.868],[125.7893,39.2557],[126.6368,39.7729],[127.8135,40.1612],[128.2877,40.1612],[128.1714,39.967],[127.9346,39.967],[127.5833,39.7729],[127.6653,39.6436],[127.4414,39.2557],[127.7978,39.1911],[127.761,39.1265],[127.9182,39.1265],[128.002,38.9972],[128.0806,38.9972],[128.2068,38.8034],[128.3638,38.8034]]]]}},{"type":"Feature","properties":{"id":"clio-balhae-825","layer":"polity","nameEn":"Balhae","nameKo":"발해","category":"국가(Cliopatria)","role":"korean","startYear":825,"endYear":849,"confidence":"low","license":"original (authored; Cliopatria 원 경계를 대체)","wikipedia":"Balhae","wikidata":"Q28322","sources":["RESEARCH_V02"],"uiDefault":true,"label":[129.123,43.894],"note":null,"source":"korea"},"geometry":{"type":"Polygon","coordinates":[[[125.289,43.433],[125.204,44.355],[125.169,44.441],[125.061,44.499],[124.4,44.5],[124.4,45.4],[124.765,45.403],[126.603,45.75],[128.439,45.95],[129.209,46.182],[129.542,46.316],[130.4,46.8],[131.266,47.032],[132.319,47.555],[132.503,47.701],[134.3,48.35],[135.08,48.496],[133.74,45.943],[133.87,44.17],[133.119,43.119],[132.87,42.82],[132.7658,42.8486],[132.7747,42.8955],[132.7639,42.9073],[132.7387,42.9073],[132.7027,42.8786],[132.6834,42.8741],[132.299,42.9931],[132.2923,43.0441],[132.3067,43.0643],[132.2923,43.0863],[132.3211,43.0947],[132.3247,43.1066],[132.3175,43.1201],[132.3391,43.1336],[132.3247,43.1403],[132.3283,43.1758],[132.3571,43.1707],[132.3823,43.191],[132.3607,43.2163],[132.3067,43.2383],[132.3067,43.2467],[132.3463,43.267],[132.3571,43.2855],[132.3067,43.3193],[132.2887,43.3126],[132.2815,43.2788],[132.2527,43.267],[132.2275,43.2298],[132.1375,43.191],[132.0943,43.1809],[132.0439,43.1268],[131.9809,43.0896],[131.9143,43.106],[131.9215,43.1201],[131.8986,43.1062],[131.8475,43.0941],[131.9107,43.1977],[131.9575,43.2298],[131.9971,43.2383],[132.0079,43.2602],[132.0511,43.2974],[132.0511,43.3143],[132.0439,43.3244],[132.0295,43.3244],[132.0151,43.3159],[131.9935,43.2737],[131.9683,43.2703],[131.9791,43.2923],[131.9575,43.3058],[131.8963,43.3193],[131.8459,43.3058],[131.8243,43.3176],[131.8387,43.3328],[131.8171,43.3362],[131.7631,43.2923],[131.7487,43.2248],[131.7235,43.2096],[131.7235,43.2028],[131.7595,43.1961],[131.7631,43.1859],[131.7307,43.1741],[131.6947,43.2028],[131.6479,43.169],[131.6515,43.1555],[131.6659,43.1572],[131.6947,43.1758],[131.6659,43.1251],[131.5867,43.0491],[131.5615,43.039],[131.5651,42.9968],[131.5471,42.9934],[131.5183,43.0086],[131.5003,43.0002],[131.4931,42.985],[131.4967,42.9428],[131.4283,42.9343],[131.4067,42.9512],[131.3923,42.9445],[131.3851,42.9141],[131.4067,42.9107],[131.4027,42.8816],[130.851,42.718],[130.8285,42.6985],[130.8019,42.6962],[130.7695,42.681],[130.7443,42.681],[130.7191,42.6996],[130.6939,42.6861],[130.6579,42.6642],[130.6615,42.6439],[130.6831,42.6439],[130.7335,42.6152],[130.7299,42.5797],[130.753,42.5952],[130.7025,42.295],[130.5967,42.2623],[130.5967,42.2977],[130.5679,42.3146],[130.5391,42.318],[130.5103,42.3366],[130.4671,42.3349],[130.4707,42.3214],[130.4563,42.3112],[130.4383,42.3095],[130.4203,42.3247],[130.4059,42.3247],[130.4059,42.3079],[130.3843,42.291],[130.3915,42.264],[130.4059,42.2606],[130.4023,42.242],[130.3771,42.2572],[130.3663,42.2555],[130.3591,42.2437],[130.3699,42.2319],[130.3519,42.2167],[130.3339,42.2133],[130.3303,42.1913],[130.3087,42.1829],[130.3159,42.2184],[130.3087,42.2369],[130.2943,42.2369],[130.2295,42.1829],[130.2007,42.1728],[130.2007,42.1019],[130.1755,42.0985],[130.1611,42.085],[130.1683,42.0765],[130.1503,42.0748],[130.1215,42.09],[130.0927,42.09],[130.0747,42.0782],[130.0675,42.0512],[130.0531,42.0512],[130.0351,42.0124],[130.0351,41.9955],[130.0279,41.9921],[130.0135,42.014],[130.0027,42.0107],[130.0027,41.9904],[129.9811,41.982],[130.0027,41.9617],[129.9739,41.9414],[129.9631,41.8992],[129.9442,41.8954],[129.9379,41.9043],[129.9127,41.911],[129.8983,41.9043],[129.8868,41.8672],[129.784,41.784],[128.0405,40.0405],[128.0083,40.0452],[127.9975,40.0198],[127.9615,40],[124.4,40],[124.3978,40.0203],[124.4046,40.0283],[124.4658,40.0148],[124.4982,40.0232],[124.4118,40.0367],[124.3951,40.0459],[124.103,42.802],[125.21,43.31],[125.289,43.433]]]}},{"type":"Feature","properties":{"id":"clio-heian-japan-814","layer":"polity","nameEn":"Heian Japan","nameKo":"헤이안 일본","category":"이웃 정치체(맥락)","role":"context","startYear":814,"endYear":1093,"confidence":"context","license":"CC-BY-4.0 (Cliopatria, Seshat) — 단순화·클리핑 등 변경 있음","wikipedia":"Heian period","wikidata":"Q193292","sources":["CLIO"],"uiDefault":false,"label":[130.742,33.779],"note":null,"source":"korea"},"geometry":{"type":"Polygon","coordinates":[[[137,37.0962],[137,34.7436],[136.9363,34.7436],[136.7258,34.9366],[136.5954,34.6793],[136.7942,34.615],[136.9733,34.3577],[136.9093,34.229],[136.4475,34.229],[135.8117,33.3931],[135.4125,33.5217],[135.3511,33.7146],[135.0288,33.8432],[135.1534,34.1004],[135.0168,34.2933],[135.3429,34.4863],[135.4389,34.6793],[134.9125,34.5506],[134.6999,34.7436],[134.4686,34.7436],[133.2463,34.2933],[132.3226,34.2933],[132.1856,33.8432],[131.9085,33.9075],[131.9388,33.9718],[131.0931,33.9718],[131.0971,33.6502],[131.8181,33.7146],[131.6399,33.3288],[132.0885,33.1359],[132.001,32.943],[132.0776,32.943],[131.7807,32.6216],[131.5504,32],[130.1358,32],[130.2089,32.1717],[130.5211,32.3645],[130.5654,32.8145],[130.3736,33.0716],[130.1062,32.8145],[129.8765,32.8145],[129.9333,32.943],[129.6752,32.8788],[129.6841,33.0716],[129.5595,33.1359],[129.5982,33.3931],[129.8283,33.3931],[129.916,33.5859],[130.3293,33.6502],[130.4183,33.8432],[130.8624,33.9718],[130.8761,34.1647],[130.7992,34.1647],[130.9211,34.422],[131.414,34.4863],[131.4759,34.615],[132.5634,35.2584],[132.6925,35.5158],[134.2726,35.5802],[134.4936,35.7089],[135.3788,35.7733],[135.2786,35.5802],[135.7095,35.5158],[136.0758,35.7733],[135.9109,35.902],[136.0039,36.224],[136.4529,36.4816],[136.7063,36.8037],[136.5795,36.9971],[136.6511,37.126],[136.5732,37.126],[136.7178,37.3838],[137,37.467],[137,37.1385],[136.9627,37.126],[137,37.0962]]]}},{"type":"Feature","properties":{"id":"cap-gyeongju","layer":"site","nameEn":"Geumseong (Gyeongju)","nameKo":"금성(경주)","category":"도읍","role":"korean","startYear":-57,"endYear":935,"confidence":"high","license":"original (authored)","wikipedia":null,"wikidata":null,"sources":["KOWIKI_SILLA"],"uiDefault":false,"label":null,"note":"사로국~신라~통일신라 도읍(건국 -57은 삼국사기 기준). 935년 고려에 항복.","source":"korea"},"geometry":{"type":"Point","coordinates":[129.22,35.835]}},{"type":"Feature","properties":{"id":"sogyeong-geumgwan","layer":"site","nameEn":"Geumgwan-gyeong","nameKo":"금관경(김해)","category":"통일신라 5소경","role":"korean","startYear":685,"endYear":935,"confidence":"medium","license":"original (authored)","wikipedia":null,"wikidata":null,"sources":["GK","KOWIKI_SILLA"],"uiDefault":false,"label":null,"note":"통일신라 5소경 체제(대략 신문왕 대 완성으로 알려짐, 연도 근사). 좌표는 현행 시 중심 기준.","source":"korea"},"geometry":{"type":"Point","coordinates":[128.889,35.228]}},{"type":"Feature","properties":{"id":"sogyeong-jungwon","layer":"site","nameEn":"Jungwon-gyeong","nameKo":"중원경(충주)","category":"통일신라 5소경","role":"korean","startYear":685,"endYear":935,"confidence":"medium","license":"original (authored)","wikipedia":null,"wikidata":null,"sources":["GK","KOWIKI_SILLA"],"uiDefault":false,"label":null,"note":"통일신라 5소경 체제(대략 신문왕 대 완성으로 알려짐, 연도 근사). 좌표는 현행 시 중심 기준.","source":"korea"},"geometry":{"type":"Point","coordinates":[127.93,36.99]}},{"type":"Feature","properties":{"id":"sogyeong-seowon","layer":"site","nameEn":"Seowon-gyeong","nameKo":"서원경(청주)","category":"통일신라 5소경","role":"korean","startYear":685,"endYear":935,"confidence":"medium","license":"original (authored)","wikipedia":null,"wikidata":null,"sources":["GK","KOWIKI_SILLA"],"uiDefault":false,"label":null,"note":"통일신라 5소경 체제(대략 신문왕 대 완성으로 알려짐, 연도 근사). 좌표는 현행 시 중심 기준.","source":"korea"},"geometry":{"type":"Point","coordinates":[127.49,36.64]}},{"type":"Feature","properties":{"id":"sogyeong-namwon","layer":"site","nameEn":"Namwon-gyeong","nameKo":"남원경(남원)","category":"통일신라 5소경","role":"korean","startYear":685,"endYear":935,"confidence":"medium","license":"original (authored)","wikipedia":null,"wikidata":null,"sources":["GK","KOWIKI_SILLA"],"uiDefault":false,"label":null,"note":"통일신라 5소경 체제(대략 신문왕 대 완성으로 알려짐, 연도 근사). 좌표는 현행 시 중심 기준.","source":"korea"},"geometry":{"type":"Point","coordinates":[127.39,35.42]}},{"type":"Feature","properties":{"id":"sogyeong-bugwon","layer":"site","nameEn":"Bugwon-gyeong","nameKo":"북원경(원주)","category":"통일신라 5소경","role":"korean","startYear":685,"endYear":935,"confidence":"medium","license":"original (authored)","wikipedia":null,"wikidata":null,"sources":["GK","KOWIKI_SILLA"],"uiDefault":false,"label":null,"note":"통일신라 5소경 체제(대략 신문왕 대 완성으로 알려짐, 연도 근사). 좌표는 현행 시 중심 기준.","source":"korea"},"geometry":{"type":"Point","coordinates":[127.95,37.34]}},{"type":"Feature","properties":{"id":"stele-bukhansan","layer":"site","nameEn":"Bukhansan Monument (Jinheung)","nameKo":"북한산 순수비","category":"영역 증거(순수비)","role":"korean","startYear":555,"endYear":2026,"confidence":"medium","license":"original (authored)","wikipedia":null,"wikidata":null,"sources":["KOWIKI_SILLA","GK"],"uiDefault":false,"label":null,"note":"진흥왕 한강 유역 진출(553) 이후의 순수비로 알려짐(연도 근사).","source":"korea"},"geometry":{"type":"Point","coordinates":[126.96,37.62]}},{"type":"Feature","properties":{"id":"stele-changnyeong","layer":"site","nameEn":"Changnyeong Monument (Jinheung)","nameKo":"창녕 순수비","category":"영역 증거(순수비)","role":"korean","startYear":561,"endYear":2026,"confidence":"medium","license":"original (authored)","wikipedia":null,"wikidata":null,"sources":["KOWIKI_SILLA","GK"],"uiDefault":false,"label":null,"note":"가야 방면 진출 관련 순수비로 알려짐(연도 근사).","source":"korea"},"geometry":{"type":"Point","coordinates":[128.49,35.54]}},{"type":"Feature","properties":{"id":"stele-hwangchoryeong","layer":"site","nameEn":"Hwangchoryeong Monument (Jinheung)","nameKo":"황초령 순수비","category":"영역 증거(순수비)","role":"korean","startYear":568,"endYear":2026,"confidence":"low","license":"original (authored)","wikipedia":null,"wikidata":null,"sources":["KOWIKI_SILLA","GK"],"uiDefault":false,"label":null,"note":"함경도 방면 진출을 보여 주는 순수비로 알려짐. 좌표는 지명 기준 개략.","source":"korea"},"geometry":{"type":"Point","coordinates":[127.45,40.25]}},{"type":"Feature","properties":{"id":"stele-maunryeong","layer":"site","nameEn":"Maunryeong Monument (Jinheung)","nameKo":"마운령 순수비","category":"영역 증거(순수비)","role":"korean","startYear":568,"endYear":2026,"confidence":"low","license":"original (authored)","wikipedia":null,"wikidata":null,"sources":["KOWIKI_SILLA","GK"],"uiDefault":false,"label":null,"note":"함경도 방면 진출을 보여 주는 순수비로 알려짐. 좌표는 지명 기준 개략.","source":"korea"},"geometry":{"type":"Point","coordinates":[128.4,40.35]}},{"type":"Feature","properties":{"id":"isl-ulleung","layer":"site","nameEn":"Ulleungdo","nameKo":"울릉도","category":"국경·경계","role":"korean","startYear":512,"endYear":2026,"confidence":"medium","license":"original (authored)","wikipedia":null,"wikidata":null,"sources":["GK","KOWIKI_DOKDO"],"uiDefault":false,"label":null,"note":"신라 이사부의 우산국 복속(512)은 위키 정리 본문에는 명시가 없어 작성자 일반 지식으로 표기. 재검증 필요.","source":"korea"},"geometry":{"type":"Point","coordinates":[130.87,37.5]}},{"type":"Feature","properties":{"id":"gr-gwanggaeto-stele","layer":"site","nameEn":"Gwanggaeto Stele (Ji'an)","nameKo":"광개토왕릉비(집안)","category":"고구려 성·유적","role":"korean","startYear":414,"endYear":2026,"confidence":"high","license":"original (authored)","wikipedia":null,"wikidata":null,"sources":["RESEARCH_V02"],"uiDefault":false,"label":null,"note":"414년 장수왕이 건립. 395~410년 원정의 동시대 기록. 신묘년 조 해석은 논쟁.","source":"korea"},"geometry":{"type":"Point","coordinates":[126.2142,41.1447]}},{"type":"Feature","properties":{"id":"bh-shangjing","layer":"site","nameEn":"Shangjing Longquanfu (Ning'an)","nameKo":"상경 용천부(닝안 동경성)","category":"도읍","role":"korean","startYear":756,"endYear":926,"confidence":"high","license":"original (authored)","wikipedia":null,"wikidata":null,"sources":["RESEARCH_V02"],"uiDefault":false,"label":null,"note":"가장 크게 발굴된 발해 도성(당 장안성식 계획). 756~785, 793/794~926 수도, 926년 초 거란 함락.","source":"korea"},"geometry":{"type":"Point","coordinates":[129.2,44.15]}},{"type":"Feature","properties":{"id":"bh-donggyeong","layer":"site","nameEn":"Donggyeong Longyuanfu (Balyeonseong, Hunchun)","nameKo":"동경 용원부(훈춘 팔련성)","category":"5경","role":"korean","startYear":785,"endYear":926,"confidence":"high","license":"original (authored)","wikipedia":null,"wikidata":null,"sources":["RESEARCH_V02"],"uiDefault":false,"label":null,"note":"1942년 훈춘 반랍성 발굴로 비정 확정. 785~794 임시 수도. 산하 염주(경주·염주·목주·하주 중 염주 중심=크라스키노 유적).","source":"korea"},"geometry":{"type":"Point","coordinates":[130.37,42.86]}},{"type":"Feature","properties":{"id":"bh-namgyeong","layer":"site","nameEn":"Namgyeong Namhaebu (Bukcheong view, disputed)","nameKo":"남경 남해부(북청설, 위치 논쟁)","category":"5경","role":"korean","startYear":785,"endYear":926,"confidence":"low","license":"original (authored)","wikipedia":null,"wikidata":null,"sources":["RESEARCH_V02"],"uiDefault":false,"label":null,"note":"북청(청해토성)이 유력하다는 서술이 많으나 함흥설(정약용)·백운산성설 등이 있어 확정 못 함. 776년 일본 사신 '도호포' 출항 기록이 남해부 해안 발해 존재의 정황 증거.","source":"korea"},"geometry":{"type":"Point","coordinates":[128.3,40.25]}},{"type":"Feature","properties":{"id":"bh-xijing","layer":"site","nameEn":"Seogyeong Aprokbu (Linjiang view)","nameKo":"서경 압록부(임강설)","category":"5경","role":"korean","startYear":785,"endYear":926,"confidence":"medium","license":"original (authored)","wikipedia":null,"wikidata":null,"sources":["RESEARCH_V02"],"uiDefault":false,"label":null,"note":"임강(허난툰 발굴, 2005)이 유력하나 발해 유적이 얇다는 비판. 대안: 집안·평양 등.","source":"korea"},"geometry":{"type":"Point","coordinates":[126.917,41.817]}},{"type":"Feature","properties":{"id":"bh-buyeo-fu","layer":"site","nameEn":"Buyeo-bu (Nong'an leading view)","nameKo":"부여부(농안 유력설)","category":"발해 15부","role":"korean","startYear":818,"endYear":926,"confidence":"low","license":"original (authored)","wikipedia":null,"wikidata":null,"sources":["RESEARCH_V02"],"uiDefault":false,"label":null,"note":"거란과 접한 요충. 농안이 '유력설'이며 사면성(쓰몐청) 등이 대안. 고구려 부여성과 지명이 겹침.","source":"korea"},"geometry":{"type":"Point","coordinates":[125.18,44.43]}},{"type":"Feature","properties":{"id":"bh-solbin-ussuriysk","layer":"site","nameEn":"Solbin-bu – Ussuriysk view (majority anchor)","nameKo":"솔빈부 – 우수리스크설(다수설 기준점)","category":"발해 15부","role":"korean","startYear":818,"endYear":926,"confidence":"low","license":"original (authored)","wikipedia":null,"wikidata":null,"sources":["RESEARCH_V02"],"uiDefault":false,"label":null,"note":"우수리스크(쌍성자) 일대가 다수설. 대안: 중국 둥닝현 대성자(발해 도성과 유사한 성곽). Kradin(2023)은 솔빈부 중심이 중국 측 대성자였을 가능성. 말 산지로 유명.","source":"korea"},"geometry":{"type":"Point","coordinates":[131.95,43.8]}},{"type":"Feature","properties":{"id":"bh-kraskino","layer":"site","nameEn":"Kraskino gorodishche (Yanzhou), Primorye","nameKo":"크라스키노 성터(염주 비정, 러시아 연해주)","category":"연해주 발해 유적","role":"korean","startYear":700,"endYear":926,"confidence":"high","license":"original (authored)","wikipedia":null,"wikidata":null,"sources":["RESEARCH_V02"],"uiDefault":false,"label":null,"note":"발해 염주(동경 용원부 산하) 치소로 1871년 카파로프 이래 비정. 둘레 약 1.2km 성, 절터·탑지·가마·우물, 10세기 상층에서 거란계 유물. 일본도의 해항으로서 발해 국가 행정의 가장 명확한 증거. 다만 이것만으로 연해주 중·북부 지배가 입증되지는 않음. [v0.4] 이 성터의 '가장 아래 층'을 고구려시기로 본 보고가 있으나 유물 형식이 아니라 14C+층위 추정이고, '고구려 최동단' 주장과는 별개(→ 주장 검증 탭).","source":"korea"},"geometry":{"type":"Point","coordinates":[130.767,42.695]}},{"type":"Feature","properties":{"id":"bh-marianovka","layer":"site","nameEn":"Marianovskoe gorodishche (Kirovsky district)","nameKo":"마리야노프카 성터(키로프 구)","category":"연해주 발해 유적","role":"korean","startYear":700,"endYear":1250,"confidence":"low","license":"original (authored)","wikipedia":null,"wikidata":null,"sources":["RESEARCH_V02"],"uiDefault":false,"label":null,"note":"키로프 구 자료: 8~13세기. 동북아역사넷: 발해 때 사용 뒤 금(金)대에 재사용, 1995년 한러 공동조사; 소속 행정 단위 미상. 일부 요약의 '연해주 최북단 발해 성'은 재확인되지 않음. 발해 영토 확장 증거로 쓰려면 발해기 층위 확정이 먼저 필요.","source":"korea"},"geometry":{"type":"Point","coordinates":[133.5,45.1]}},{"type":"Feature","properties":{"id":"bh-nikolaevka","layer":"site","nameEn":"Nikolaevskoe gorodishche (Partizansk district)","nameKo":"니콜라예프카 성터(파르티잔스크 구)","category":"연해주 발해 유적","role":"korean","startYear":700,"endYear":1250,"confidence":"low","license":"original (authored)","wikipedia":null,"wikidata":null,"sources":["RESEARCH_V02"],"uiDefault":false,"label":null,"note":"발해기(8~10세기)와 금대(12~13세기) 층. 샤브쿠노프 1960~62 발굴. 새 해석은 이 곳이 발해 국경 밖 말갈 수령의 근거지일 수 있다고 봄(동북아역사넷 요약).","source":"korea"},"geometry":{"type":"Point","coordinates":[133.13,43.13]}},{"type":"Feature","properties":{"id":"bh-troitskoe-amur","layer":"site","nameEn":"Troitskoye burial ground (Amur Oblast, Mohe / Troitskaya group)","nameKo":"트로이츠코예 고분군(아무르주, 말갈)","category":"아무르·말갈 유적(발해 관련성 논쟁)","role":"korean","startYear":600,"endYear":1000,"confidence":"medium","license":"original (authored)","wikipedia":null,"wikidata":null,"sources":["RESEARCH_V02"],"uiDefault":false,"label":null,"note":"연해주가 아니라 아무르주 이바노프 구(벨라야 강 좌안). 백두산에서 직선 약 1,000km. 데레뱐코 발굴(1969~74)·알킨과 지린대(2004~05), 약 1,100기 이상 무덤 자리. 러시아 학계는 말갈 문화(트로이츠카야 그룹)로 보며 편년은 6~8세기설부터 8세기~11세기 초설까지 갈림(일부는 926년 이후). 네스테로프·볼코프는 트로이츠카야 그룹을 송화강 유역의 발해(속말)말갈이 8세기에 이주해 형성한 집단으로 해석 — 발해 건국 집단과의 '문화·인구 연결' 가설이며 발해 국가 통치의 증거는 아님. 정석배(2018)는 취락에서 회색 도편 9점이 상경·크라스키노 토기와 비슷하다며 발해 거주·서쪽 아무르 평원(약 북위 50.7°)까지 영역 가능성을 제기(신문 보도만 열람, 논문 미열람). NRICH 2007 목록은 '초기 중세'로만 분류. 아직 이 지역에서 발해 행정 유적(성터·관청·불교 유적)이 확인된 사례는 열람 범위에서 못 찾음.","source":"korea"},"geometry":{"type":"Point","coordinates":[127.933,50.75]}},{"type":"Feature","properties":{"id":"bh-ext-830-main","layer":"hypothesis","nameEn":"Balhae – peak, mainstream reading (schematic)","nameKo":"발해 – 선왕기(818~925) 통설형(대백과 강역 서술)","category":"발해 영역(작성)","role":"korean","startYear":818,"endYear":925,"confidence":"low","license":"original (authored)","wikipedia":null,"wikidata":null,"sources":["RESEARCH_V02"],"uiDefault":true,"label":[128.293,43.178],"note":"대백과 강역: 남쪽은 니하(용흥강)에서 신라와 접하고 서남은 박작구, 서쪽은 부여부·막힐부 거란로. 5경 15부 62주가 이 시기에 완비되었다고 정리. 연해주는 크라스키노(염주)와 솔빈부 방면만 포함되도록 그림. [v0.3] 철리부(대백과 1설·다수설: 이란)와 송화강-목단강 합류부·싱카이호 서안까지 포함하도록 쑹화강 하류 조사 결과(통설형 섹터)를 합침 — 이 북동부 확장부는 텍스트(신당서 철리부 조항)와 지명 비정에 근거한 것이며 발굴된 발해 성터로 확인된 것이 아님. 출처 요약의 꼭짓점은 대백과 강역 서술의 지명(박작구·창투·이퉁·농안·아청·이란·싱카이호·올가만·포시예트·북청·영흥만)에 맞춘 도식이며 곳곳의 앵커 좌표는 기억 기반(미검증). [v0.7] 이 폴리곤은 통허(通河)·송화강 하류를 포함하지만 그 일대에서 발해 성터를 열람 범위에서 찾지 못했다(주장 검증 탭 참고) — 문헌 서술 기반 도식이다.","source":"korea"},"geometry":{"type":"MultiPolygon","coordinates":[[[[125.2,44.4],[126.95,45.5],[129.2157,46.184],[129.56,46.32],[129.8,46.425],[130.4,46.8],[130.8706,46.3765],[131.4,46.2],[132.3,45.6],[132.3421,45.0521],[132.4,45],[133,43.9],[135.1832,43.7102],[135.1832,43.7026],[135.2228,43.6925],[135.23,43.6824],[135.2192,43.6351],[135.2012,43.6283],[135.176,43.5929],[135.1695,43.5695],[135.0962,43.4962],[134.9743,43.4595],[134.9563,43.4358],[134.8951,43.4156],[134.8339,43.3801],[134.7511,43.3058],[134.7295,43.3126],[134.7043,43.3041],[134.6575,43.267],[134.6215,43.2568],[134.5855,43.2298],[134.5603,43.2349],[134.4307,43.1572],[134.3767,43.1386],[134.3587,43.1251],[134.3371,43.1201],[134.3227,43.1268],[134.2543,43.0947],[134.1931,43.0795],[134.1823,43.0728],[134.1715,43.0475],[134.1391,43.0373],[134.1067,42.9951],[134.0491,42.9732],[133.9267,42.882],[133.9123,42.8803],[133.8655,42.9006],[133.8403,42.8972],[133.7287,42.8448],[133.7179,42.8161],[133.6711,42.8533],[133.6135,42.8465],[133.5919,42.8533],[133.5739,42.8263],[133.5523,42.8195],[133.5235,42.8263],[133.4983,42.8043],[133.4443,42.779],[133.3759,42.7638],[133.3003,42.7638],[133.2211,42.7368],[133.1779,42.6945],[133.1563,42.6878],[133.0627,42.6878],[133.0231,42.6996],[132.9979,42.7233],[133.0375,42.7435],[133.0771,42.7384],[133.0771,42.7503],[133.0447,42.779],[132.9979,42.8043],[133.0087,42.8195],[132.9907,42.8263],[132.9007,42.8161],[132.8863,42.8009],[132.9007,42.7942],[132.8863,42.7638],[132.8647,42.7486],[132.8143,42.757],[132.7927,42.7908],[132.7999,42.8077],[132.7927,42.8212],[132.7567,42.833],[132.7747,42.8752],[132.7747,42.8955],[132.7639,42.9073],[132.7387,42.9073],[132.7027,42.8786],[132.6811,42.8735],[132.6955,42.86],[132.6847,42.855],[132.6199,42.86],[132.5767,42.8398],[132.5119,42.8718],[132.5011,42.9242],[132.4039,42.9428],[132.3931,42.9225],[132.3535,42.9107],[132.3463,42.9006],[132.3607,42.8803],[132.3535,42.8752],[132.3607,42.86],[132.3103,42.8448],[132.2887,42.882],[132.2959,42.9022],[132.2923,42.9495],[132.2995,42.9968],[132.2923,43.0441],[132.3067,43.0643],[132.2923,43.0863],[132.3211,43.0947],[132.3247,43.1066],[132.3175,43.1201],[132.3391,43.1336],[132.3247,43.1403],[132.3283,43.1758],[132.3571,43.1707],[132.3823,43.191],[132.3607,43.2163],[132.3067,43.2383],[132.3067,43.2467],[132.3463,43.267],[132.3571,43.2855],[132.3463,43.2974],[132.3067,43.3193],[132.2887,43.3126],[132.2815,43.2788],[132.2527,43.267],[132.2275,43.2298],[132.1375,43.191],[132.0943,43.1809],[132.0295,43.1167],[131.9539,43.0728],[131.9287,43.0694],[131.8855,43.0863],[131.9179,43.1082],[131.9215,43.1201],[131.8711,43.0897],[131.8459,43.0897],[131.9107,43.1977],[131.9575,43.2298],[131.9971,43.2383],[132.0079,43.2602],[132.0511,43.2974],[132.0511,43.3143],[132.0439,43.3244],[132.0295,43.3244],[132.0151,43.3159],[131.9935,43.2737],[131.9683,43.2703],[131.9791,43.2923],[131.9575,43.3058],[131.8963,43.3193],[131.8459,43.3058],[131.8243,43.3176],[131.8387,43.3328],[131.8279,43.3379],[131.8063,43.3311],[131.7991,43.3159],[131.7631,43.2923],[131.7487,43.2248],[131.7235,43.2096],[131.7235,43.2028],[131.7595,43.1961],[131.7631,43.1859],[131.7307,43.1741],[131.6947,43.2028],[131.6479,43.169],[131.6515,43.1555],[131.6659,43.1572],[131.6947,43.1758],[131.6659,43.1251],[131.5867,43.0491],[131.5615,43.039],[131.5651,42.9968],[131.5471,42.9934],[131.5183,43.0086],[131.5003,43.0002],[131.4931,42.985],[131.4967,42.9428],[131.4283,42.9343],[131.4067,42.9512],[131.3923,42.9445],[131.3851,42.9141],[131.4067,42.9107],[131.4103,42.9006],[131.3995,42.8735],[131.4607,42.8837],[131.4715,42.8837],[131.4715,42.8735],[131.4103,42.8398],[131.3779,42.8313],[131.3599,42.806],[131.3635,42.7824],[131.3527,42.7739],[131.2987,42.7925],[131.2735,42.7773],[131.2375,42.7064],[131.2627,42.681],[131.2555,42.6675],[131.2231,42.6608],[131.2015,42.6135],[131.2231,42.6051],[131.2339,42.5882],[131.2123,42.5831],[131.2231,42.5713],[131.2195,42.5544],[131.1871,42.5595],[131.1655,42.5763],[131.1799,42.6051],[131.1583,42.6017],[131.1259,42.6169],[131.1187,42.6675],[131.1043,42.6675],[131.0863,42.6405],[131.0359,42.6456],[130.9963,42.6405],[130.9531,42.627],[130.9315,42.6067],[130.8883,42.6],[130.8163,42.6338],[130.8379,42.6422],[130.8883,42.6388],[130.9099,42.6169],[130.9315,42.6186],[130.9459,42.6304],[130.9495,42.6523],[130.8487,42.6608],[130.7875,42.654],[130.8307,42.6743],[130.8379,42.6912],[130.8271,42.6996],[130.7695,42.681],[130.7443,42.681],[130.7191,42.6996],[130.6579,42.6642],[130.6615,42.6439],[130.6831,42.6439],[130.7335,42.6152],[130.7299,42.5797],[130.7623,42.6],[130.7731,42.5966],[130.7839,42.5797],[130.8415,42.5578],[130.8739,42.5274],[130.8703,42.5172],[130.8595,42.524],[130.8415,42.5189],[130.8451,42.4868],[130.8379,42.4717],[130.7875,42.4615],[130.7803,42.4531],[130.7443,42.3535],[130.7112,42.3056],[130.6684,42.2825],[130.5967,42.2623],[130.5967,42.2977],[130.5679,42.3146],[130.5391,42.318],[130.5103,42.3366],[130.4671,42.3349],[130.4707,42.3214],[130.4563,42.3112],[130.4383,42.3095],[130.4203,42.3247],[130.4059,42.3247],[130.4059,42.3079],[130.3843,42.291],[130.3915,42.264],[130.4059,42.2606],[130.4023,42.242],[130.3771,42.2572],[130.3663,42.2555],[130.3591,42.2437],[130.3699,42.2319],[130.3519,42.2167],[130.3339,42.2133],[130.3303,42.1913],[130.3087,42.1829],[130.3159,42.2184],[130.3087,42.2369],[130.2943,42.2369],[130.2295,42.1829],[130.2007,42.1728],[130.2007,42.1019],[130.1755,42.0985],[130.1611,42.085],[130.1683,42.0765],[130.1503,42.0748],[130.1215,42.09],[130.0927,42.09],[130.0747,42.0782],[130.0675,42.0512],[130.0531,42.0512],[130.0351,42.0124],[130.0351,41.9955],[130.0279,41.9921],[130.0135,42.014],[130.0027,42.0107],[130.0027,41.9904],[129.9811,41.982],[130.0027,41.9617],[129.9739,41.9414],[129.9631,41.8992],[129.9451,41.8942],[129.9379,41.9043],[129.9127,41.911],[129.8983,41.9043],[129.8839,41.8466],[129.8,41.8],[128.0405,40.0405],[128.0083,40.0452],[127.9975,40.0198],[127.9651,40.0046],[127.9399,39.9742],[127.9075,39.9844],[127.8895,39.9607],[127.8823,39.9016],[127.8751,39.8932],[127.7815,39.8848],[127.7959,39.8763],[127.7923,39.8662],[127.7635,39.8544],[127.7275,39.8577],[127.6951,39.8476],[127.6807,39.8172],[127.6627,39.8071],[127.6231,39.8307],[127.6087,39.8105],[127.5619,39.7834],[127.5511,39.7615],[127.5223,39.7463],[127.5007,39.7075],[127.5079,39.6602],[127.5187,39.645],[127.5511,39.6365],[127.5691,39.618],[127.5763,39.5943],[127.5367,39.5521],[126,39.8],[124.4,40],[124.3978,40.0203],[124.4046,40.0283],[124.4658,40.0148],[124.4982,40.0232],[124.4118,40.0367],[124.3951,40.0459],[124.1,42.8],[125.3,43.35],[125.2,44.4]]],[[[135.2768,43.6891],[135.2588,43.6942],[135.2553,43.7039],[135.2982,43.7002],[135.2768,43.6891]]],[[[132.4003,42.8313],[132.4003,42.8516],[132.4291,42.8955],[132.4399,42.8921],[132.4543,42.8617],[132.4507,42.8279],[132.4759,42.8009],[132.4579,42.7975],[132.4183,42.8296],[132.4003,42.8313]]],[[[131.7739,43.0204],[131.7919,43.0171],[131.7775,43.0441],[131.7991,43.0525],[131.8603,43.0373],[131.8603,43.0441],[131.8279,43.0643],[131.8567,43.061],[131.9215,43.0238],[131.9251,43.0052],[131.9143,42.985],[131.8819,42.9613],[131.8387,42.9613],[131.7559,42.99],[131.7919,42.9968],[131.7739,43.0052],[131.7739,43.0204]]]]}},{"type":"Feature","properties":{"id":"bh-ext-830-min","layer":"hypothesis","nameEn":"Balhae – peak, minimal (schematic)","nameKo":"발해 – 선왕기 최소형(Kradin: 남·서부 연해주만, 헤이룽강 제외)","category":"발해 영역(작성)","role":"korean","startYear":818,"endYear":925,"confidence":"low","license":"original (authored)","wikipedia":null,"wikidata":null,"sources":["RESEARCH_V02"],"uiDefault":true,"label":[128.599,43.101],"note":"러시아 학계 정리(Kradin 2023 via academia.edu 요약): 연해주는 남부와 서부 일부만 발해, 카사호 북쪽·파르티잔스카야(수찬)강 유역·동부 연해주는 발해 밖. [v0.3] 목단강 변장(북방 방어선, 북위 44.3~44.8°)·수분하·대성자 일대만 확실한 발굴 근거로 삼은 섹터를 합침. 출처 요약의 꼭짓점은 대백과 강역 서술의 지명(박작구·창투·이퉁·농안·아청·이란·싱카이호·올가만·포시예트·북청·영흥만)에 맞춘 도식이며 곳곳의 앵커 좌표는 기억 기반(미검증). [v0.7] 이 폴리곤은 통허(通河)·송화강 하류를 포함하지만 그 일대에서 발해 성터를 열람 범위에서 찾지 못했다(주장 검증 탭 참고) — 문헌 서술 기반 도식이다.","source":"korea"},"geometry":{"type":"MultiPolygon","coordinates":[[[[126.9,45.5],[129.6,46.3],[131.5,45],[131.5389,44.9611],[131.9,45.1],[132.0667,44.4333],[132.3,44.2],[133,43.3],[132.7946,42.7865],[132.7999,42.8077],[132.7927,42.8212],[132.7567,42.833],[132.7747,42.8752],[132.7747,42.8955],[132.7639,42.9073],[132.7387,42.9073],[132.7027,42.8786],[132.6811,42.8735],[132.6955,42.86],[132.6847,42.855],[132.6199,42.86],[132.5767,42.8398],[132.5119,42.8718],[132.5011,42.9242],[132.4039,42.9428],[132.3931,42.9225],[132.3535,42.9107],[132.3463,42.9006],[132.3607,42.8803],[132.3535,42.8752],[132.3607,42.86],[132.3103,42.8448],[132.2887,42.882],[132.2959,42.9022],[132.2923,42.9495],[132.2995,42.9968],[132.2923,43.0441],[132.3067,43.0643],[132.2923,43.0863],[132.3211,43.0947],[132.3247,43.1066],[132.3175,43.1201],[132.3391,43.1336],[132.3247,43.1403],[132.3283,43.1758],[132.3571,43.1707],[132.3823,43.191],[132.3607,43.2163],[132.3067,43.2383],[132.3067,43.2467],[132.3463,43.267],[132.3571,43.2855],[132.3139,43.3159],[132.2887,43.3126],[132.2815,43.2788],[132.2527,43.267],[132.2275,43.2298],[132.1375,43.191],[132.0943,43.1809],[132.0295,43.1167],[131.9539,43.0728],[131.9287,43.0694],[131.8855,43.0863],[131.9179,43.1082],[131.9215,43.1201],[131.8711,43.0897],[131.8459,43.0897],[131.9107,43.1977],[131.9575,43.2298],[131.9971,43.2383],[132.0079,43.2602],[132.0511,43.2974],[132.0511,43.3143],[132.0439,43.3244],[132.0295,43.3244],[132.0151,43.3159],[131.9935,43.2737],[131.9683,43.2703],[131.9791,43.2923],[131.9575,43.3058],[131.8963,43.3193],[131.8459,43.3058],[131.8315,43.3092],[131.8243,43.3176],[131.8387,43.3328],[131.8279,43.3379],[131.8063,43.3311],[131.7991,43.3159],[131.7631,43.2923],[131.7487,43.2248],[131.7235,43.2096],[131.7235,43.2028],[131.7595,43.1961],[131.7631,43.1859],[131.7307,43.1741],[131.6947,43.2028],[131.6479,43.169],[131.6515,43.1555],[131.6659,43.1572],[131.6947,43.1758],[131.6659,43.1251],[131.5867,43.0491],[131.5615,43.039],[131.5651,42.9968],[131.5471,42.9934],[131.5183,43.0086],[131.5003,43.0002],[131.4931,42.985],[131.4967,42.9428],[131.4283,42.9343],[131.4067,42.9512],[131.3923,42.9445],[131.3851,42.9141],[131.4067,42.9107],[131.4103,42.9006],[131.3995,42.8735],[131.4607,42.8837],[131.4715,42.8837],[131.4715,42.8735],[131.4103,42.8398],[131.3779,42.8313],[131.3599,42.806],[131.3635,42.7824],[131.3527,42.7739],[131.2987,42.7925],[131.2735,42.7773],[131.2375,42.7064],[131.2627,42.681],[131.2555,42.6675],[131.2231,42.6608],[131.2015,42.6135],[131.2231,42.6051],[131.2339,42.5882],[131.2123,42.5831],[131.2231,42.5713],[131.2195,42.5544],[131.1871,42.5595],[131.1655,42.5763],[131.1799,42.6051],[131.1583,42.6017],[131.1259,42.6169],[131.1187,42.6675],[131.1043,42.6675],[131.0863,42.6405],[131.0359,42.6456],[130.9963,42.6405],[130.9531,42.627],[130.9315,42.6067],[130.8883,42.6],[130.8163,42.6338],[130.8379,42.6422],[130.8883,42.6388],[130.9099,42.6169],[130.9315,42.6186],[130.9459,42.6304],[130.9495,42.6523],[130.8487,42.6608],[130.7875,42.654],[130.8307,42.6743],[130.8379,42.6912],[130.8271,42.6996],[130.7695,42.681],[130.7443,42.681],[130.7191,42.6996],[130.6579,42.6642],[130.6615,42.6439],[130.6831,42.6439],[130.7335,42.6152],[130.7299,42.5797],[130.7623,42.6],[130.7731,42.5966],[130.7839,42.5797],[130.8415,42.5578],[130.8739,42.5274],[130.8703,42.5172],[130.8595,42.524],[130.8415,42.5189],[130.8451,42.4868],[130.8379,42.4717],[130.7875,42.4615],[130.7803,42.4531],[130.7443,42.3535],[130.7047,42.296],[130.5967,42.2623],[130.5967,42.2977],[130.5679,42.3146],[130.5391,42.318],[130.5103,42.3366],[130.4671,42.3349],[130.4707,42.3214],[130.4563,42.3112],[130.4383,42.3095],[130.4203,42.3247],[130.4059,42.3247],[130.4059,42.3079],[130.3843,42.291],[130.3915,42.264],[130.4059,42.2606],[130.4023,42.242],[130.3771,42.2572],[130.3663,42.2555],[130.3591,42.2437],[130.3699,42.2319],[130.3519,42.2167],[130.3339,42.2133],[130.3303,42.1913],[130.3087,42.1829],[130.3159,42.2184],[130.3087,42.2369],[130.2943,42.2369],[130.2295,42.1829],[130.2007,42.1728],[130.2007,42.1019],[130.1755,42.0985],[130.1611,42.085],[130.1683,42.0765],[130.1611,42.0731],[130.1215,42.09],[130.0927,42.09],[130.0747,42.0782],[130.0675,42.0512],[130.0531,42.0512],[130.0351,42.0124],[130.0351,41.9955],[130.0279,41.9921],[130.0135,42.014],[130.0027,42.0107],[130.0027,41.9904],[129.9811,41.982],[130.0027,41.9617],[129.9739,41.9414],[129.9559,41.8925],[129.9127,41.911],[129.8983,41.9043],[129.8839,41.8458],[129.8,41.8],[128.3,40.7],[127.5,39.9],[126.9,40.8],[126.9,41.8],[125.3,43.35],[125.2,44.4],[126.9,45.5]]],[[[132.4003,42.8313],[132.4003,42.8516],[132.4291,42.8955],[132.4399,42.8921],[132.4543,42.8617],[132.4507,42.8279],[132.4759,42.8009],[132.4579,42.7975],[132.4183,42.8296],[132.4003,42.8313]]],[[[131.7739,43.0204],[131.7919,43.0171],[131.7775,43.0441],[131.7991,43.0525],[131.8603,43.0373],[131.8603,43.0441],[131.8279,43.0643],[131.8567,43.061],[131.9215,43.0238],[131.9251,43.0052],[131.9143,42.985],[131.8819,42.9613],[131.8387,42.9613],[131.7559,42.99],[131.7919,42.9968],[131.7739,43.0052],[131.7739,43.0204]]]]}},{"type":"Feature","properties":{"id":"bh-ext-830-max","layer":"hypothesis","nameEn":"Balhae – peak, maximal (speculative)","nameKo":"[소수·추측] 발해 – 선왕기 최대형(아무르·요동반도 포함)","category":"발해 영역(작성)","role":"korean","startYear":818,"endYear":925,"confidence":"speculative","license":"original (authored)","wikipedia":null,"wikidata":null,"sources":["RESEARCH_V02"],"uiDefault":true,"label":[128.81,43.869],"note":"정석배(2018) 트로이츠코예 해석과 하바롭스크 비정(철리부)·요동반도 확장 서술을 모두 포함한 극대 가정. 여러 부분이 사료가 '미증명'이라고 하는 이론에서 가져온 것 — 학계 합의가 아님. [v0.3] 중국 개설서·대백과의 최대 서술(선왕이 불열·철리·월희·우루·흑수를 복속시켜 삼강평원·우수리강 유역까지)을 섹터로 합침 — 이 부분은 발굴 성터 근거가 없다는 것이 이번 조사의 결론. 출처 요약의 꼭짓점은 대백과 강역 서술의 지명(박작구·창투·이퉁·농안·아청·이란·싱카이호·올가만·포시예트·북청·영흥만)에 맞춘 도식이며 곳곳의 앵커 좌표는 기억 기반(미검증).","source":"korea"},"geometry":{"type":"MultiPolygon","coordinates":[[[[125,44.4],[126.9,45.7],[127.9,50.7],[132.5,47.7],[133.0417,47.8667],[134.3,48.37],[134.3238,48.2612],[135.1,48.5],[135.3,43.7011],[135.2768,43.6891],[135.2588,43.6942],[135.2588,43.7229],[135.2372,43.7347],[135.2228,43.733],[135.212,43.7144],[135.1832,43.7111],[135.1832,43.7026],[135.2228,43.6925],[135.23,43.6824],[135.2192,43.6351],[135.2012,43.6283],[135.176,43.5929],[135.1695,43.5695],[135.0962,43.4962],[134.9743,43.4595],[134.9563,43.4358],[134.8735,43.4054],[134.8339,43.3801],[134.7511,43.3058],[134.7295,43.3126],[134.7043,43.3041],[134.6575,43.267],[134.6215,43.2568],[134.5855,43.2298],[134.5603,43.2349],[134.4775,43.1825],[134.3587,43.1251],[134.3371,43.1201],[134.3227,43.1268],[134.2543,43.0947],[134.1931,43.0795],[134.1823,43.0728],[134.1715,43.0475],[134.1391,43.0373],[134.1067,42.9951],[134.0491,42.9732],[133.9267,42.882],[133.9123,42.8803],[133.8655,42.9006],[133.8403,42.8972],[133.7287,42.8448],[133.7179,42.8161],[133.6711,42.8533],[133.6135,42.8465],[133.5919,42.8533],[133.5739,42.8263],[133.5523,42.8195],[133.5235,42.8263],[133.4983,42.8043],[133.4443,42.779],[133.3759,42.7638],[133.3003,42.7638],[133.2211,42.7368],[133.1779,42.6945],[133.1563,42.6878],[133.0627,42.6878],[133.0375,42.6912],[132.9979,42.7233],[133.0375,42.7435],[133.0771,42.7384],[133.0771,42.7503],[133.0447,42.779],[132.9979,42.8043],[133.0087,42.8195],[132.9907,42.8263],[132.9007,42.8161],[132.8863,42.8009],[132.9007,42.7942],[132.8863,42.7638],[132.8647,42.7486],[132.8143,42.757],[132.7927,42.7908],[132.7999,42.8077],[132.7927,42.8212],[132.7567,42.833],[132.7747,42.8752],[132.7747,42.8955],[132.7639,42.9073],[132.7387,42.9073],[132.7027,42.8786],[132.6811,42.8735],[132.6955,42.86],[132.6847,42.855],[132.6199,42.86],[132.5767,42.8398],[132.5119,42.8718],[132.5011,42.9242],[132.4039,42.9428],[132.3931,42.9225],[132.3535,42.9107],[132.3463,42.9006],[132.3607,42.8803],[132.3535,42.8752],[132.3607,42.86],[132.3103,42.8448],[132.2887,42.882],[132.2959,42.9022],[132.2923,42.9495],[132.2995,42.9968],[132.2923,43.0441],[132.3067,43.0643],[132.2923,43.0863],[132.3211,43.0947],[132.3247,43.1066],[132.3175,43.1201],[132.3391,43.1336],[132.3247,43.1403],[132.3283,43.1758],[132.3571,43.1707],[132.3823,43.191],[132.3607,43.2163],[132.3067,43.2383],[132.3067,43.2467],[132.3463,43.267],[132.3571,43.2855],[132.3139,43.3159],[132.2887,43.3126],[132.2815,43.2788],[132.2527,43.267],[132.2275,43.2298],[132.1375,43.191],[132.0943,43.1809],[132.0295,43.1167],[131.9539,43.0728],[131.9287,43.0694],[131.8855,43.0863],[131.9179,43.1082],[131.9215,43.1201],[131.8711,43.0897],[131.8459,43.0897],[131.9107,43.1977],[131.9575,43.2298],[131.9971,43.2383],[132.0079,43.2602],[132.0511,43.2974],[132.0511,43.3143],[132.0439,43.3244],[132.0295,43.3244],[132.0151,43.3159],[131.9935,43.2737],[131.9683,43.2703],[131.9791,43.2923],[131.9575,43.3058],[131.8963,43.3193],[131.8459,43.3058],[131.8243,43.3176],[131.8387,43.3328],[131.8279,43.3379],[131.8063,43.3311],[131.7991,43.3159],[131.7631,43.2923],[131.7487,43.2248],[131.7235,43.2096],[131.7235,43.2028],[131.7595,43.1961],[131.7631,43.1859],[131.7307,43.1741],[131.6947,43.2028],[131.6479,43.169],[131.6515,43.1555],[131.6659,43.1572],[131.6947,43.1758],[131.6659,43.1251],[131.5867,43.0491],[131.5615,43.039],[131.5651,42.9968],[131.5471,42.9934],[131.5183,43.0086],[131.5003,43.0002],[131.4931,42.985],[131.4967,42.9428],[131.4283,42.9343],[131.4067,42.9512],[131.3923,42.9445],[131.3851,42.9141],[131.4067,42.9107],[131.4103,42.9006],[131.3995,42.8735],[131.4607,42.8837],[131.4715,42.8837],[131.4715,42.8735],[131.4103,42.8398],[131.3779,42.8313],[131.3599,42.806],[131.3635,42.7824],[131.3527,42.7739],[131.2987,42.7925],[131.2735,42.7773],[131.2375,42.7064],[131.2627,42.681],[131.2555,42.6675],[131.2231,42.6608],[131.2015,42.6135],[131.2231,42.6051],[131.2339,42.5882],[131.2123,42.5831],[131.2231,42.5713],[131.2195,42.5544],[131.1871,42.5595],[131.1655,42.5763],[131.1799,42.6051],[131.1583,42.6017],[131.1259,42.6169],[131.1187,42.6675],[131.1043,42.6675],[131.0863,42.6405],[131.0359,42.6456],[130.9963,42.6405],[130.9531,42.627],[130.9315,42.6067],[130.8883,42.6],[130.8163,42.6338],[130.8379,42.6422],[130.8883,42.6388],[130.9099,42.6169],[130.9315,42.6186],[130.9459,42.6304],[130.9495,42.6523],[130.8487,42.6608],[130.7875,42.654],[130.8307,42.6743],[130.8379,42.6912],[130.8271,42.6996],[130.7695,42.681],[130.7443,42.681],[130.7191,42.6996],[130.6579,42.6642],[130.6615,42.6439],[130.6831,42.6439],[130.7335,42.6152],[130.7299,42.5797],[130.7623,42.6],[130.7731,42.5966],[130.7839,42.5797],[130.8415,42.5578],[130.8739,42.5274],[130.8703,42.5172],[130.8595,42.524],[130.8415,42.5189],[130.8451,42.4868],[130.8379,42.4717],[130.7875,42.4615],[130.7803,42.4531],[130.7443,42.3535],[130.7047,42.296],[130.5967,42.2623],[130.5967,42.2977],[130.5679,42.3146],[130.5391,42.318],[130.5103,42.3366],[130.4671,42.3349],[130.4707,42.3214],[130.4563,42.3112],[130.4383,42.3095],[130.4203,42.3247],[130.4059,42.3247],[130.4059,42.3079],[130.3843,42.291],[130.3915,42.264],[130.4059,42.2606],[130.4023,42.242],[130.3771,42.2572],[130.3663,42.2555],[130.3591,42.2437],[130.3699,42.2319],[130.3519,42.2167],[130.3339,42.2133],[130.3303,42.1913],[130.3087,42.1829],[130.3159,42.2184],[130.3087,42.2369],[130.2943,42.2369],[130.2295,42.1829],[130.2007,42.1728],[130.2007,42.1019],[130.1755,42.0985],[130.1611,42.085],[130.1683,42.0765],[130.1503,42.0748],[130.1215,42.09],[130.0927,42.09],[130.0747,42.0782],[130.0675,42.0512],[130.0531,42.0512],[130.0351,42.0124],[130.0351,41.9955],[130.0279,41.9921],[130.0135,42.014],[130.0027,42.0107],[130.0027,41.9904],[129.9811,41.982],[130.0027,41.9617],[129.9739,41.9414],[129.9631,41.8992],[129.9451,41.8942],[129.9379,41.9043],[129.9127,41.911],[129.8983,41.9043],[129.8839,41.8458],[129.8,41.8],[128.0405,40.0405],[128.0083,40.0452],[127.9975,40.0198],[127.9651,40.0046],[127.9399,39.9742],[127.9075,39.9844],[127.8895,39.9607],[127.8823,39.9016],[127.8751,39.8932],[127.7815,39.8848],[127.7959,39.8763],[127.7923,39.8662],[127.7635,39.8544],[127.7275,39.8577],[127.6951,39.8476],[127.6807,39.8172],[127.6627,39.8071],[127.6231,39.8307],[127.6087,39.8105],[127.5619,39.7834],[127.5511,39.7615],[127.5223,39.7463],[127.5007,39.7075],[127.5079,39.6602],[127.5187,39.645],[127.5511,39.6365],[127.5691,39.618],[127.5763,39.5943],[127.5352,39.5486],[126,39.4],[125.4519,39.5713],[125.4451,39.5842],[125.4331,39.5772],[124.4,39.9],[124.3552,39.884],[124.3218,39.9135],[124.3686,39.9405],[124.383,40.003],[124.4046,40.0283],[124.4658,40.0148],[124.4982,40.0232],[124.4118,40.0367],[124.3902,40.0485],[124.3686,40.0975],[124.3578,40.0891],[124.3614,40.0114],[124.3074,39.9607],[124.3002,39.9405],[124.1166,39.8324],[124.0878,39.8527],[124.041,39.824],[123.987,39.8105],[123.9438,39.8408],[123.9114,39.824],[123.8862,39.8223],[123.807,39.8375],[123.7746,39.8189],[123.7206,39.8307],[123.6414,39.878],[123.6558,39.9202],[123.6306,39.9033],[123.591,39.7851],[123.5622,39.7699],[123.5334,39.7969],[123.5118,39.7986],[123.4938,39.7902],[123.429,39.726],[123.411,39.7345],[123.4074,39.7463],[123.4182,39.824],[123.3966,39.8189],[123.4038,39.8105],[123.3858,39.7902],[123.3138,39.7767],[123.2742,39.8105],[123.2634,39.7969],[123.2562,39.8003],[123.2526,39.8172],[123.2346,39.802],[123.267,39.7547],[123.249,39.748],[123.2094,39.7547],[123.2058,39.7345],[123.2562,39.7243],[123.2706,39.7075],[123.267,39.7007],[123.1734,39.6652],[123.1266,39.6652],[123.1086,39.6906],[123.0582,39.6754],[123.0078,39.6804],[122.9934,39.6652],[122.979,39.6669],[122.979,39.6585],[122.997,39.65],[122.9934,39.6365],[122.9646,39.6112],[122.9466,39.6196],[122.871,39.6061],[122.8494,39.618],[122.781,39.5605],[122.709,39.5352],[122.6874,39.5183],[122.6766,39.515],[122.6478,39.5318],[122.637,39.5082],[122.5866,39.4677],[122.5614,39.4862],[122.5542,39.4812],[122.5614,39.4609],[122.5542,39.4559],[122.4714,39.417],[122.3958,39.4103],[122.385,39.3951],[122.3562,39.3883],[122.3202,39.3613],[122.2914,39.3512],[122.2662,39.3174],[122.2518,39.3241],[122.241,39.2853],[122.115,39.2009],[122.1042,39.1587],[122.1366,39.1587],[122.1618,39.1468],[122.1258,39.1418],[122.0718,39.1046],[122.0466,39.0996],[122.0394,39.0911],[122.0502,39.0675],[122.043,39.059],[121.989,39.0624],[121.9602,39.0405],[121.9422,39.0371],[121.9026,39.0489],[121.8882,39.0422],[121.9134,39.0303],[121.9222,39.0151],[121.9148,39.0124],[121.827,39.0371],[121.8378,39.0151],[121.8762,38.9986],[121.8108,38.9753],[121.773,39.0219],[121.7442,39.0337],[121.7262,39.0303],[121.719,39.0202],[121.737,39.0016],[121.6722,39.0084],[121.6362,38.9949],[121.6542,38.9898],[121.6542,38.9628],[121.6188,38.9537],[121.6639,39.0826],[121.6758,39.0877],[121.6902,39.1181],[121.6816,39.133],[121.7611,39.3602],[121.7802,39.3714],[121.8378,39.3647],[121.8666,39.3697],[121.9134,39.3951],[121.9422,39.4001],[121.9314,39.417],[121.8486,39.3866],[121.7729,39.394],[122.0583,40.2094],[122.0934,40.2275],[122.1078,40.263],[122.1078,40.3103],[122.1798,40.3525],[122.2122,40.3812],[122.205,40.4268],[122.2518,40.4302],[122.2518,40.4538],[122.2878,40.4724],[122.2878,40.4893],[122.3022,40.5028],[122.277,40.5433],[122.2266,40.5788],[122.1897,40.5849],[122.3,40.9],[123.5,42.3],[125,44.4]]],[[[122.5326,39.2718],[122.5038,39.2971],[122.5362,39.2988],[122.583,39.2836],[122.6519,39.2757],[122.6009,39.2575],[122.5326,39.2718]]],[[[122.3202,39.1654],[122.331,39.1806],[122.403,39.2144],[122.3922,39.2043],[122.3903,39.1823],[122.3252,39.159],[122.3202,39.1654]]],[[[121.6101,38.9289],[121.667,38.9239],[121.6,38.9],[121.6101,38.9289]]],[[[132.4003,42.8313],[132.4003,42.8516],[132.4291,42.8955],[132.4399,42.8921],[132.4543,42.8617],[132.4507,42.8279],[132.4759,42.8009],[132.4579,42.7975],[132.4183,42.8296],[132.4003,42.8313]]],[[[131.7739,43.0204],[131.7919,43.0171],[131.7775,43.0441],[131.7991,43.0525],[131.8603,43.0373],[131.8603,43.0441],[131.8279,43.0643],[131.8567,43.061],[131.9215,43.0238],[131.9251,43.0052],[131.9143,42.985],[131.8819,42.9613],[131.8387,42.9613],[131.7559,42.99],[131.7919,42.9968],[131.7739,43.0052],[131.7739,43.0204]]],[[[123.0186,39.5437],[123.0402,39.5302],[123.0294,39.5082],[123.0042,39.4981],[122.979,39.4998],[122.9646,39.515],[122.9682,39.5403],[122.9898,39.5487],[123.0186,39.5437]]]]}},{"type":"Feature","properties":{"id":"bh-ne-yilan-tieli","layer":"site","nameEn":"Yilan — majority location of Tieli-fu","nameKo":"이란(依兰) — 철리부 다수설 위치","category":"발해 북동부 조사","role":"korean","startYear":741,"endYear":926,"confidence":"low","license":"original (authored)","wikipedia":null,"wikidata":null,"sources":["RESEARCH_V02"],"uiDefault":false,"label":null,"note":"한국민족문화대백과 '철리부'는 이란을 첫째 설로, 하바롭스크(伯力)를 둘째 설로 제시. 중국어 위키도 이란 일대(마다툰=치소 후보)로 서술. 발굴로 확인된 치소는 못 찾음. 746년 발해 일본 사신단에 철리 사람이 포함(속일본기, 류·먀오 요약)돼 8세기 중반엔 발해와 연결된 정황이 있으나, 철리는 841년에도 당에 독자 조공(류·먀오) — 완전 복속이 아니라 부분적·간헐적 관계로 읽힘.","source":"korea"},"geometry":{"type":"Point","coordinates":[129.562,46.317]}},{"type":"Feature","properties":{"id":"bh-ne-tonghe","layer":"site","nameEn":"Tonghe County — no Balhae/Mohe walled site found","nameKo":"통허현(通河) — 조사 결과: 발해·말갈 성터 못 찾음","category":"발해 북동부 조사","role":"korean","startYear":700,"endYear":926,"confidence":"low","license":"original (authored)","wikipedia":null,"wikidata":null,"sources":["RESEARCH_V02"],"uiDefault":false,"label":null,"note":"'통하지구 일대' 성터를 찾았으나 열람한 목록(하얼빈 시 문물 목록·2024 현 조사 보도)에서 통허현의 발해·말갈 성터를 찾지 못함 — 통허에서 확인된 문화재는 항일 유적뿐. 유일한 연결은 중국어 위키가 철리부 관할에 통허가 들어간다고 출처 없이 적은 것. 이 점은 '성터가 있다'가 아니라 '조사했으나 열람 범위에서 못 찾음'을 표시한 것. 발굴 보고서(《北方文物》 등)와 《중국문물지도집》은 열람하지 못했으므로 '없다'의 증명은 아님. 참고: 통화(通化, 지린성)는 발음이 비슷하나 송화강 하류가 아니라 고구려 국내성 일대(약 41.7°N, 125.9°E).","source":"korea"},"geometry":{"type":"Point","coordinates":[128.746,45.99]}},{"type":"Feature","properties":{"id":"bh-ne-mishan-dangbi","layer":"site","nameEn":"Mishan — candidate for Dongping-fu (Dangbi)","nameKo":"미산(密山) — 동평부 후보(당벽진설)","category":"발해 북동부 조사","role":"korean","startYear":741,"endYear":926,"confidence":"low","license":"original (authored)","wikipedia":null,"wikidata":null,"sources":["RESEARCH_V02"],"uiDefault":false,"label":null,"note":"불열말갈 옛 땅=동평부(대백과). 당벽진을 동평부 이주 치소로 보는 설이 있으나 발굴 확증 못 찾음(중간 정도 연결).","source":"korea"},"geometry":{"type":"Point","coordinates":[131.847,45.53]}},{"type":"Feature","properties":{"id":"bh-ne-tongjiang-huaiyuan","layer":"site","nameEn":"Tongjiang — weak proposal for Huaiyuan-fu","nameKo":"퉁장(同江) — 회원부 달주설(약한 근거)","category":"발해 북동부 조사","role":"korean","startYear":818,"endYear":926,"confidence":"speculative","license":"original (authored)","wikipedia":null,"wikidata":null,"sources":["RESEARCH_V02"],"uiDefault":false,"label":null,"note":"회원부(월희 옛 땅)는 이란·우수리-송화 합류부·연해주 동해안·퉁장 등 네 가지 비정이 있고 대백과도 '위치 불확실'이라 함. 퉁장설은 여러 설 중 하나이며 유적 근거 못 찾음.","source":"korea"},"geometry":{"type":"Point","coordinates":[132.503,47.65]}},{"type":"Feature","properties":{"id":"bh-ne-suibin-tongren","layer":"site","nameEn":"Suibin — Tongren culture (Heishui-line Mohe), not a Balhae fort","nameKo":"쑤이빈(绥滨) — 동인문화(흑수계 말갈, 발해 성터 아님)","category":"발해 북동부 조사","role":"korean","startYear":500,"endYear":900,"confidence":"low","license":"original (authored)","wikipedia":null,"wikidata":null,"sources":["RESEARCH_V02"],"uiDefault":false,"label":null,"note":"송화강 하류~삼강평원의 동인문화는 흑수말갈 계열로 보는 요약이 있음(신문·백과 수준). 이곳의 말갈 유물만으로 발해 통치를 증명하지는 못함 — 발해 물질문화 자체가 말갈 기반이기 때문.","source":"korea"},"geometry":{"type":"Point","coordinates":[131.853,47.288]}},{"type":"Feature","properties":{"id":"bh-ne-mdj-wall","layer":"line","nameEn":"Mudanjiang border wall (Balhae-era northern defensive line)","nameKo":"목단강 변장(발해 북방 방어선, 약 66km)","category":"발해 북동부 조사","role":"korean","startYear":726,"endYear":926,"confidence":"medium","license":"original (authored)","wikipedia":null,"wikidata":null,"sources":["RESEARCH_V02"],"uiDefault":false,"label":null,"note":"공식 문화·관광청 자료의 구간별 좌표 범위(bbox) 세 곳의 중심을 이은 도식선(실제 성벽 선형이 아님). 구간: 목단강시 애민구(44.69~44.80°N) · 강동(44.27~44.34°N) · 경박호(43.87~43.89°N). 류·먀오(2019)는 726년 흑수 원정이 정체된 뒤 쌓았다고 봄 — 발해가 실제로 방어선을 그은 곳이 북위 44.3~44.8°(이란보다 훨씬 남쪽)라는 점이 '북동쪽으로 크게 뻗었다'는 해석에 대한 가장 큰 반증. 해석 일부는 요약 경유.","source":"korea"},"geometry":{"type":"LineString","coordinates":[[129.55,44.742],[129.6,44.305],[128.99,43.88]]}},{"type":"Feature","properties":{"id":"bh-h-amur-heishui","layer":"hypothesis","nameEn":"Contested – Heishui/Amur reach (Troitskoye reading)","nameKo":"[논쟁] 흑수말갈·아무르 중류(발해 영향권 최대 해석 — 트로이츠코예 포함)","category":"발해 북동부(논쟁)","role":"korean","startYear":725,"endYear":926,"confidence":"speculative","license":"original (authored)","wikipedia":null,"wikidata":null,"sources":["RESEARCH_V02"],"uiDefault":true,"label":[130.071,47.3],"note":"정석배(2018)의 '서쪽 아무르 평원(약 북위 50.7°)까지' 서술, 대백과 '선왕이 흑수말갈을 통제' 서술을 시각화한 상자형 도식이며 근거 있는 경계가 아님. 반대 증거: ① 신당서 부·주 목록에 흑수 땅 부가 없음, ② 당이 725/726년 흑수주(도독부)를 두어 흑수말갈이 당과 독자 교섭, ③ 우리역사넷 '흑수말갈은 끝까지 완전 복속되지 않았다', ④ Kradin(2023) 요약은 러시아 내 발해를 연해주 남·서부로 한정, ⑤ 아무르주에서 발해 성터·관청 유적이 확인된 사례를 열람 범위에서 못 찾음. 트로이츠코예는 말갈 묘지이며 송화강 발해말갈 이주설(네스테로프·볼코프)이 연결점일 뿐 영토 증거는 아님.","source":"korea"},"geometry":{"type":"Polygon","coordinates":[[[134,50.8],[136,49],[136,47.6],[132.6,47.6],[129.6,47],[127,48.4],[126,49.8],[126,51.4],[130,51.6],[134,50.8]]]}},{"type":"Feature","properties":{"id":"bh-ext-830-textbook","layer":"hypothesis","nameEn":"Balhae – peak, textbook reading (NIKH: north = Songhua)","nameKo":"발해 – 선왕기 교과서형(신편 한국사 서술: 북=송화강, 서=요양·심양 방면, 남=대동강~원산만)","category":"발해 영역(작성)","role":"korean","startYear":818,"endYear":925,"confidence":"low","license":"original (authored)","wikipedia":null,"wikidata":null,"sources":["RESEARCH_V02"],"uiDefault":true,"label":[129.137,43.625],"note":"국사편찬위원회 신편 한국사(요약 경유): 북쪽=동류하는 송화강~흑룡강·우수리강 합류점~연해주 남단, 서쪽=요양·심양이 있는 요동, 남쪽=대동강~원산만, '고구려의 옛 영토를 대부분 차지하고 동북쪽으로 확대'. 대백과 통설형 위에 송화강선까지의 북쪽 띠와 요동 서쪽 띠를 더한 것. 주의: ① 대백과 강역 서술은 서남을 박작구·장령부 남쪽으로 잡아 요동을 포함하지 않아 두 국내 서술이 서로 다르다. ② 발굴 성터는 목단강·수분하·연해주 남서부에 집중하고 삼강평원·아무르 쪽은 발굴 근거가 없다는 것이 이번 조사의 결론이라, 이 북쪽 띠는 '서술 기준'이지 '유적 확인'이 아님. ③ 교과서 지도 이미지는 열람하지 못해 서술만 따랐고, 동쪽(연해주 남단 이후)은 서술이 모호해 시호테알린 쪽으로 더 넓히지 않았다.","source":"korea"},"geometry":{"type":"MultiPolygon","coordinates":[[[[124.4,44.5],[124.4,45.4],[124.75,45.4],[126.6,45.75],[128.4247,45.9452],[129.2157,46.184],[129.55,46.32],[130.4,46.8],[131.9,47.2],[132.5,47.7],[134.3,48.35],[135.1,48.5],[135.3,47],[135.3,44.5],[132.6727,44.5],[133,43.9],[135.1832,43.7102],[135.1832,43.7026],[135.2228,43.6925],[135.23,43.6824],[135.2192,43.6351],[135.2012,43.6283],[135.176,43.5929],[135.1695,43.5695],[135.0962,43.4962],[134.9743,43.4595],[134.9563,43.4358],[134.8735,43.4054],[134.8339,43.3801],[134.7511,43.3058],[134.7295,43.3126],[134.7043,43.3041],[134.6575,43.267],[134.6215,43.2568],[134.5855,43.2298],[134.5603,43.2349],[134.4775,43.1825],[134.3587,43.1251],[134.3371,43.1201],[134.3227,43.1268],[134.2543,43.0947],[134.1931,43.0795],[134.1823,43.0728],[134.1715,43.0475],[134.1391,43.0373],[134.1067,42.9951],[134.0491,42.9732],[133.9267,42.882],[133.9123,42.8803],[133.8655,42.9006],[133.8403,42.8972],[133.7287,42.8448],[133.7179,42.8161],[133.6711,42.8533],[133.6135,42.8465],[133.5919,42.8533],[133.5739,42.8263],[133.5523,42.8195],[133.5235,42.8263],[133.4983,42.8043],[133.4443,42.779],[133.3759,42.7638],[133.3003,42.7638],[133.2211,42.7368],[133.1779,42.6945],[133.1563,42.6878],[133.0627,42.6878],[133.0231,42.6996],[132.9979,42.7233],[133.0375,42.7435],[133.0771,42.7384],[133.0771,42.7503],[133.0447,42.779],[132.9979,42.8043],[133.0087,42.8195],[132.9907,42.8263],[132.9007,42.8161],[132.8863,42.8009],[132.9007,42.7942],[132.8863,42.7638],[132.8647,42.7486],[132.8143,42.757],[132.7927,42.7908],[132.7999,42.8077],[132.7927,42.8212],[132.7567,42.833],[132.7747,42.8752],[132.7747,42.8955],[132.7639,42.9073],[132.7387,42.9073],[132.7027,42.8786],[132.6811,42.8735],[132.6955,42.86],[132.6847,42.855],[132.6199,42.86],[132.5767,42.8398],[132.5119,42.8718],[132.5011,42.9242],[132.4039,42.9428],[132.3931,42.9225],[132.3535,42.9107],[132.3463,42.9006],[132.3607,42.8803],[132.3535,42.8752],[132.3607,42.86],[132.3103,42.8448],[132.2887,42.882],[132.2959,42.9022],[132.2923,42.9495],[132.2995,42.9968],[132.2923,43.0441],[132.3067,43.0643],[132.2923,43.0863],[132.3211,43.0947],[132.3247,43.1066],[132.3175,43.1201],[132.3391,43.1336],[132.3247,43.1403],[132.3283,43.1758],[132.3571,43.1707],[132.3823,43.191],[132.3607,43.2163],[132.3067,43.2383],[132.3067,43.2467],[132.3463,43.267],[132.3571,43.2855],[132.3463,43.2974],[132.3067,43.3193],[132.2887,43.3126],[132.2815,43.2788],[132.2527,43.267],[132.2275,43.2298],[132.1375,43.191],[132.0943,43.1809],[132.0295,43.1167],[131.9539,43.0728],[131.9287,43.0694],[131.8855,43.0863],[131.9179,43.1082],[131.9215,43.1201],[131.8711,43.0897],[131.8459,43.0897],[131.9107,43.1977],[131.9575,43.2298],[131.9971,43.2383],[132.0079,43.2602],[132.0511,43.2974],[132.0511,43.3143],[132.0439,43.3244],[132.0295,43.3244],[132.0151,43.3159],[131.9935,43.2737],[131.9683,43.2703],[131.9791,43.2923],[131.9575,43.3058],[131.8963,43.3193],[131.8459,43.3058],[131.8243,43.3176],[131.8387,43.3328],[131.8279,43.3379],[131.8063,43.3311],[131.7991,43.3159],[131.7631,43.2923],[131.7487,43.2248],[131.7235,43.2096],[131.7235,43.2028],[131.7595,43.1961],[131.7631,43.1859],[131.7307,43.1741],[131.6947,43.2028],[131.6479,43.169],[131.6515,43.1555],[131.6659,43.1572],[131.6947,43.1758],[131.6659,43.1251],[131.5867,43.0491],[131.5615,43.039],[131.5651,42.9968],[131.5471,42.9934],[131.5183,43.0086],[131.5003,43.0002],[131.4931,42.985],[131.4967,42.9428],[131.4283,42.9343],[131.4067,42.9512],[131.3923,42.9445],[131.3851,42.9141],[131.4067,42.9107],[131.4103,42.9006],[131.3995,42.8735],[131.4607,42.8837],[131.4715,42.8837],[131.4715,42.8735],[131.4103,42.8398],[131.3779,42.8313],[131.3599,42.806],[131.3635,42.7824],[131.3527,42.7739],[131.2987,42.7925],[131.2735,42.7773],[131.2375,42.7064],[131.2627,42.681],[131.2555,42.6675],[131.2231,42.6608],[131.2015,42.6135],[131.2231,42.6051],[131.2339,42.5882],[131.2123,42.5831],[131.2231,42.5713],[131.2195,42.5544],[131.1871,42.5595],[131.1655,42.5763],[131.1799,42.6051],[131.1583,42.6017],[131.1259,42.6169],[131.1187,42.6675],[131.1043,42.6675],[131.0863,42.6405],[131.0359,42.6456],[130.9963,42.6405],[130.9531,42.627],[130.9315,42.6067],[130.8883,42.6],[130.8163,42.6338],[130.8379,42.6422],[130.8883,42.6388],[130.9099,42.6169],[130.9315,42.6186],[130.9459,42.6304],[130.9495,42.6523],[130.8487,42.6608],[130.7875,42.654],[130.8307,42.6743],[130.8379,42.6912],[130.8271,42.6996],[130.7695,42.681],[130.7443,42.681],[130.7191,42.6996],[130.6579,42.6642],[130.6615,42.6439],[130.6831,42.6439],[130.7335,42.6152],[130.7299,42.5797],[130.7623,42.6],[130.7731,42.5966],[130.7839,42.5797],[130.8415,42.5578],[130.8739,42.5274],[130.8703,42.5172],[130.8595,42.524],[130.8415,42.5189],[130.8451,42.4868],[130.8379,42.4717],[130.7875,42.4615],[130.7803,42.4531],[130.7443,42.3535],[130.7112,42.3056],[130.6684,42.2825],[130.5967,42.2623],[130.5967,42.2977],[130.5679,42.3146],[130.5391,42.318],[130.5103,42.3366],[130.4671,42.3349],[130.4707,42.3214],[130.4563,42.3112],[130.4383,42.3095],[130.4203,42.3247],[130.4059,42.3247],[130.4059,42.3079],[130.3843,42.291],[130.3915,42.264],[130.4059,42.2606],[130.4023,42.242],[130.3771,42.2572],[130.3663,42.2555],[130.3591,42.2437],[130.3699,42.2319],[130.3519,42.2167],[130.3339,42.2133],[130.3303,42.1913],[130.3087,42.1829],[130.3159,42.2184],[130.3087,42.2369],[130.2943,42.2369],[130.2295,42.1829],[130.2007,42.1728],[130.2007,42.1019],[130.1755,42.0985],[130.1611,42.085],[130.1683,42.0765],[130.1503,42.0748],[130.1215,42.09],[130.0927,42.09],[130.0747,42.0782],[130.0675,42.0512],[130.0531,42.0512],[130.0351,42.0124],[130.0351,41.9955],[130.0279,41.9921],[130.0135,42.014],[130.0027,42.0107],[130.0027,41.9904],[129.9811,41.982],[130.0027,41.9617],[129.9739,41.9414],[129.9631,41.8992],[129.9451,41.8942],[129.9379,41.9043],[129.9127,41.911],[129.8983,41.9043],[129.8839,41.8466],[129.8,41.8],[128.0405,40.0405],[128.0083,40.0452],[127.9975,40.0198],[127.9651,40.0046],[127.9399,39.9742],[127.9075,39.9844],[127.8895,39.9607],[127.8823,39.9016],[127.8751,39.8932],[127.7815,39.8848],[127.7959,39.8763],[127.7923,39.8662],[127.7635,39.8544],[127.7275,39.8577],[127.6951,39.8476],[127.6807,39.8172],[127.6627,39.8071],[127.6231,39.8307],[127.6087,39.8105],[127.5619,39.7834],[127.5511,39.7615],[127.5223,39.7463],[127.5007,39.7075],[127.5079,39.6602],[127.5187,39.645],[127.5511,39.6365],[127.5691,39.618],[127.5763,39.5943],[127.5367,39.5521],[126,39.8],[124.4,40],[124.3978,40.0203],[124.4046,40.0283],[124.4658,40.0148],[124.4982,40.0232],[124.4118,40.0367],[124.3951,40.0459],[124.1,42.8],[125.3,43.35],[125.2,44.4],[125.3591,44.5],[124.4,44.5]]],[[[135.2768,43.6891],[135.2588,43.6942],[135.2553,43.7039],[135.2982,43.7002],[135.2768,43.6891]]],[[[132.4003,42.8313],[132.4003,42.8516],[132.4291,42.8955],[132.4399,42.8921],[132.4543,42.8617],[132.4507,42.8279],[132.4759,42.8009],[132.4579,42.7975],[132.4183,42.8296],[132.4003,42.8313]]],[[[131.7739,43.0204],[131.7919,43.0171],[131.7775,43.0441],[131.7991,43.0525],[131.8603,43.0373],[131.8603,43.0441],[131.8279,43.0643],[131.8567,43.061],[131.9215,43.0238],[131.9251,43.0052],[131.9143,42.985],[131.8819,42.9613],[131.8387,42.9613],[131.7559,42.99],[131.7919,42.9968],[131.7739,43.0052],[131.7739,43.0204]]]]}},{"type":"Feature","properties":{"id":"bh-ext-830-final","layer":"hypothesis","nameEn":"Balhae – peak, final composite (818–925)","nameKo":"발해 – 선왕기 전성기 최종안(북=송화강선, 동=동해 연안·남부 연해주·우수리 분지, 서=요동 방면, 남=대동강~원산만)","category":"발해 영역(작성)","role":"korean","startYear":818,"endYear":925,"confidence":"low","license":"original (authored)","wikipedia":null,"wikidata":null,"sources":["RESEARCH_V02"],"uiDefault":true,"label":[129.123,43.894],"note":"국내 개설서·교과서 서술(신편 한국사)을 기준선으로, 동쪽은 남부 연해주 해안(포시예트~블라디보스토크~나홋카)과 수찬 계곡·우수리 분지 서안~하바롭스크까지로 정리한 '주류' 최종안이다. 육지 경계는 자연 해안선을 따르게 다듬었다. 이 안의 동쪽 끝에 대해서는 합의된 점·선이 없다 — 확인된 동해안 발해 도시는 크라스키노(염주, 130.77°E)뿐이고, 경도상 더 동쪽 유적은 우수리 분지 상류의 콕샤로프카-1(≈133.9°E, 10세기, 안변부 '추정')과 귀속이 논란인 니콜라예프카(수찬 계곡)이며, 올가~테튜헤~테르네이 해안(135~137°E)은 한국 대백과의 부(府) 위치 가설일 뿐 유적·문헌 근거를 못 찾았다. 러시아 학계(크라딘 2023: 겔만·니키틴 인용)는 남부·서부 연해주만 발해로 보고 한카호 북쪽·수찬 계곡·동부는 발해 밖으로 봐서 이 안보다 좁고, 중국 학계는 북쪽 말갈을 '차등 기미'로 본다. 시호테알린 분수령·사할린·타타르해협을 동계로 서술한 자료는 찾지 못했다. 다른 형태(통설형·교과서형·최소형·최대형)는 '대안 형태 보기'를 켜면 함께 보인다.","source":"korea"},"geometry":{"type":"Polygon","coordinates":[[[125.289,43.433],[125.204,44.355],[125.169,44.441],[125.061,44.499],[124.4,44.5],[124.4,45.4],[124.765,45.403],[126.603,45.75],[128.439,45.95],[129.209,46.182],[129.542,46.316],[130.4,46.8],[131.266,47.032],[132.319,47.555],[132.503,47.701],[134.3,48.35],[135.08,48.496],[133.74,45.943],[133.87,44.17],[133.119,43.119],[132.87,42.82],[132.7658,42.8486],[132.7747,42.8955],[132.7639,42.9073],[132.7387,42.9073],[132.7027,42.8786],[132.6834,42.8741],[132.299,42.9931],[132.2923,43.0441],[132.3067,43.0643],[132.2923,43.0863],[132.3211,43.0947],[132.3247,43.1066],[132.3175,43.1201],[132.3391,43.1336],[132.3247,43.1403],[132.3283,43.1758],[132.3571,43.1707],[132.3823,43.191],[132.3607,43.2163],[132.3067,43.2383],[132.3067,43.2467],[132.3463,43.267],[132.3571,43.2855],[132.3067,43.3193],[132.2887,43.3126],[132.2815,43.2788],[132.2527,43.267],[132.2275,43.2298],[132.1375,43.191],[132.0943,43.1809],[132.0439,43.1268],[131.9809,43.0896],[131.9143,43.106],[131.9215,43.1201],[131.8986,43.1062],[131.8475,43.0941],[131.9107,43.1977],[131.9575,43.2298],[131.9971,43.2383],[132.0079,43.2602],[132.0511,43.2974],[132.0511,43.3143],[132.0439,43.3244],[132.0295,43.3244],[132.0151,43.3159],[131.9935,43.2737],[131.9683,43.2703],[131.9791,43.2923],[131.9575,43.3058],[131.8963,43.3193],[131.8459,43.3058],[131.8243,43.3176],[131.8387,43.3328],[131.8171,43.3362],[131.7631,43.2923],[131.7487,43.2248],[131.7235,43.2096],[131.7235,43.2028],[131.7595,43.1961],[131.7631,43.1859],[131.7307,43.1741],[131.6947,43.2028],[131.6479,43.169],[131.6515,43.1555],[131.6659,43.1572],[131.6947,43.1758],[131.6659,43.1251],[131.5867,43.0491],[131.5615,43.039],[131.5651,42.9968],[131.5471,42.9934],[131.5183,43.0086],[131.5003,43.0002],[131.4931,42.985],[131.4967,42.9428],[131.4283,42.9343],[131.4067,42.9512],[131.3923,42.9445],[131.3851,42.9141],[131.4067,42.9107],[131.4027,42.8816],[130.851,42.718],[130.8285,42.6985],[130.8019,42.6962],[130.7695,42.681],[130.7443,42.681],[130.7191,42.6996],[130.6939,42.6861],[130.6579,42.6642],[130.6615,42.6439],[130.6831,42.6439],[130.7335,42.6152],[130.7299,42.5797],[130.753,42.5952],[130.7025,42.295],[130.5967,42.2623],[130.5967,42.2977],[130.5679,42.3146],[130.5391,42.318],[130.5103,42.3366],[130.4671,42.3349],[130.4707,42.3214],[130.4563,42.3112],[130.4383,42.3095],[130.4203,42.3247],[130.4059,42.3247],[130.4059,42.3079],[130.3843,42.291],[130.3915,42.264],[130.4059,42.2606],[130.4023,42.242],[130.3771,42.2572],[130.3663,42.2555],[130.3591,42.2437],[130.3699,42.2319],[130.3519,42.2167],[130.3339,42.2133],[130.3303,42.1913],[130.3087,42.1829],[130.3159,42.2184],[130.3087,42.2369],[130.2943,42.2369],[130.2295,42.1829],[130.2007,42.1728],[130.2007,42.1019],[130.1755,42.0985],[130.1611,42.085],[130.1683,42.0765],[130.1503,42.0748],[130.1215,42.09],[130.0927,42.09],[130.0747,42.0782],[130.0675,42.0512],[130.0531,42.0512],[130.0351,42.0124],[130.0351,41.9955],[130.0279,41.9921],[130.0135,42.014],[130.0027,42.0107],[130.0027,41.9904],[129.9811,41.982],[130.0027,41.9617],[129.9739,41.9414],[129.9631,41.8992],[129.9442,41.8954],[129.9379,41.9043],[129.9127,41.911],[129.8983,41.9043],[129.8868,41.8672],[129.784,41.784],[128.0405,40.0405],[128.0083,40.0452],[127.9975,40.0198],[127.9615,40],[124.4,40],[124.3978,40.0203],[124.4046,40.0283],[124.4658,40.0148],[124.4982,40.0232],[124.4118,40.0367],[124.3951,40.0459],[124.103,42.802],[125.21,43.31],[125.289,43.433]]]}},{"type":"Feature","properties":{"id":"bh-east-nikolaevka","layer":"site","nameEn":"Nikolaevka fortress (Partizansk area) — attribution disputed","nameKo":"니콜라예프카 성터(수찬/파르티잔스카야 계곡; 귀속 논란)","category":"발해 최동단 검증","role":"korean","startYear":700,"endYear":1234,"confidence":"low","license":"original (authored)","wikipedia":null,"wikidata":null,"sources":["RESEARCH_V02"],"uiDefault":false,"label":null,"note":"둘레 1.55km·성벽 10m의 대형 성. 발해→여진 재사용. 정리부 치소 후보로 거론되지만 발해 행정 영역 안인지 자체가 논란(겔만·니키틴은 수찬 계곡을 발해 밖으로 본다). 좌표는 지역 근사.","source":"korea"},"geometry":{"type":"Point","coordinates":[133.1,43.15]}},{"type":"Feature","properties":{"id":"bh-east-olga","layer":"site","nameEn":"Olga Bay — hypothesised Jeongni/Anbyeon-bu location (no site found)","nameKo":"올가만 일대 — 대백과 정리부·안변부 가설지(유적 근거 못 찾음)","category":"발해 최동단 검증","role":"korean","startYear":818,"endYear":925,"confidence":"speculative","license":"original (authored)","wikipedia":null,"wikidata":null,"sources":["RESEARCH_V02"],"uiDefault":false,"label":null,"note":"한국민족문화대백과 정리부(올가만 일대설)·안변부(올가 지방설) 가설. 이 해안에서 발해 성곽·관청 유적을 확인한 문헌은 이번 조사에서 못 찾음. '동해안 발해 최동단 후보'의 유일한 텍스트 근거.","source":"korea"},"geometry":{"type":"Point","coordinates":[135.29,43.74]}},{"type":"Feature","properties":{"id":"bh-east-tetyukhe","layer":"site","nameEn":"Tetyukhe (Rudnaya Pristan) — hypothesised Anbyeon-bu (no site found)","nameKo":"테튜헤(루드나야 프리스탄) — 대백과 안변부 가설지(유적 근거 못 찾음)","category":"발해 최동단 검증","role":"korean","startYear":818,"endYear":925,"confidence":"speculative","license":"original (authored)","wikipedia":null,"wikidata":null,"sources":["RESEARCH_V02"],"uiDefault":false,"label":null,"note":"대백과 안변부 위치설 중 하나(하바롭스크 부근·우수리강·테튜헤·올가 등 병존, '결정적 증거 없음'). 발해기 유적 확인 문헌 못 찾음. 테르네이(≈136.6°E) 해안은 발해 서술 자체를 못 찾아 종점으로도 쓰지 않음.","source":"korea"},"geometry":{"type":"Point","coordinates":[135.83,44.36]}}]}