{"type":"FeatureCollection","properties":{"year":1945,"source":"korea","fillHint":"layer in polity|polity_prehistory|hypothesis; prefer uiDefault"},"features":[{"type":"Feature","properties":{"id":"clio-empire-of-japan-1945","layer":"polity","nameEn":"Empire of Japan","nameKo":"일본 제국","category":"이웃 정치체(맥락)","role":"context","startYear":1945,"endYear":1945,"confidence":"context","license":"CC-BY-4.0 (Cliopatria, Seshat) — 단순화·클리핑 등 변경 있음","wikipedia":"Empire of Japan","wikidata":"Q188712","sources":["CLIO"],"uiDefault":true,"label":[124.41,41.036],"note":null,"source":"korea"},"geometry":{"type":"MultiPolygon","coordinates":[[[[128.6822,40.2906],[128.368,40.0317],[127.9346,39.967],[127.5454,39.7083],[127.6653,39.6436],[127.4832,39.1911],[127.7978,39.1911],[127.9234,38.9972],[128.3638,38.8034],[129.1002,37.5773],[129.2563,37.5773],[129.4748,37.2549],[129.4069,37.126],[129.5288,37.0615],[129.3964,36.3528],[129.474,36.3528],[129.4214,36.0952],[129.5765,36.0952],[129.6669,35.9664],[129.5387,35.7089],[129.6161,35.7089],[129.1471,35.0653],[128.5294,35.0653],[128.5451,34.9366],[128.8074,35.001],[128.6849,34.7436],[128.3297,34.8079],[128.3136,34.9366],[128.0821,34.9366],[128.0679,34.7436],[127.7595,34.7436],[127.3783,34.422],[127.2243,34.422],[127.1297,34.5506],[127.2968,34.7436],[127.2196,34.7436],[127.0229,34.4863],[126.6262,34.2933],[126.4246,34.3577],[126.4837,34.4863],[126.3476,34.3577],[126.1166,34.3577],[126.4784,34.8079],[126.1998,34.8723],[126.3812,35.2584],[126.3039,35.2584],[126.5192,35.7089],[126.7678,35.902],[126.6128,35.902],[126.6757,36.0308],[126.5206,36.0308],[126.4286,36.1596],[126.4516,36.6749],[126.2638,36.6105],[126.0498,36.8037],[126.3032,36.9971],[126.6475,37.0615],[126.7023,37.3193],[126.5352,37.4483],[126.6025,37.5773],[126.2459,37.6417],[126.3477,37.8352],[125.8449,37.7707],[125.8347,37.8998],[125.6783,37.8998],[125.3871,37.6417],[125.231,37.6417],[125.2981,37.7707],[125.2093,37.8998],[124.8967,37.8998],[125.0767,38.0933],[124.7637,38.0933],[124.8664,38.2869],[124.7881,38.2869],[124.9614,38.6097],[125.1533,38.6743],[125.1885,38.7389],[125.0316,38.7389],[125.39,39.385],[125.3057,39.5143],[124.8697,39.5789],[124.8646,39.7083],[124.5124,39.6436],[124.3446,39.9023],[124.034,39.7729],[123.3241,39.7729],[122.513,39.4496],[122.1704,39.2557],[122.0653,39.0618],[121.7162,38.9972],[121.4217,38.7389],[121.0293,38.7389],[121.2007,39.0618],[121.5151,39.0618],[121.6901,39.385],[121.2965,39.385],[121.2096,39.5143],[121.2807,39.6436],[121.4383,39.6436],[121.5033,39.9023],[121.7765,39.967],[122.2306,40.4849],[122.1061,40.6792],[121.827,40.744],[121.8237,40.8736],[121.1098,40.8736],[120.9967,40.6792],[120.6473,40.4849],[120.5003,40.2259],[119.3804,39.7729],[119.2153,39.3203],[118.9894,39.1911],[118.4498,39.0618],[118.0569,39.0618],[118.0457,39.1911],[117.776,39.1265],[117.5764,38.7389],[117.6549,38.7389],[117.6025,38.4806],[117.7592,38.4806],[117.7727,38.3515],[118.0536,38.2869],[118.0674,38.1578],[118.583,38.0933],[118.6476,38.2224],[118.8042,38.2224],[118.7718,38.1578],[119.4571,37.9643],[119.3928,37.8352],[119.2366,37.8352],[118.984,37.3193],[119.14,37.3193],[119.1557,37.1904],[119.7011,37.1904],[119.8266,37.4483],[120.2022,37.5773],[120.1881,37.7062],[120.7538,37.8998],[121.112,37.8352],[121.171,37.6417],[121.4833,37.6417],[121.4969,37.5128],[122.1535,37.5773],[122.1211,37.5128],[122.7129,37.4483],[122.4742,37.126],[122.5664,36.9971],[122.3939,36.8037],[121.9121,36.9326],[121.2121,36.6105],[120.9789,36.6105],[120.9648,36.4172],[120.7318,36.4172],[120.6585,36.0952],[120.3185,36.0308],[119.9865,35.6445],[119.6187,35.5158],[119.2276,34.8079],[119.459,34.8079],[119.4309,34.7436],[119.7113,34.6793],[119.7323,34.5506],[120.3418,34.3577],[120.4894,34.1647],[120.5505,33.5859],[120.9263,33.2002],[120.9192,32.6216],[121.4026,32.4931],[121.5033,32.1717],[121.9112,32],[117,32],[117,32.458],[117.1703,32.8145],[117,32.9368],[117.0423,33.0716],[117,33.1126],[117,46.3489],[117.1258,46.3489],[117.4191,46.5459],[118.6166,46.7429],[119.109,46.7429],[119.0647,46.6772],[119.3108,46.6772],[119.2666,46.6115],[119.8031,46.6772],[119.9371,46.8743],[119.7431,47.0716],[119.7512,47.2032],[119.4671,47.269],[119.4754,47.4006],[119.2736,47.4665],[119.3191,47.5323],[119.0347,47.5982],[119.0436,47.73],[118.6396,47.8619],[118.6855,47.9278],[118.4374,47.9278],[118.4834,47.9938],[117.7389,47.9938],[117.3093,47.73],[117,47.7854],[117,49.7075],[117.8274,49.5152],[118.5429,49.9136],[119.2816,50.113],[119.235,50.3791],[119.1509,50.3791],[119.7303,51.1124],[119.6457,51.1124],[120.1919,51.7811],[120.6709,52.0492],[120.5571,52.1163],[120.6706,52.2505],[120.5006,52.4519],[120.5301,52.5863],[119.9036,52.6535],[120.4231,53.0574],[121.089,53.3271],[121.897,53.4621],[123.8519,53.5296],[123.7904,53.4621],[124.2453,53.3946],[124.1839,53.3271],[124.4665,53.2596],[124.4053,53.1922],[124.7488,53.1922],[124.6877,53.1248],[125.35,53.1922],[125.2885,53.1248],[125.546,53.1248],[125.4846,53.0574],[125.6561,53.0574],[125.6194,52.9227],[125.901,52.8554],[125.8897,52.6535],[126.0608,52.6535],[126.0252,52.5191],[126.3065,52.4519],[126.2463,52.3847],[126.3317,52.3847],[126.2716,52.3176],[126.3569,52.3176],[126.297,52.2505],[126.3823,52.2505],[126.3225,52.1833],[126.4077,52.1833],[126.4516,51.8481],[126.6216,51.8481],[126.5627,51.7811],[126.6477,51.7811],[126.589,51.7142],[126.6739,51.7142],[126.6153,51.6472],[126.7002,51.6472],[126.6418,51.5803],[126.7266,51.5803],[126.6683,51.5134],[126.7531,51.5134],[126.695,51.4465],[126.7797,51.4465],[126.8576,51.0457],[127.0265,51.0457],[127.0248,50.8455],[127.1935,50.8455],[127.1648,50.7121],[127.3052,50.5789],[127.1935,50.4457],[127.2776,50.4457],[127.2508,50.3125],[127.4188,50.3125],[127.3636,50.246],[127.5054,50.113],[127.3961,49.98],[127.4799,49.98],[127.4848,49.7807],[127.8791,49.6479],[127.8254,49.5816],[128.0762,49.5816],[128.0226,49.5152],[128.7451,49.5816],[128.6911,49.5152],[129.1386,49.4489],[129.0848,49.3826],[129.5023,49.3826],[129.4485,49.3163],[129.812,49.25],[129.8184,49.0513],[130.0984,48.9851],[130.0453,48.9189],[130.5748,48.8527],[130.4995,48.6542],[130.7361,48.3238],[130.6243,47.8619],[130.9038,47.7959],[130.853,47.73],[132.123,47.6641],[133.0648,48.1257],[133.5616,48.1257],[134.1886,48.3899],[134.5203,48.3899],[134.4961,48.2578],[134.6379,48.1257],[134.5089,47.8619],[134.682,47.6641],[134.3608,47.4665],[134.1036,47.1374],[134.1859,47.1374],[133.9824,46.8743],[134.0645,46.8743],[133.9635,46.7429],[134.0456,46.7429],[133.8448,46.4802],[133.9268,46.4802],[133.827,46.3489],[133.9089,46.3489],[132.9815,45.1042],[132.69,45.0388],[132.7378,45.1042],[131.6952,45.235],[131.3433,44.9734],[131.0527,44.908],[130.912,44.7119],[131.0742,44.7119],[131.0617,44.5813],[131.2457,44.3854],[131.141,44.1243],[131.2217,44.1243],[131.1641,43.9286],[131.2794,43.8634],[131.1561,43.3421],[131.2716,43.2769],[131.0022,42.8864],[130.5567,42.8213],[130.4965,42.4962],[130.6927,42.4312],[130.649,42.3662],[130.3221,42.2362],[129.6977,41.6518],[129.8104,41.4571],[129.7269,41.3274],[129.8822,41.1977],[129.7558,40.8736],[129.2378,40.6792],[129.0777,40.4201],[128.6822,40.2906]],[[117.1819,39.6436],[117.1477,39.5789],[117.2265,39.5789],[117.0456,39.385],[117.0568,39.2557],[117.3605,39.385],[117.4286,39.5143],[117.3053,39.5789],[117.4875,39.7729],[117.1031,39.6436],[117.1819,39.6436]]],[[[129.9309,32.236],[129.9934,32.5574],[130.5287,32.5574],[130.1325,32.1717],[129.9309,32.236]]],[[[128.6518,32.8145],[128.8815,32.8145],[128.9299,32.7502],[128.7698,32.5574],[128.5681,32.6216],[128.6518,32.8145]]],[[[126.9988,33.5859],[126.7801,33.2645],[126.1388,33.2002],[126.3563,33.5217],[126.9988,33.5859]]],[[[129.5908,33.7146],[129.7267,33.8432],[129.8804,33.8432],[129.8212,33.7146],[129.5908,33.7146]]],[[[129.3075,34.1004],[129.1065,34.1647],[129.1665,34.2933],[129.3974,34.2933],[129.3075,34.1004]]],[[[129.4275,34.3577],[129.2267,34.422],[129.2873,34.5506],[129.4415,34.5506],[129.4275,34.3577]]],[[[133.4333,36.3528],[133.3323,36.1596],[133.0996,36.1596],[133.2004,36.3528],[133.4333,36.3528]]],[[[136.7258,34.9366],[136.5954,34.6793],[136.7942,34.615],[136.9733,34.3577],[136.9093,34.229],[136.4475,34.229],[135.8117,33.3931],[135.4125,33.5217],[135.3511,33.7146],[135.0288,33.8432],[135.1534,34.1004],[135.0168,34.2933],[135.3429,34.4863],[135.4389,34.6793],[135.2076,34.6793],[134.9083,34.229],[134.7231,34.1647],[134.7065,33.9718],[134.7834,33.9718],[134.6599,33.7146],[134.3684,33.5859],[134.2174,33.2645],[133.9874,33.2645],[133.8473,33.4574],[133.5404,33.4574],[133.1613,33.1359],[133.0334,32.6859],[132.6797,32.7502],[132.6611,32.8788],[132.4314,32.8788],[132.4423,33.0716],[132.3657,33.0716],[132.4539,33.2645],[132.3006,33.2645],[132.3598,33.3931],[132.0233,33.3288],[132.0826,33.4574],[132.556,33.6502],[132.8765,34.1647],[133.0304,34.1647],[133.1227,34.0361],[133.5072,34.0361],[133.6312,34.2933],[134.2328,34.422],[134.2014,34.3577],[134.6319,34.2933],[134.9444,34.615],[134.4686,34.7436],[133.2463,34.2933],[132.3226,34.2933],[132.1856,33.8432],[131.9085,33.9075],[131.9388,33.9718],[131.0931,33.9718],[131.0971,33.6502],[131.8181,33.7146],[131.6399,33.3288],[132.0885,33.1359],[132.001,32.943],[132.0776,32.943],[131.7807,32.6216],[131.5504,32],[130.1358,32],[130.2089,32.1717],[130.5211,32.3645],[130.5654,32.8145],[130.4408,32.8788],[130.3274,32.6216],[130.0979,32.6216],[130.1543,32.7502],[130.0013,32.7502],[129.792,32.6216],[129.6952,32.7502],[129.7518,32.8788],[129.627,32.943],[129.6841,33.0716],[129.5595,33.1359],[129.617,33.2645],[129.5403,33.2645],[129.5982,33.3931],[129.8283,33.3931],[129.916,33.5859],[130.3293,33.6502],[130.4183,33.8432],[130.8624,33.9718],[130.8761,34.1647],[130.7992,34.1647],[130.9211,34.422],[131.414,34.4863],[131.4759,34.615],[132.5634,35.2584],[132.6925,35.5158],[132.9572,35.5802],[133.4661,35.5158],[135.3788,35.7733],[135.2786,35.5802],[135.7095,35.5158],[136.0758,35.7733],[135.9109,35.902],[136.0039,36.224],[136.4529,36.4816],[136.7063,36.8037],[136.5795,36.9971],[136.6511,37.126],[136.5732,37.126],[136.7178,37.3838],[137,37.467],[137,37.1385],[136.9627,37.126],[137,37.0962],[137,34.7436],[136.9363,34.7436],[136.7258,34.9366]]]]}},{"type":"Feature","properties":{"id":"clio-union-of-soviet-socialist-republics-1932","layer":"polity","nameEn":"Union of Soviet Socialist Republics","nameKo":"소련","category":"이웃 정치체(맥락)","role":"context","startYear":1932,"endYear":1945,"confidence":"context","license":"CC-BY-4.0 (Cliopatria, Seshat) — 단순화·클리핑 등 변경 있음","wikipedia":"Soviet Union","wikidata":"Q15180","sources":["CLIO"],"uiDefault":false,"label":[132.109,43.603],"note":null,"source":"korea"},"geometry":{"type":"Polygon","coordinates":[[[136.1484,44.4507],[135.9866,44.4507],[135.1096,43.4723],[134.2218,43.0165],[133.2723,42.6912],[132.9519,42.6912],[132.997,42.7563],[132.5611,42.8213],[132.6062,42.8864],[132.2052,42.8864],[132.271,43.2118],[132.0999,43.0816],[131.7787,43.0816],[131.9147,43.2769],[131.7539,43.2769],[131.2251,42.6262],[130.9048,42.6262],[130.7728,42.4312],[130.4965,42.4962],[130.5567,42.8213],[131.0022,42.8864],[131.2716,43.2769],[131.1561,43.3421],[131.2794,43.8634],[131.1641,43.9286],[131.2217,44.1243],[131.141,44.1243],[131.2457,44.3854],[131.0617,44.5813],[131.0742,44.7119],[130.912,44.7119],[131.0527,44.908],[131.3433,44.9734],[131.6952,45.235],[132.7378,45.1042],[132.69,45.0388],[132.9815,45.1042],[133.9089,46.3489],[133.827,46.3489],[133.9268,46.4802],[133.8448,46.4802],[134.0456,46.7429],[133.9635,46.7429],[134.0645,46.8743],[133.9824,46.8743],[134.1859,47.1374],[134.1036,47.1374],[134.3608,47.4665],[134.682,47.6641],[134.5089,47.8619],[134.6379,48.1257],[134.4961,48.2578],[134.5203,48.3899],[134.1886,48.3899],[133.5616,48.1257],[133.0648,48.1257],[132.123,47.6641],[130.853,47.73],[130.9038,47.7959],[130.6243,47.8619],[130.7361,48.3238],[130.4995,48.6542],[130.5748,48.8527],[130.0453,48.9189],[130.0984,48.9851],[129.8184,49.0513],[129.812,49.25],[129.4485,49.3163],[129.5023,49.3826],[129.0848,49.3826],[129.1386,49.4489],[128.6911,49.5152],[128.7451,49.5816],[128.0226,49.5152],[128.0762,49.5816],[127.8254,49.5816],[127.8791,49.6479],[127.4848,49.7807],[127.4799,49.98],[127.3961,49.98],[127.5054,50.113],[127.3636,50.246],[127.4188,50.3125],[127.2508,50.3125],[127.2776,50.4457],[127.1935,50.4457],[127.3052,50.5789],[127.1648,50.7121],[127.1935,50.8455],[127.0248,50.8455],[127.0265,51.0457],[126.8576,51.0457],[126.7797,51.4465],[126.695,51.4465],[126.7531,51.5134],[126.6683,51.5134],[126.7266,51.5803],[126.6418,51.5803],[126.7002,51.6472],[126.6153,51.6472],[126.6739,51.7142],[126.589,51.7142],[126.6477,51.7811],[126.5627,51.7811],[126.6216,51.8481],[126.4516,51.8481],[126.4077,52.1833],[126.3225,52.1833],[126.3823,52.2505],[126.297,52.2505],[126.3569,52.3176],[126.2716,52.3176],[126.3317,52.3847],[126.2463,52.3847],[126.3065,52.4519],[126.0252,52.5191],[126.0608,52.6535],[125.8897,52.6535],[125.901,52.8554],[125.6194,52.9227],[125.6561,53.0574],[125.4846,53.0574],[125.546,53.1248],[125.2885,53.1248],[125.35,53.1922],[124.6877,53.1248],[124.7488,53.1922],[124.4053,53.1922],[124.4665,53.2596],[124.1839,53.3271],[124.2453,53.3946],[123.7904,53.4621],[123.8519,53.5296],[121.897,53.4621],[121.089,53.3271],[120.4231,53.0574],[119.9036,52.6535],[120.5301,52.5863],[120.5006,52.4519],[120.6706,52.2505],[120.5571,52.1163],[120.6709,52.0492],[120.1919,51.7811],[119.6457,51.1124],[119.7303,51.1124],[119.1509,50.3791],[119.235,50.3791],[119.2816,50.113],[118.5429,49.9136],[117.8274,49.5152],[117,49.7075],[117,53.6],[137,53.6],[137,45.3139],[136.7191,45.1042],[136.1484,44.4507]]]}},{"type":"Feature","properties":{"id":"cap-hanyang","layer":"site","nameEn":"Hanyang / Seoul","nameKo":"한양/서울","category":"도읍","role":"korean","startYear":1394,"endYear":2026,"confidence":"high","license":"original (authored)","wikipedia":null,"wikidata":null,"sources":["GK"],"uiDefault":false,"label":null,"note":"조선 도읍(1394)~현재 대한민국 수도. 일제강점기(1910~1945)에는 경성으로 불림.","source":"korea"},"geometry":{"type":"Point","coordinates":[126.98,37.57]}},{"type":"Feature","properties":{"id":"stele-bukhansan","layer":"site","nameEn":"Bukhansan Monument (Jinheung)","nameKo":"북한산 순수비","category":"영역 증거(순수비)","role":"korean","startYear":555,"endYear":2026,"confidence":"medium","license":"original (authored)","wikipedia":null,"wikidata":null,"sources":["KOWIKI_SILLA","GK"],"uiDefault":false,"label":null,"note":"진흥왕 한강 유역 진출(553) 이후의 순수비로 알려짐(연도 근사).","source":"korea"},"geometry":{"type":"Point","coordinates":[126.96,37.62]}},{"type":"Feature","properties":{"id":"stele-changnyeong","layer":"site","nameEn":"Changnyeong Monument (Jinheung)","nameKo":"창녕 순수비","category":"영역 증거(순수비)","role":"korean","startYear":561,"endYear":2026,"confidence":"medium","license":"original (authored)","wikipedia":null,"wikidata":null,"sources":["KOWIKI_SILLA","GK"],"uiDefault":false,"label":null,"note":"가야 방면 진출 관련 순수비로 알려짐(연도 근사).","source":"korea"},"geometry":{"type":"Point","coordinates":[128.49,35.54]}},{"type":"Feature","properties":{"id":"stele-hwangchoryeong","layer":"site","nameEn":"Hwangchoryeong Monument (Jinheung)","nameKo":"황초령 순수비","category":"영역 증거(순수비)","role":"korean","startYear":568,"endYear":2026,"confidence":"low","license":"original (authored)","wikipedia":null,"wikidata":null,"sources":["KOWIKI_SILLA","GK"],"uiDefault":false,"label":null,"note":"함경도 방면 진출을 보여 주는 순수비로 알려짐. 좌표는 지명 기준 개략.","source":"korea"},"geometry":{"type":"Point","coordinates":[127.45,40.25]}},{"type":"Feature","properties":{"id":"stele-maunryeong","layer":"site","nameEn":"Maunryeong Monument (Jinheung)","nameKo":"마운령 순수비","category":"영역 증거(순수비)","role":"korean","startYear":568,"endYear":2026,"confidence":"low","license":"original (authored)","wikipedia":null,"wikidata":null,"sources":["KOWIKI_SILLA","GK"],"uiDefault":false,"label":null,"note":"함경도 방면 진출을 보여 주는 순수비로 알려짐. 좌표는 지명 기준 개략.","source":"korea"},"geometry":{"type":"Point","coordinates":[128.4,40.35]}},{"type":"Feature","properties":{"id":"mod-38","layer":"line","nameEn":"38th parallel (1945 division line)","nameKo":"38도선(1945 분할선)","category":"국경·경계","role":"korean","startYear":1945,"endYear":1950,"confidence":"high","license":"original (authored)","wikipedia":null,"wikidata":null,"sources":["GK"],"uiDefault":false,"label":null,"note":"미·소 분할 점령선. 개성·옹진은 38선 남쪽이라 1950년 전까지 남쪽에 속함.","source":"korea"},"geometry":{"type":"MultiLineString","coordinates":[[[125.1187,38],[125.5876,38]],[[125.7661,38],[128.7492,38]]]}},{"type":"Feature","properties":{"id":"isl-dokdo","layer":"site","nameEn":"Dokdo (Liancourt Rocks)","nameKo":"독도","category":"국경·경계","role":"korean","startYear":1900,"endYear":2026,"confidence":"high","license":"original (authored)","wikipedia":null,"wikidata":null,"sources":["KOWIKI_DOKDO"],"uiDefault":false,"label":null,"note":"동도·서도 포함 91개 크고 작은 섬(위키 정리). 1900년 칙령 41호는 독도를 울릉도의 부속 섬으로 규정. 현재 대한민국이 실효 지배, 일본 정부가 영유권 주장. 1454 세종실록지리지 등 그 이전 기록도 언급됨. 이 파일은 사실 서술만 하고 귀속 판단을 하지 않음.","source":"korea"},"geometry":{"type":"Point","coordinates":[131.8696,37.2408]}},{"type":"Feature","properties":{"id":"isl-ulleung","layer":"site","nameEn":"Ulleungdo","nameKo":"울릉도","category":"국경·경계","role":"korean","startYear":512,"endYear":2026,"confidence":"medium","license":"original (authored)","wikipedia":null,"wikidata":null,"sources":["GK","KOWIKI_DOKDO"],"uiDefault":false,"label":null,"note":"신라 이사부의 우산국 복속(512)은 위키 정리 본문에는 명시가 없어 작성자 일반 지식으로 표기. 재검증 필요.","source":"korea"},"geometry":{"type":"Point","coordinates":[130.87,37.5]}},{"type":"Feature","properties":{"id":"gr-gwanggaeto-stele","layer":"site","nameEn":"Gwanggaeto Stele (Ji'an)","nameKo":"광개토왕릉비(집안)","category":"고구려 성·유적","role":"korean","startYear":414,"endYear":2026,"confidence":"high","license":"original (authored)","wikipedia":null,"wikidata":null,"sources":["RESEARCH_V02"],"uiDefault":false,"label":null,"note":"414년 장수왕이 건립. 395~410년 원정의 동시대 기록. 신묘년 조 해석은 논쟁.","source":"korea"},"geometry":{"type":"Point","coordinates":[126.2142,41.1447]}}]}