{"type":"FeatureCollection","properties":{"year":1919,"source":"korea","fillHint":"layer in polity|polity_prehistory|hypothesis; prefer uiDefault"},"features":[{"type":"Feature","properties":{"id":"clio-empire-of-japan-1917","layer":"polity","nameEn":"Empire of Japan","nameKo":"일본 제국","category":"이웃 정치체(맥락)","role":"context","startYear":1917,"endYear":1919,"confidence":"context","license":"CC-BY-4.0 (Cliopatria, Seshat) — 단순화·클리핑 등 변경 있음","wikipedia":"Empire of Japan","wikidata":"Q188712","sources":["CLIO"],"uiDefault":true,"label":[126.759,38.642],"note":null,"source":"korea"},"geometry":{"type":"MultiPolygon","coordinates":[[[[130.1325,32.1717],[129.9309,32.236],[129.9934,32.5574],[130.5287,32.5574],[130.3683,32.3645],[130.2919,32.3645],[130.1325,32.1717]]],[[[128.5681,32.6216],[128.6518,32.8145],[128.8815,32.8145],[128.9299,32.7502],[128.7698,32.5574],[128.5681,32.6216]]],[[[126.1388,33.2002],[126.3563,33.5217],[126.9988,33.5859],[126.7801,33.2645],[126.1388,33.2002]]],[[[129.8804,33.8432],[129.8212,33.7146],[129.5908,33.7146],[129.7267,33.8432],[129.8804,33.8432]]],[[[129.1065,34.1647],[129.1665,34.2933],[129.3974,34.2933],[129.3075,34.1004],[129.1065,34.1647]]],[[[129.2267,34.422],[129.2873,34.5506],[129.4415,34.5506],[129.4275,34.3577],[129.2267,34.422]]],[[[120.4735,36.0308],[120.241,36.0308],[120.3007,36.1596],[120.2231,36.1596],[120.3133,36.3528],[120.7015,36.3528],[120.6712,36.2884],[120.7488,36.2884],[120.6585,36.0952],[120.4735,36.0308]]],[[[128.6822,40.2906],[128.368,40.0317],[127.9346,39.967],[127.5833,39.7729],[127.6653,39.6436],[127.4414,39.2557],[127.7978,39.1911],[127.9234,38.9972],[128.3638,38.8034],[129.1002,37.5773],[129.2563,37.5773],[129.4748,37.2549],[129.4069,37.126],[129.5393,36.9326],[129.439,36.7393],[129.5167,36.7393],[129.4173,36.546],[129.495,36.546],[129.4214,36.0952],[129.5765,36.0952],[129.6669,35.9664],[129.5208,35.5158],[129.1471,35.0653],[128.5294,35.0653],[128.5451,34.9366],[128.8074,35.001],[128.6849,34.7436],[128.3297,34.8079],[128.3136,34.9366],[128.0821,34.9366],[128.0679,34.7436],[127.7595,34.7436],[127.3783,34.422],[127.2243,34.422],[127.1297,34.5506],[127.2968,34.7436],[127.2196,34.7436],[127.0229,34.4863],[126.6262,34.2933],[126.4246,34.3577],[126.4837,34.4863],[126.3476,34.3577],[126.1166,34.3577],[126.4784,34.8079],[126.1998,34.8723],[126.3812,35.2584],[126.3039,35.2584],[126.5192,35.7089],[126.7678,35.902],[126.6128,35.902],[126.6757,36.0308],[126.5206,36.0308],[126.4286,36.1596],[126.4516,36.6749],[126.2638,36.6105],[126.0498,36.8037],[126.3032,36.9971],[126.6475,37.0615],[126.7023,37.3193],[126.5352,37.4483],[126.6025,37.5773],[126.2459,37.6417],[126.3477,37.8352],[125.8449,37.7707],[125.8347,37.8998],[125.6783,37.8998],[125.3871,37.6417],[125.231,37.6417],[125.2981,37.7707],[125.2093,37.8998],[124.8967,37.8998],[125.0767,38.0933],[124.7637,38.0933],[124.8664,38.2869],[124.7881,38.2869],[124.9614,38.6097],[125.1533,38.6743],[125.1885,38.7389],[125.0316,38.7389],[125.39,39.385],[125.3057,39.5143],[124.8697,39.5789],[124.8646,39.7083],[124.5124,39.6436],[124.5072,39.7729],[124.3495,39.7729],[124.2657,39.9023],[124.57,40.2906],[126.1071,41.0032],[126.833,41.7816],[127.0722,41.7816],[127.1075,41.5869],[127.3848,41.522],[127.3437,41.4571],[128.0982,41.3922],[128.3436,41.6518],[128.2678,41.7816],[128.1084,41.7816],[128.1503,41.8465],[127.9908,41.8465],[128.0749,41.9764],[128.8355,42.0413],[129.1664,42.3012],[129.6963,42.4962],[129.8433,42.9515],[130.084,42.9515],[130.0397,42.8864],[130.2001,42.8864],[130.3002,42.5612],[130.5404,42.5612],[130.4965,42.4962],[130.6927,42.4312],[130.1558,42.1063],[129.6977,41.6518],[129.7774,41.6518],[129.7269,41.3274],[129.8822,41.1977],[129.7558,40.8736],[129.2378,40.6792],[129.0777,40.4201],[128.6822,40.2906]]],[[[117.6425,38.868],[117.2625,38.7389],[117.3615,38.9326],[117.709,38.9972],[117.6425,38.868]]],[[[121.0293,38.7389],[121.2007,39.0618],[121.5499,39.1265],[121.6901,39.385],[121.883,39.4496],[122.4342,39.4496],[121.9519,38.9972],[121.7162,38.9972],[121.4217,38.7389],[121.0293,38.7389]]],[[[117.1243,39.385],[117,39.385],[117,39.53],[117.1375,39.7083],[117.1031,39.6436],[117.1819,39.6436],[117.1477,39.5789],[117.2265,39.5789],[117.1243,39.385]]],[[[133.0996,36.1596],[133.2004,36.3528],[133.4333,36.3528],[133.3323,36.1596],[133.0996,36.1596]]],[[[136.7258,34.9366],[136.5954,34.6793],[136.7942,34.615],[136.9733,34.3577],[136.9093,34.229],[136.4475,34.229],[135.8117,33.3931],[135.4125,33.5217],[135.3511,33.7146],[135.0288,33.8432],[135.1534,34.1004],[135.0168,34.2933],[135.3429,34.4863],[135.4389,34.6793],[135.2076,34.6793],[134.9083,34.229],[134.7231,34.1647],[134.7065,33.9718],[134.7834,33.9718],[134.6599,33.7146],[134.3684,33.5859],[134.2174,33.2645],[133.9874,33.2645],[133.8473,33.4574],[133.5404,33.4574],[133.1613,33.1359],[133.0334,32.6859],[132.6797,32.7502],[132.6611,32.8788],[132.4314,32.8788],[132.4423,33.0716],[132.3657,33.0716],[132.4539,33.2645],[132.3006,33.2645],[132.3598,33.3931],[132.0233,33.3288],[132.0826,33.4574],[132.556,33.6502],[132.8765,34.1647],[133.0304,34.1647],[133.1227,34.0361],[133.5072,34.0361],[133.6312,34.2933],[134.2328,34.422],[134.2014,34.3577],[134.6319,34.2933],[134.9444,34.615],[134.4686,34.7436],[133.2463,34.2933],[132.3226,34.2933],[132.1856,33.8432],[131.9085,33.9075],[131.9388,33.9718],[131.0931,33.9718],[131.0971,33.6502],[131.8181,33.7146],[131.6399,33.3288],[132.0885,33.1359],[132.001,32.943],[132.0776,32.943],[131.7807,32.6216],[131.5504,32],[130.1358,32],[130.2089,32.1717],[130.5211,32.3645],[130.5654,32.8145],[130.4408,32.8788],[130.3274,32.6216],[130.0979,32.6216],[130.1543,32.7502],[130.0013,32.7502],[129.792,32.6216],[129.6952,32.7502],[129.7518,32.8788],[129.627,32.943],[129.6841,33.0716],[129.5595,33.1359],[129.617,33.2645],[129.5403,33.2645],[129.5982,33.3931],[129.8283,33.3931],[129.916,33.5859],[130.3293,33.6502],[130.4183,33.8432],[130.8624,33.9718],[130.8761,34.1647],[130.7992,34.1647],[130.9211,34.422],[131.414,34.4863],[131.4759,34.615],[132.5634,35.2584],[132.6925,35.5158],[132.9572,35.5802],[133.4661,35.5158],[135.3788,35.7733],[135.2786,35.5802],[135.7095,35.5158],[136.0758,35.7733],[135.9109,35.902],[136.0039,36.224],[136.4529,36.4816],[136.7063,36.8037],[136.5795,36.9971],[136.6511,37.126],[136.5732,37.126],[136.7178,37.3838],[137,37.467],[137,37.1385],[136.9627,37.126],[137,37.0962],[137,34.7436],[136.9363,34.7436],[136.7258,34.9366]]]]}},{"type":"Feature","properties":{"id":"cap-hanyang","layer":"site","nameEn":"Hanyang / Seoul","nameKo":"한양/서울","category":"도읍","role":"korean","startYear":1394,"endYear":2026,"confidence":"high","license":"original (authored)","wikipedia":null,"wikidata":null,"sources":["GK"],"uiDefault":false,"label":null,"note":"조선 도읍(1394)~현재 대한민국 수도. 일제강점기(1910~1945)에는 경성으로 불림.","source":"korea"},"geometry":{"type":"Point","coordinates":[126.98,37.57]}},{"type":"Feature","properties":{"id":"stele-bukhansan","layer":"site","nameEn":"Bukhansan Monument (Jinheung)","nameKo":"북한산 순수비","category":"영역 증거(순수비)","role":"korean","startYear":555,"endYear":2026,"confidence":"medium","license":"original (authored)","wikipedia":null,"wikidata":null,"sources":["KOWIKI_SILLA","GK"],"uiDefault":false,"label":null,"note":"진흥왕 한강 유역 진출(553) 이후의 순수비로 알려짐(연도 근사).","source":"korea"},"geometry":{"type":"Point","coordinates":[126.96,37.62]}},{"type":"Feature","properties":{"id":"stele-changnyeong","layer":"site","nameEn":"Changnyeong Monument (Jinheung)","nameKo":"창녕 순수비","category":"영역 증거(순수비)","role":"korean","startYear":561,"endYear":2026,"confidence":"medium","license":"original (authored)","wikipedia":null,"wikidata":null,"sources":["KOWIKI_SILLA","GK"],"uiDefault":false,"label":null,"note":"가야 방면 진출 관련 순수비로 알려짐(연도 근사).","source":"korea"},"geometry":{"type":"Point","coordinates":[128.49,35.54]}},{"type":"Feature","properties":{"id":"stele-hwangchoryeong","layer":"site","nameEn":"Hwangchoryeong Monument (Jinheung)","nameKo":"황초령 순수비","category":"영역 증거(순수비)","role":"korean","startYear":568,"endYear":2026,"confidence":"low","license":"original (authored)","wikipedia":null,"wikidata":null,"sources":["KOWIKI_SILLA","GK"],"uiDefault":false,"label":null,"note":"함경도 방면 진출을 보여 주는 순수비로 알려짐. 좌표는 지명 기준 개략.","source":"korea"},"geometry":{"type":"Point","coordinates":[127.45,40.25]}},{"type":"Feature","properties":{"id":"stele-maunryeong","layer":"site","nameEn":"Maunryeong Monument (Jinheung)","nameKo":"마운령 순수비","category":"영역 증거(순수비)","role":"korean","startYear":568,"endYear":2026,"confidence":"low","license":"original (authored)","wikipedia":null,"wikidata":null,"sources":["KOWIKI_SILLA","GK"],"uiDefault":false,"label":null,"note":"함경도 방면 진출을 보여 주는 순수비로 알려짐. 좌표는 지명 기준 개략.","source":"korea"},"geometry":{"type":"Point","coordinates":[128.4,40.35]}},{"type":"Feature","properties":{"id":"isl-dokdo","layer":"site","nameEn":"Dokdo (Liancourt Rocks)","nameKo":"독도","category":"국경·경계","role":"korean","startYear":1900,"endYear":2026,"confidence":"high","license":"original (authored)","wikipedia":null,"wikidata":null,"sources":["KOWIKI_DOKDO"],"uiDefault":false,"label":null,"note":"동도·서도 포함 91개 크고 작은 섬(위키 정리). 1900년 칙령 41호는 독도를 울릉도의 부속 섬으로 규정. 현재 대한민국이 실효 지배, 일본 정부가 영유권 주장. 1454 세종실록지리지 등 그 이전 기록도 언급됨. 이 파일은 사실 서술만 하고 귀속 판단을 하지 않음.","source":"korea"},"geometry":{"type":"Point","coordinates":[131.8696,37.2408]}},{"type":"Feature","properties":{"id":"isl-ulleung","layer":"site","nameEn":"Ulleungdo","nameKo":"울릉도","category":"국경·경계","role":"korean","startYear":512,"endYear":2026,"confidence":"medium","license":"original (authored)","wikipedia":null,"wikidata":null,"sources":["GK","KOWIKI_DOKDO"],"uiDefault":false,"label":null,"note":"신라 이사부의 우산국 복속(512)은 위키 정리 본문에는 명시가 없어 작성자 일반 지식으로 표기. 재검증 필요.","source":"korea"},"geometry":{"type":"Point","coordinates":[130.87,37.5]}},{"type":"Feature","properties":{"id":"gr-gwanggaeto-stele","layer":"site","nameEn":"Gwanggaeto Stele (Ji'an)","nameKo":"광개토왕릉비(집안)","category":"고구려 성·유적","role":"korean","startYear":414,"endYear":2026,"confidence":"high","license":"original (authored)","wikipedia":null,"wikidata":null,"sources":["RESEARCH_V02"],"uiDefault":false,"label":null,"note":"414년 장수왕이 건립. 395~410년 원정의 동시대 기록. 신묘년 조 해석은 논쟁.","source":"korea"},"geometry":{"type":"Point","coordinates":[126.2142,41.1447]}}]}