{"type":"FeatureCollection","properties":{"year":-2000,"source":"korea","fillHint":"layer in polity|polity_prehistory|hypothesis; prefer uiDefault"},"features":[{"type":"Feature","properties":{"id":"hbm-koreans-2000bc","layer":"polity_prehistory","nameEn":"Koreans (2000 BC snapshot)","nameKo":"한민족 원류(basemaps, BC 2000 스냅샷)","category":"선사·문화권(basemaps)","role":"korean","startYear":-2000,"endYear":-1501,"confidence":"speculative","license":"GPL-3.0 (historical-basemaps) — 이 폴리곤을 포함한 결과물 재배포 시 GPL 조건 검토 필요","wikipedia":null,"wikidata":null,"sources":["HBM"],"uiDefault":true,"label":[126.304,39.433],"note":"매우 거친 문화권 폴리곤(117~131°E)으로 베이징 인근까지 걸침. 참고용.","source":"korea"},"geometry":{"type":"MultiPolygon","coordinates":[[[[130.8188,37.4678],[130.8075,37.5183],[130.9194,37.5453],[130.9208,37.4767],[130.8686,37.4508],[130.8188,37.4678]]],[[[129.8848,41.9022],[129.6413,41.6558],[129.5907,41.4699],[129.6311,41.2778],[129.4778,40.682],[129.177,40.6302],[128.4466,40.0659],[128.2362,39.9696],[127.9313,39.9562],[127.6715,39.8664],[127.4408,39.6237],[127.2769,39.2217],[127.4046,39.0753],[127.956,38.6941],[128.2696,38.4205],[128.3077,38.4886],[128.3036,38.5839],[128.3636,38.6252],[128.6344,38.1255],[129.063,37.6689],[129.0664,37.6244],[129.3425,37.2572],[129.3625,37.15],[129.4336,37.0589],[129.4161,36.9422],[129.473,36.7103],[129.4169,36.6167],[129.4505,36.5005],[129.438,36.4003],[129.3819,36.3144],[129.3869,36.036],[129.4572,35.993],[129.5573,36.0788],[129.5883,36.0193],[129.4648,35.6446],[129.4394,35.4758],[129.2811,35.3008],[129.2375,35.1899],[129.1369,35.1122],[128.9786,35.085],[128.9739,35.1348],[128.925,35.0908],[128.8105,35.0842],[128.5728,35.17],[128.378,35.0361],[128.3725,35.0047],[128.4772,35.0539],[128.5014,35.0083],[128.435,34.8347],[128.3355,34.8714],[128.3566,34.9053],[128.3291,34.9494],[128.2161,34.9305],[128.2039,34.8883],[128.0667,34.9244],[128.0205,34.9864],[127.8639,34.9403],[127.7674,34.9603],[127.6431,34.9008],[127.5933,34.9417],[127.5764,34.8869],[127.6386,34.8142],[127.7736,34.8439],[127.7478,34.7275],[127.6408,34.6169],[127.5564,34.6514],[127.5678,34.7667],[127.5225,34.8569],[127.4939,34.8517],[127.3639,34.7514],[127.5144,34.5914],[127.3894,34.4711],[127.3153,34.4436],[127.2436,34.5114],[127.1247,34.5372],[127.2017,34.633],[127.1927,34.5694],[127.2422,34.5694],[127.3286,34.6522],[127.3528,34.6928],[127.3286,34.743],[127.0097,34.6022],[126.9855,34.5264],[126.8894,34.4125],[126.8117,34.4455],[126.8028,34.5694],[126.7725,34.5828],[126.5941,34.2994],[126.4783,34.3453],[126.4633,34.4847],[126.2883,34.5903],[126.2653,34.6708],[126.2969,34.7511],[126.4517,34.578],[126.4514,34.6483],[126.5289,34.6142],[126.6202,34.6242],[126.4769,34.725],[126.6597,34.8128],[126.5908,34.8775],[126.54,34.873],[126.5105,34.7756],[126.3758,34.7856],[126.4336,34.9636],[126.3439,34.9175],[126.318,34.9322],[126.2492,35.1167],[126.345,35.1517],[126.3597,35.0692],[126.4314,35.0233],[126.4589,35.0905],[126.3605,35.1803],[126.4219,35.4067],[126.523,35.525],[126.6878,35.5333],[126.665,35.5917],[126.4986,35.578],[126.4747,35.6358],[126.7519,35.7783],[126.8011,35.8617],[126.7883,35.8947],[126.6153,35.8908],[126.6317,35.9672],[126.7619,35.9953],[126.873,36.0547],[126.6853,36],[126.5444,36.1364],[126.4644,36.5747],[126.5272,36.5928],[126.4972,36.7239],[126.3475,36.74],[126.3036,36.6928],[126.3369,36.6455],[126.2931,36.5819],[126.2728,36.7175],[126.1728,36.6728],[126.1236,36.7092],[126.1289,36.7517],[126.1917,36.8199],[126.1844,36.8783],[126.2911,36.9625],[126.3217,36.8844],[126.2894,36.7858],[126.4011,36.8519],[126.4136,36.9333],[126.3483,36.9525],[126.3558,36.9964],[126.4425,36.9997],[126.4833,36.8425],[126.5142,36.9414],[126.5025,37.0528],[126.62,36.9728],[126.7811,36.9636],[126.8306,36.8942],[126.8386,36.7533],[127.0002,36.9297],[126.908,36.9194],[126.7528,37.0486],[126.7764,37.1236],[126.8653,37.1408],[126.8691,37.1764],[126.77,37.1742],[126.6944,37.1217],[126.6611,37.1561],[126.6619,37.2539],[126.7661,37.2319],[126.8658,37.2669],[126.8433,37.3083],[126.7222,37.328],[126.7419,37.3868],[126.6564,37.4111],[126.6219,37.4814],[126.6744,37.488],[126.6589,37.555],[126.55,37.6425],[126.5328,37.7625],[126.5394,37.6278],[126.5139,37.5972],[126.3975,37.5989],[126.2097,37.7541],[126.0525,37.6009],[125.909,37.5115],[125.7412,37.785],[125.5617,37.8355],[125.2694,37.4847],[125.1816,37.6564],[125.077,37.7709],[124.7697,37.9359],[124.6937,38.1395],[124.7362,38.2798],[124.9294,38.4649],[125.2686,38.5676],[125.2937,38.6887],[125.0279,38.8156],[125.2961,39.3643],[125.2065,39.4853],[124.9223,39.6186],[124.6884,39.6054],[124.5481,39.5413],[124.4428,39.573],[124.209,39.7383],[124.1041,39.8848],[123.9165,39.8079],[123.3664,39.7494],[123.0391,39.6722],[122.0275,39.2558],[121.7432,39.0894],[121.4884,38.8786],[121.2165,38.757],[121.0653,38.7503],[121.1237,38.8651],[121.5118,39.1719],[121.6602,39.3315],[121.449,39.3821],[121.2822,39.3499],[121.2133,39.4836],[121.2394,39.5538],[121.6681,39.9054],[121.789,40.0781],[122.0365,40.264],[122.1079,40.3537],[122.0824,40.488],[121.7536,40.737],[121.4267,40.8643],[121.0106,40.8507],[120.7884,40.6838],[120.2727,40.1518],[120.1127,40.0811],[119.8238,40.0422],[119.3855,39.8434],[119.2107,39.639],[119.0906,39.3391],[118.9776,39.2241],[118.7813,39.1664],[118.5593,39.1723],[118.5058,39.1281],[117,40.0697],[117,44.5801],[128.3659,44.3668],[129.8848,41.9022]]],[[[128.6855,34.7242],[128.5883,34.6994],[128.6008,34.8306],[128.5261,34.8058],[128.4944,34.8803],[128.7111,34.9767],[128.7544,34.8828],[128.7419,34.7817],[128.6855,34.7242]]],[[[127.9742,34.8583],[128.0241,34.9139],[128.0858,34.8303],[127.9742,34.8583]]],[[[128.0733,34.8047],[128.0608,34.7011],[127.8572,34.7239],[127.8222,34.843],[127.88,34.9294],[127.9339,34.9161],[127.9103,34.8419],[127.968,34.8],[128.0733,34.8047]]],[[[127.7344,34.6133],[127.7681,34.6642],[127.8122,34.6414],[127.7931,34.5733],[127.7344,34.6133]]],[[[127.7161,34.5172],[127.7119,34.5267],[127.7708,34.5383],[127.7808,34.4747],[127.7161,34.5172]]],[[[127.1158,34.4344],[127.1258,34.4717],[127.2436,34.4705],[127.2194,34.4205],[127.1158,34.4344]]],[[[126.3406,33.2272],[126.2664,33.1908],[126.1705,33.2625],[126.1583,33.3147],[126.2703,33.4228],[126.378,33.4747],[126.7931,33.5508],[126.898,33.5233],[126.9367,33.4244],[126.8475,33.3117],[126.5869,33.2314],[126.3406,33.2272]]],[[[126.648,34.3203],[126.6639,34.3825],[126.7308,34.3639],[126.775,34.2869],[126.648,34.3203]]],[[[126.3358,36.4386],[126.325,36.5655],[126.3528,36.5928],[126.3786,36.5861],[126.4339,36.4108],[126.3822,36.4028],[126.3358,36.4386]]],[[[126.1125,34.3789],[126.0997,34.4192],[126.2433,34.5733],[126.3803,34.4947],[126.3425,34.4014],[126.1719,34.3519],[126.1125,34.3789]]],[[[126.1611,36.838],[126.1724,36.8368],[126.1694,36.8258],[126.1611,36.838]]],[[[126.0561,35.0594],[126.06,35.0908],[126.1622,35.1433],[126.1444,35.0803],[126.093,35.0472],[126.0561,35.0594]]],[[[126.0628,34.9283],[126.0944,34.9097],[126.0742,34.8592],[125.993,34.8583],[126.0628,34.9283]]],[[[126.0092,34.76],[125.9453,34.7547],[125.9322,34.7183],[125.8905,34.728],[125.898,34.7672],[126.0008,34.7919],[126.0092,34.76]]],[[[125.915,34.6922],[125.9814,34.7169],[126.0086,34.6914],[125.9636,34.6486],[125.915,34.6922]]],[[[124.6239,37.9742],[124.718,37.9836],[124.7455,37.96],[124.7014,37.9181],[124.6433,37.9158],[124.6239,37.9742]]]]}},{"type":"Feature","properties":{"id":"neo-amsa","layer":"site","nameEn":"Amsa-dong","nameKo":"암사동 유적(서울)","category":"선사·신석기","role":"korean","startYear":-8000,"endYear":-1500,"confidence":"high","license":"original (authored)","wikipedia":null,"wikidata":null,"sources":["GK","ENWIKI_JEULMUN"],"uiDefault":false,"label":null,"note":"빗살무늬토기(즐문토기) 문화의 대표 취락 유적.","source":"korea"},"geometry":{"type":"Point","coordinates":[127.13,37.55]}},{"type":"Feature","properties":{"id":"neo-dongsam","layer":"site","nameEn":"Dongsam-dong","nameKo":"동삼동 패총(부산)","category":"선사·신석기","role":"korean","startYear":-8000,"endYear":-1500,"confidence":"medium","license":"original (authored)","wikipedia":null,"wikidata":null,"sources":["GK","ENWIKI_JEULMUN"],"uiDefault":false,"label":null,"note":"남해안 패총 유적. 조·기장 재배 증거가 언급됨.","source":"korea"},"geometry":{"type":"Point","coordinates":[129.08,35.06]}},{"type":"Feature","properties":{"id":"neo-osan","layer":"site","nameEn":"Osan-ri","nameKo":"오산리 유적(양양)","category":"선사·신석기","role":"korean","startYear":-8000,"endYear":-1500,"confidence":"medium","license":"original (authored)","wikipedia":null,"wikidata":null,"sources":["GK","ENWIKI_JEULMUN"],"uiDefault":false,"label":null,"note":"동해안 초기 신석기 유적.","source":"korea"},"geometry":{"type":"Point","coordinates":[128.62,38.04]}},{"type":"Feature","properties":{"id":"neo-seopohang","layer":"site","nameEn":"Seopohang","nameKo":"서포항 유적(함북 선봉)","category":"선사·신석기","role":"korean","startYear":-8000,"endYear":-1500,"confidence":"low","license":"original (authored)","wikipedia":null,"wikidata":null,"sources":["GK","ENWIKI_JEULMUN"],"uiDefault":false,"label":null,"note":"동북 지역 신석기 유적.","source":"korea"},"geometry":{"type":"Point","coordinates":[130.36,42.31]}},{"type":"Feature","properties":{"id":"cul-jeulmun","layer":"hypothesis","nameEn":"Jeulmun pottery culture (schematic)","nameKo":"빗살무늬토기(즐문토기) 문화권(개략)","category":"선사·문화권","role":"korean","startYear":-8000,"endYear":-1500,"confidence":"low","license":"original (authored)","wikipedia":null,"wikidata":null,"sources":["ENWIKI_JEULMUN"],"uiDefault":true,"label":[127.002,38.649],"note":"한반도 전역에 분포하되 지역차(서해안·남해안 중심의 고전형, 동북 지역 별도 양상)가 있다고 정리됨. 정확한 경계선이 아니라 '대략 이 일대'를 보이는 도식.","source":"korea"},"geometry":{"type":"MultiPolygon","coordinates":[[[[130.9,43],[130.9,42.6541],[130.8487,42.6608],[130.7875,42.654],[130.8307,42.6743],[130.8379,42.6912],[130.8271,42.6996],[130.7695,42.681],[130.7443,42.681],[130.7191,42.6996],[130.6579,42.6642],[130.6615,42.6439],[130.6831,42.6439],[130.7335,42.6152],[130.7299,42.5797],[130.7623,42.6],[130.7731,42.5966],[130.7839,42.5797],[130.8415,42.5578],[130.8739,42.5274],[130.8703,42.5172],[130.8595,42.524],[130.8415,42.5189],[130.8451,42.4868],[130.8379,42.4717],[130.7875,42.4615],[130.7803,42.4531],[130.7443,42.3535],[130.7047,42.296],[130.5967,42.2623],[130.5967,42.2977],[130.5679,42.3146],[130.5391,42.318],[130.5103,42.3366],[130.4671,42.3349],[130.4707,42.3214],[130.4563,42.3112],[130.4383,42.3095],[130.4203,42.3247],[130.4059,42.3247],[130.4059,42.3079],[130.3843,42.291],[130.3915,42.264],[130.4059,42.2606],[130.4023,42.242],[130.3771,42.2572],[130.3663,42.2555],[130.3591,42.2437],[130.3699,42.2319],[130.3519,42.2167],[130.3339,42.2133],[130.3303,42.1913],[130.3087,42.1829],[130.3159,42.2184],[130.3087,42.2369],[130.2943,42.2369],[130.2295,42.1829],[130.2007,42.1728],[130.2007,42.1019],[130.1755,42.0985],[130.1611,42.085],[130.1683,42.0765],[130.1503,42.0748],[130.1215,42.09],[130.0927,42.09],[130.0747,42.0782],[130.0675,42.0512],[130.0531,42.0512],[130.0351,42.0124],[130.0351,41.9955],[130.0279,41.9921],[130.0135,42.014],[130.0027,42.0107],[130.0027,41.9904],[129.9811,41.982],[130.0027,41.9617],[129.9739,41.9414],[129.9631,41.8992],[129.9451,41.8942],[129.9379,41.9043],[129.9127,41.911],[129.8983,41.9043],[129.8839,41.857],[129.8839,41.8249],[129.8515,41.7641],[129.8443,41.7591],[129.8263,41.7776],[129.8119,41.7776],[129.7759,41.7591],[129.7507,41.6966],[129.6895,41.6493],[129.6679,41.5767],[129.6499,41.5497],[129.6607,41.526],[129.6535,41.494],[129.6607,41.4653],[129.7003,41.4281],[129.7147,41.4197],[129.7363,41.4214],[129.7579,41.3927],[129.7975,41.3859],[129.8047,41.3758],[129.7867,41.3251],[129.7687,41.315],[129.7579,41.293],[129.7111,41.1225],[129.7291,41.0853],[129.7183,41.0566],[129.7291,40.979],[129.7651,40.9452],[129.7543,40.9384],[129.7543,40.9097],[129.7327,40.8911],[129.7363,40.8709],[129.7183,40.8354],[129.6967,40.8456],[129.6643,40.8388],[129.5707,40.8405],[129.5527,40.8287],[129.5527,40.8101],[129.5059,40.7915],[129.4771,40.7932],[129.4267,40.7814],[129.3511,40.7459],[129.3043,40.6733],[129.2863,40.6834],[129.2719,40.7088],[129.2323,40.7054],[129.2107,40.6851],[129.1963,40.6379],[129.1747,40.6041],[129.1711,40.5686],[129.1603,40.5652],[129.0775,40.4724],[129.0307,40.4741],[128.9767,40.4606],[128.8615,40.3711],[128.8291,40.3677],[128.8147,40.3542],[128.7643,40.3457],[128.7535,40.3356],[128.7211,40.339],[128.6887,40.3305],[128.6707,40.3103],[128.6563,40.3103],[128.6563,40.3204],[128.6383,40.3137],[128.6203,40.2968],[128.6167,40.2714],[128.6563,40.2579],[128.6671,40.241],[128.6635,40.2005],[128.6275,40.1803],[128.5879,40.187],[128.5447,40.1667],[128.5267,40.1431],[128.5087,40.1347],[128.4799,40.1347],[128.4367,40.1043],[128.4115,40.0958],[128.3647,40.0975],[128.3395,40.0671],[128.3287,40.0283],[128.3035,40.0333],[128.2819,40.0654],[128.2639,40.0772],[128.2351,40.0671],[128.2279,40.057],[128.2351,40.03],[128.1919,40.03],[128.1559,40.0165],[128.1379,40.0266],[128.0083,40.0452],[127.9975,40.0198],[127.9651,40.0046],[127.9399,39.9742],[127.9075,39.9844],[127.8895,39.9607],[127.8823,39.9016],[127.8751,39.8932],[127.7815,39.8848],[127.7959,39.8763],[127.7923,39.8662],[127.7635,39.8544],[127.7275,39.8577],[127.6951,39.8476],[127.6807,39.8172],[127.6627,39.8071],[127.6231,39.8307],[127.6087,39.8105],[127.5619,39.7834],[127.5511,39.7615],[127.5223,39.7463],[127.5007,39.7075],[127.5115,39.65],[127.5511,39.6365],[127.5691,39.618],[127.5763,39.5943],[127.5367,39.5521],[127.5187,39.5099],[127.5619,39.3444],[127.5619,39.3157],[127.5439,39.3022],[127.5223,39.3157],[127.5259,39.3444],[127.5439,39.3714],[127.4935,39.4339],[127.4683,39.4305],[127.4251,39.3917],[127.3783,39.3782],[127.3891,39.3664],[127.4251,39.3579],[127.4539,39.368],[127.4683,39.3647],[127.4719,39.3478],[127.4683,39.3393],[127.4251,39.3309],[127.4143,39.341],[127.3927,39.341],[127.3999,39.3241],[127.3711,39.2397],[127.3927,39.2026],[127.4539,39.1654],[127.4719,39.1688],[127.4719,39.1941],[127.4899,39.1941],[127.5115,39.157],[127.5331,39.1468],[127.6087,39.1519],[127.6303,39.1468],[127.6627,39.1215],[127.7599,39.1164],[127.8247,39.0438],[127.8499,39.0016],[127.8859,38.9746],[127.8895,38.9611],[127.9147,38.9645],[127.9255,38.9341],[127.9615,38.9172],[128.0155,38.8581],[128.0911,38.8429],[128.2099,38.7281],[128.2819,38.7551],[128.3215,38.7112],[128.3467,38.696],[128.3611,38.6791],[128.3647,38.6251],[128.4403,38.5052],[128.4727,38.4258],[128.5627,38.289],[128.6419,38.1286],[128.6779,38.0949],[128.6923,38.0645],[128.9227,37.8027],[129.0631,37.6795],[129.0739,37.6136],[129.1099,37.5967],[129.1603,37.487],[129.1891,37.4701],[129.2719,37.3553],[129.2827,37.3249],[129.3295,37.2827],[129.3475,37.2472],[129.3619,37.1712],[129.3799,37.1307],[129.4303,37.0733],[129.4339,37.0615],[129.4123,37.0175],[129.4375,36.8554],[129.4699,36.7727],[129.4735,36.7305],[129.4627,36.6917],[129.4231,36.6174],[129.4483,36.4941],[129.4411,36.408],[129.4339,36.3894],[129.3907,36.3421],[129.3871,36.3235],[129.3835,36.202],[129.3907,36.1766],[129.4051,36.1682],[129.4159,36.1074],[129.4303,36.0973],[129.4195,36.0736],[129.3979,36.0669],[129.3799,36.0416],[129.4339,35.996],[129.4519,35.9926],[129.4807,36.0095],[129.5563,36.0821],[129.5707,36.0719],[129.5887,36.0162],[129.5347,35.9385],[129.5239,35.844],[129.4951,35.7849],[129.4987,35.7477],[129.4447,35.6363],[129.4663,35.5991],[129.4555,35.513],[129.4123,35.4725],[129.4015,35.513],[129.3871,35.5299],[129.3727,35.5333],[129.3655,35.513],[129.3871,35.5029],[129.3907,35.4759],[129.3871,35.4624],[129.3583,35.4522],[129.3655,35.4066],[129.3475,35.383],[129.3619,35.3678],[129.3619,35.3543],[129.3223,35.3391],[129.2935,35.3155],[129.2683,35.3172],[129.2503,35.2665],[129.2575,35.2462],[129.2287,35.2006],[129.1927,35.155],[129.1207,35.15],[129.1279,35.1263],[129.1243,35.101],[129.1027,35.0926],[129.0631,35.1213],[129.0379,35.0976],[129.0235,35.0605],[129.0127,35.0554],[128.9983,35.0757],[129.0019,35.0453],[128.9839,35.0537],[128.9659,35.0436],[128.9587,35.0504],[128.9515,35.0723],[128.9623,35.1196],[128.9587,35.1365],[128.9191,35.0824],[128.9047,35.0807],[128.9047,35.1213],[128.8975,35.1213],[128.8831,35.0807],[128.7931,35.0824],[128.7823,35.1111],[128.7715,35.0841],[128.7607,35.0791],[128.7391,35.0875],[128.7283,35.1044],[128.6995,35.0959],[128.6959,35.1432],[128.6815,35.1314],[128.6815,35.1162],[128.6383,35.15],[128.6167,35.1432],[128.6239,35.1567],[128.6131,35.177],[128.6095,35.2108],[128.6023,35.2141],[128.5771,35.1888],[128.5771,35.1787],[128.6023,35.1213],[128.6275,35.0909],[128.6311,35.0807],[128.6239,35.0689],[128.6527,35.0622],[128.6023,35.0571],[128.5879,35.0841],[128.5123,35.1044],[128.4691,35.0959],[128.4799,35.0757],[128.3899,35.0487],[128.3827,35.0368],[128.3719,35.0065],[128.4727,35.0504],[128.4871,35.0504],[128.4979,35.02],[128.4907,34.9963],[128.4799,34.9896],[128.4259,34.9929],[128.4187,34.9828],[128.4403,34.9659],[128.4331,34.8899],[128.4439,34.8832],[128.4619,34.9034],[128.4727,34.8899],[128.4367,34.8427],[128.4115,34.8376],[128.3827,34.8393],[128.3827,34.8545],[128.4115,34.8562],[128.4151,34.8629],[128.3539,34.868],[128.3251,34.8883],[128.3251,34.8967],[128.3575,34.9102],[128.3359,34.9474],[128.3179,34.9338],[128.3035,34.9085],[128.2783,34.9068],[128.2567,34.9305],[128.2243,34.9372],[128.2135,34.9322],[128.2063,34.8899],[128.1379,34.8916],[128.1199,34.9001],[128.1163,34.9237],[128.0551,34.9322],[128.0551,35.047],[128.0695,35.0824],[128.0263,35.0352],[128.0011,35.0335],[128.0191,34.998],[128.0083,34.9913],[127.9795,34.9929],[127.9543,34.9794],[127.9255,35.02],[127.9111,34.9625],[127.8895,34.9474],[127.8643,34.944],[127.8427,34.9507],[127.8319,34.944],[127.7995,34.9592],[127.7563,34.9575],[127.7383,34.9659],[127.7203,34.9896],[127.7203,34.9659],[127.7095,34.9406],[127.6627,34.9068],[127.6411,34.8984],[127.6087,34.9406],[127.5907,34.9457],[127.5799,34.9338],[127.5763,34.8967],[127.6015,34.8562],[127.6447,34.8156],[127.6699,34.819],[127.6987,34.8427],[127.7563,34.841],[127.7743,34.8494],[127.7743,34.8292],[127.7419,34.7261],[127.7059,34.716],[127.6555,34.7312],[127.6375,34.6974],[127.6231,34.6974],[127.6375,34.6704],[127.6411,34.6181],[127.6123,34.6367],[127.5727,34.6468],[127.5619,34.662],[127.5547,34.6839],[127.5835,34.7464],[127.5547,34.8004],[127.5367,34.8089],[127.5403,34.8224],[127.5223,34.8595],[127.5295,34.8798],[127.5151,34.8916],[127.4827,34.8393],[127.4431,34.8292],[127.3639,34.8241],[127.4251,34.8004],[127.4251,34.7937],[127.3603,34.7734],[127.3567,34.7599],[127.3675,34.7532],[127.3963,34.7565],[127.4035,34.7464],[127.3927,34.7397],[127.4071,34.7008],[127.4647,34.662],[127.4863,34.6367],[127.4539,34.6367],[127.4935,34.6231],[127.5043,34.5911],[127.4827,34.5759],[127.4539,34.5742],[127.3927,34.6012],[127.3495,34.586],[127.3423,34.5776],[127.3567,34.5539],[127.3819,34.5472],[127.4179,34.5556],[127.4395,34.5404],[127.3747,34.4847],[127.3567,34.4914],[127.3279,34.4746],[127.3315,34.456],[127.3423,34.4458],[127.3171,34.4442],[127.2235,34.5472],[127.1731,34.5269],[127.1803,34.5134],[127.1335,34.5269],[127.1263,34.5404],[127.1227,34.5556],[127.1587,34.5792],[127.1983,34.6316],[127.2127,34.6367],[127.2091,34.6046],[127.1947,34.5742],[127.2451,34.5843],[127.2631,34.6012],[127.2559,34.6417],[127.2415,34.6552],[127.2415,34.6704],[127.2739,34.7059],[127.2919,34.6941],[127.2883,34.6772],[127.3027,34.6552],[127.3135,34.6519],[127.3315,34.6569],[127.3567,34.6974],[127.3315,34.7413],[127.2919,34.7211],[127.2487,34.7667],[127.1983,34.6907],[127.1371,34.6873],[127.1083,34.6603],[127.0111,34.613],[127.0075,34.5809],[126.9859,34.5539],[126.9931,34.5404],[126.9391,34.4965],[126.9391,34.4543],[126.9319,34.4475],[126.9031,34.4594],[126.8923,34.4408],[126.8995,34.4171],[126.8095,34.4509],[126.8023,34.4712],[126.8059,34.5691],[126.7879,34.5894],[126.7771,34.586],[126.7555,34.5573],[126.7663,34.5235],[126.7339,34.5151],[126.7627,34.4796],[126.7087,34.4492],[126.7267,34.4425],[126.7267,34.4323],[126.6907,34.4357],[126.6835,34.4138],[126.6331,34.3952],[126.6043,34.3209],[126.6043,34.3006],[126.5791,34.304],[126.5215,34.2939],[126.5287,34.3412],[126.4783,34.3496],[126.4891,34.38],[126.4999,34.3817],[126.5179,34.4138],[126.5143,34.4239],[126.4747,34.434],[126.4855,34.4695],[126.4819,34.4762],[126.4675,34.4729],[126.4711,34.4965],[126.4891,34.5083],[126.5431,34.5134],[126.5143,34.5337],[126.5395,34.5539],[126.5395,34.5624],[126.5215,34.5674],[126.5071,34.5539],[126.4783,34.5607],[126.4675,34.5404],[126.3919,34.5337],[126.3811,34.559],[126.3559,34.5691],[126.3451,34.5843],[126.3415,34.5742],[126.3235,34.5691],[126.2947,34.5894],[126.2911,34.5995],[126.3019,34.6096],[126.3055,34.6046],[126.3235,34.6096],[126.3199,34.6198],[126.2695,34.6417],[126.2695,34.6721],[126.2911,34.7498],[126.3199,34.7481],[126.3559,34.6974],[126.3451,34.667],[126.3703,34.6096],[126.4639,34.5843],[126.4711,34.6012],[126.4351,34.6063],[126.4135,34.6299],[126.4171,34.6535],[126.3847,34.6367],[126.3775,34.6789],[126.3847,34.6941],[126.3775,34.711],[126.4495,34.7059],[126.4531,34.6704],[126.5359,34.6231],[126.5395,34.6282],[126.5179,34.6502],[126.5323,34.6519],[126.6043,34.6248],[126.6223,34.6299],[126.5863,34.6417],[126.5539,34.6637],[126.5611,34.6704],[126.4891,34.7261],[126.4351,34.7278],[126.4171,34.7397],[126.3919,34.7329],[126.3667,34.7397],[126.3631,34.7498],[126.3919,34.7684],[126.4207,34.765],[126.4603,34.7785],[126.5071,34.7515],[126.5359,34.7464],[126.5323,34.7836],[126.5431,34.7954],[126.5683,34.8004],[126.6367,34.7886],[126.6295,34.8004],[126.6655,34.8089],[126.6511,34.8224],[126.6295,34.8258],[126.5755,34.8224],[126.5755,34.8545],[126.5899,34.8832],[126.5827,34.8984],[126.5683,34.9018],[126.5431,34.8832],[126.5395,34.8747],[126.5503,34.8494],[126.5143,34.7819],[126.4927,34.7802],[126.4855,34.7869],[126.4999,34.8089],[126.4855,34.814],[126.4567,34.8004],[126.4279,34.8055],[126.4207,34.792],[126.3739,34.7903],[126.3703,34.8021],[126.4063,34.8376],[126.4099,34.8747],[126.4243,34.8899],[126.4027,34.9153],[126.3955,34.9355],[126.3991,34.9507],[126.4351,34.9811],[126.3991,34.9845],[126.3703,34.9693],[126.3775,34.9372],[126.3631,34.9271],[126.3163,34.9372],[126.3307,34.944],[126.3019,34.9727],[126.3127,34.9777],[126.3487,34.9727],[126.3451,34.9946],[126.3739,35.0166],[126.3667,35.0385],[126.3379,35.0706],[126.3019,35.0892],[126.3091,35.0656],[126.3019,35.0537],[126.2875,35.0537],[126.2731,35.0689],[126.2839,35.0791],[126.2587,35.1061],[126.2551,35.123],[126.2695,35.1365],[126.2875,35.1399],[126.3163,35.1162],[126.3271,35.123],[126.3415,35.1567],[126.3523,35.1365],[126.3451,35.0959],[126.3559,35.0959],[126.3667,35.074],[126.4099,35.0622],[126.4063,35.0385],[126.4243,35.02],[126.4495,35.0672],[126.4531,35.101],[126.4135,35.1196],[126.4027,35.1415],[126.3703,35.1736],[126.3631,35.1871],[126.3775,35.2125],[126.3667,35.2175],[126.3631,35.2395],[126.3091,35.2327],[126.3199,35.2445],[126.3775,35.253],[126.3559,35.2597],[126.3811,35.2834],[126.3811,35.3273],[126.4099,35.3695],[126.4315,35.3492],[126.4603,35.3459],[126.4171,35.3948],[126.4243,35.4185],[126.4927,35.5248],[126.5611,35.5417],[126.5935,35.5417],[126.6223,35.5687],[126.6439,35.5721],[126.6799,35.5384],[126.6943,35.535],[126.6691,35.589],[126.6547,35.5958],[126.5143,35.5772],[126.4639,35.6025],[126.4675,35.6397],[126.4927,35.6498],[126.5287,35.6836],[126.5971,35.714],[126.6259,35.746],[126.6295,35.7748],[126.6619,35.7933],[126.7339,35.7916],[126.7699,35.7748],[126.7807,35.7596],[126.7915,35.7916],[126.7087,35.8355],[126.7015,35.8406],[126.7051,35.8491],[126.7303,35.8642],[126.7987,35.8626],[126.8131,35.8828],[126.8383,35.893],[126.8095,35.9115],[126.7339,35.8862],[126.6115,35.8896],[126.6079,35.9318],[126.5683,35.9453],[126.5251,35.9402],[126.5215,35.9706],[126.7123,35.9858],[126.7267,35.9943],[126.7447,35.9892],[126.8707,36.0483],[126.8707,36.0618],[126.7915,36.0416],[126.7555,36.0179],[126.6943,35.9993],[126.6763,36.0061],[126.6655,36.0348],[126.6295,36.0753],[126.6439,36.0855],[126.6403,36.0905],[126.6115,36.099],[126.5899,36.131],[126.5719,36.1378],[126.5539,36.131],[126.5503,36.1412],[126.5287,36.153],[126.5107,36.1513],[126.4999,36.126],[126.4927,36.131],[126.4963,36.1598],[126.5323,36.1733],[126.5611,36.1817],[126.6043,36.1716],[126.5899,36.1918],[126.5683,36.2053],[126.5503,36.2053],[126.5359,36.2189],[126.5683,36.2864],[126.5827,36.2948],[126.5719,36.305],[126.5143,36.3219],[126.5827,36.3522],[126.5755,36.3658],[126.5287,36.3691],[126.4999,36.3911],[126.4999,36.3978],[126.5143,36.3978],[126.4999,36.4198],[126.5359,36.4333],[126.5575,36.4553],[126.6187,36.4738],[126.5575,36.4738],[126.5251,36.4417],[126.5071,36.4384],[126.4963,36.4485],[126.4819,36.4975],[126.5143,36.5295],[126.5107,36.5346],[126.4927,36.5279],[126.4711,36.5397],[126.4567,36.5954],[126.5107,36.6038],[126.5215,36.6258],[126.4855,36.6494],[126.5071,36.6697],[126.4999,36.6849],[126.4747,36.6883],[126.4711,36.7052],[126.4783,36.717],[126.4999,36.7204],[126.4783,36.7474],[126.4387,36.717],[126.4459,36.7001],[126.4387,36.6646],[126.4423,36.6376],[126.4243,36.6072],[126.3667,36.6292],[126.3775,36.7018],[126.3667,36.7068],[126.3703,36.7322],[126.3595,36.7423],[126.3415,36.7406],[126.3235,36.7001],[126.3019,36.7001],[126.3307,36.6613],[126.3343,36.6444],[126.3235,36.6359],[126.3415,36.6106],[126.3163,36.6022],[126.2947,36.5819],[126.2875,36.6106],[126.3019,36.6342],[126.2731,36.6731],[126.2803,36.6933],[126.2731,36.7204],[126.2299,36.6849],[126.1795,36.6731],[126.1651,36.6781],[126.1579,36.7018],[126.2047,36.7052],[126.2119,36.7271],[126.2011,36.7423],[126.1579,36.7609],[126.1507,36.7237],[126.1327,36.7035],[126.1291,36.7609],[126.1579,36.7947],[126.1651,36.8166],[126.1867,36.7811],[126.2119,36.7811],[126.1939,36.8082],[126.2335,36.8048],[126.2407,36.8166],[126.1975,36.8234],[126.2119,36.8571],[126.1903,36.8723],[126.1939,36.8858],[126.2335,36.9044],[126.2299,36.8723],[126.2767,36.874],[126.2839,36.9618],[126.3091,36.9669],[126.3055,36.9314],[126.3235,36.8825],[126.3019,36.8571],[126.3091,36.8284],[126.2803,36.8115],[126.2911,36.7896],[126.3163,36.8048],[126.3559,36.7896],[126.3271,36.847],[126.3379,36.8571],[126.3667,36.8352],[126.3739,36.8504],[126.4063,36.8571],[126.4063,36.8639],[126.3775,36.8706],[126.3775,36.8774],[126.4027,36.8808],[126.4171,36.8993],[126.4207,36.923],[126.4099,36.9382],[126.3775,36.9416],[126.3523,36.9551],[126.3559,36.9686],[126.3703,36.9601],[126.3775,36.9753],[126.3703,36.9838],[126.3343,36.9872],[126.3523,37.0007],[126.3919,36.9905],[126.3919,37.0074],[126.4459,37.004],[126.4531,36.9905],[126.4315,36.9618],[126.4387,36.9466],[126.4675,36.9568],[126.4783,36.9365],[126.4783,36.9264],[126.4675,36.9179],[126.4675,36.8538],[126.4855,36.8419],[126.5179,36.9483],[126.5503,36.9264],[126.5611,36.9044],[126.5827,36.8977],[126.5683,36.9314],[126.4927,36.9973],[126.4963,37.0074],[126.5071,37.0074],[126.5395,36.977],[126.5719,36.977],[126.5647,36.9905],[126.5107,37.0159],[126.4999,37.0547],[126.5359,37.0496],[126.6259,36.9956],[126.6367,36.9821],[126.6223,36.9601],[126.6331,36.9382],[126.6295,36.9112],[126.6475,36.9247],[126.6439,36.9584],[126.6655,36.9888],[126.6799,36.9939],[126.7591,36.9821],[126.7951,36.9551],[126.7987,36.9348],[126.7807,36.8909],[126.8131,36.9162],[126.8239,36.9179],[126.8311,36.9095],[126.8383,36.8673],[126.8311,36.8318],[126.8419,36.82],[126.8491,36.7879],[126.8311,36.7744],[126.8311,36.7659],[126.8491,36.7541],[126.8707,36.8048],[126.8635,36.8284],[126.9031,36.8217],[126.8599,36.869],[126.9427,36.8926],[126.9895,36.9179],[127.0003,36.9281],[127.0075,36.9534],[126.9931,36.9669],[127.0399,36.9821],[127.0435,36.9939],[126.9823,36.9804],[126.9715,36.9703],[126.9751,36.9399],[126.9679,36.9314],[126.9139,36.9297],[126.8383,36.9753],[126.8239,37.0024],[126.8851,37.0074],[126.8707,37.0209],[126.8815,37.0226],[126.9103,37.0142],[126.9067,37.0327],[126.8815,37.0699],[126.8923,37.0952],[126.8779,37.1003],[126.8635,37.075],[126.8599,37.0412],[126.8491,37.0378],[126.8383,37.0446],[126.8023,37.0378],[126.7555,37.0496],[126.7519,37.0699],[126.7519,37.1003],[126.7771,37.1324],[126.8635,37.1509],[126.8707,37.1577],[126.8707,37.1763],[126.8635,37.1797],[126.8311,37.1594],[126.8167,37.1611],[126.8059,37.1645],[126.8023,37.1847],[126.7771,37.1763],[126.7159,37.1273],[126.7015,37.1239],[126.6907,37.1256],[126.6871,37.1391],[126.7087,37.1645],[126.6691,37.1611],[126.6691,37.1864],[126.7087,37.1999],[126.7195,37.2134],[126.6799,37.2185],[126.6583,37.2539],[126.6727,37.2624],[126.6799,37.2573],[126.7087,37.2624],[126.7519,37.2489],[126.7663,37.2539],[126.7663,37.232],[126.7807,37.2202],[126.7915,37.2236],[126.8023,37.2539],[126.8203,37.2742],[126.8707,37.2675],[126.8527,37.286],[126.8275,37.2877],[126.8239,37.2962],[126.7843,37.2945],[126.7339,37.3063],[126.6907,37.3333],[126.6871,37.3434],[126.7195,37.3772],[126.7159,37.384],[126.6655,37.389],[126.6403,37.3637],[126.6151,37.3789],[126.6403,37.4144],[126.5971,37.4397],[126.5935,37.4718],[126.6043,37.4853],[126.6403,37.4954],[126.6439,37.5039],[126.6295,37.5072],[126.6259,37.4988],[126.6079,37.4971],[126.6007,37.5072],[126.6043,37.5494],[126.5611,37.6069],[126.5323,37.7555],[126.5359,37.769],[126.5467,37.7707],[126.6043,37.7538],[126.6475,37.7656],[126.6619,37.7571],[126.6691,37.7284],[126.6619,37.6727],[126.6907,37.6525],[126.7555,37.6373],[126.6799,37.6862],[126.7015,37.7436],[126.6835,37.7943],[126.7015,37.8298],[126.6943,37.8365],[126.6655,37.8281],[126.6511,37.7994],[126.5935,37.774],[126.4351,37.8483],[126.3991,37.8922],[126.3775,37.8889],[126.2587,37.845],[126.2011,37.845],[126.1579,37.8298],[126.1471,37.8196],[126.1651,37.769],[126.1615,37.7403],[126.1579,37.7335],[126.1111,37.7403],[126.0859,37.801],[126.0643,37.8027],[126.0571,37.8703],[126.0247,37.8534],[126.0139,37.8551],[125.9995,37.8855],[125.9599,37.9125],[125.9455,37.9024],[125.9491,37.8889],[125.9743,37.8737],[125.9851,37.823],[125.9563,37.8399],[125.9203,37.845],[125.8951,37.8652],[125.8339,37.9429],[125.8051,37.9513],[125.8051,37.9885],[125.7979,37.9935],[125.5963,38.0324],[125.5783,38.0256],[125.5783,38.0087],[125.5963,37.9919],[125.6395,37.9733],[125.6755,37.9783],[125.6863,37.9716],[125.6791,37.953],[125.7007,37.9581],[125.7187,37.953],[125.6971,37.926],[125.7331,37.9328],[125.7403,37.926],[125.7151,37.9074],[125.6863,37.899],[125.6683,37.899],[125.6323,37.926],[125.6287,37.9024],[125.6395,37.8568],[125.6215,37.8365],[125.6431,37.823],[125.6395,37.8129],[125.6107,37.8061],[125.6215,37.7656],[125.5927,37.7639],[125.5747,37.774],[125.5819,37.7825],[125.5711,37.7875],[125.5531,37.7825],[125.5495,37.7707],[125.5279,37.7723],[125.5207,37.7808],[125.5279,37.796],[125.5027,37.7791],[125.4739,37.7318],[125.4379,37.72],[125.3839,37.7166],[125.3623,37.6795],[125.3479,37.6761],[125.3335,37.6862],[125.3479,37.7386],[125.3623,37.7605],[125.3911,37.7538],[125.4451,37.774],[125.3767,37.7825],[125.3911,37.796],[125.4343,37.8196],[125.4559,37.823],[125.5063,37.8129],[125.5243,37.8179],[125.5279,37.8433],[125.4991,37.8399],[125.4775,37.8568],[125.5099,37.8838],[125.5099,37.8939],[125.4631,37.9041],[125.4451,37.9209],[125.4235,37.9125],[125.4307,37.899],[125.3839,37.8922],[125.4451,37.8601],[125.4451,37.8433],[125.3983,37.8652],[125.3479,37.8652],[125.3767,37.8433],[125.3083,37.8095],[125.3011,37.823],[125.2399,37.823],[125.2507,37.8382],[125.2939,37.8601],[125.3083,37.8787],[125.3011,37.8956],[125.2579,37.9142],[125.2615,37.9328],[125.2399,37.9294],[125.2075,37.8804],[125.1751,37.8669],[125.0995,37.8753],[125.0635,37.8956],[125.0131,37.9057],[125.0059,37.9192],[125.0131,37.9395],[124.9806,37.926],[124.9914,37.953],[125.0383,37.9632],[125.0635,37.9783],[125.1355,37.9598],[125.1643,37.9632],[125.1859,37.98],[125.1787,37.9885],[125.1571,37.98],[125.1427,37.9834],[125.1139,38.002],[125.1067,38.0341],[125.1175,38.0425],[125.2003,38.0493],[125.2147,38.0459],[125.2255,38.0223],[125.2471,38.0206],[125.2543,38.0543],[125.2723,38.0628],[125.2651,38.078],[125.1391,38.0982],[125.0131,38.0628],[124.9374,38.0982],[124.887,38.132],[124.8654,38.1067],[124.7934,38.0982],[124.6782,38.1151],[124.6674,38.1253],[124.6746,38.1371],[124.6962,38.1455],[124.7466,38.1472],[124.7646,38.1556],[124.779,38.1793],[124.8222,38.186],[124.8546,38.2266],[124.8798,38.2299],[124.9194,38.1894],[124.9914,38.2266],[124.9662,38.235],[124.9158,38.2283],[124.8726,38.257],[124.869,38.2823],[124.8798,38.3448],[124.9482,38.4512],[124.9734,38.463],[124.9734,38.441],[125.0167,38.4984],[125.0203,38.5153],[124.995,38.5356],[124.9986,38.566],[124.9806,38.5845],[124.9842,38.5913],[124.9986,38.593],[125.0167,38.5829],[125.0383,38.5913],[125.0599,38.5677],[125.1031,38.593],[125.1283,38.5795],[125.1355,38.5913],[125.1355,38.6251],[125.1175,38.6453],[125.1247,38.6656],[125.1391,38.6622],[125.1571,38.6318],[125.1787,38.6352],[125.1787,38.6707],[125.2039,38.6521],[125.2687,38.6707],[125.3011,38.6572],[125.3443,38.6876],[125.3983,38.6943],[125.4415,38.6859],[125.4523,38.7044],[125.4631,38.7078],[125.5063,38.6859],[125.5207,38.6521],[125.5315,38.6538],[125.5459,38.6791],[125.5567,38.6774],[125.5855,38.642],[125.6395,38.6268],[125.6575,38.6318],[125.6323,38.6588],[125.5891,38.6656],[125.5279,38.7213],[125.4775,38.7281],[125.4487,38.777],[125.4379,38.7754],[125.4235,38.7551],[125.4127,38.7551],[125.4343,38.7365],[125.4199,38.7298],[125.3875,38.7179],[125.3551,38.7348],[125.3515,38.7213],[125.3407,38.7179],[125.3155,38.7213],[125.3011,38.7348],[125.2975,38.7213],[125.3083,38.7078],[125.2795,38.7027],[125.2615,38.7078],[125.2435,38.7281],[125.2687,38.7551],[125.2543,38.7618],[125.2543,38.7838],[125.2399,38.7939],[125.2255,38.7956],[125.2291,38.772],[125.2183,38.7399],[125.1895,38.7382],[125.1715,38.7635],[125.1463,38.777],[125.1355,38.8041],[125.1535,38.8919],[125.1715,38.9391],[125.2003,38.9746],[125.2003,38.9864],[125.2723,39.081],[125.3335,39.0827],[125.2831,39.0894],[125.2939,39.1435],[125.2867,39.1519],[125.3083,39.1654],[125.3443,39.1688],[125.3299,39.1941],[125.3443,39.2127],[125.3659,39.2211],[125.4127,39.2144],[125.3947,39.2465],[125.4307,39.3005],[125.4451,39.3106],[125.4163,39.3208],[125.4127,39.3343],[125.4199,39.3512],[125.4055,39.3647],[125.4235,39.3579],[125.4451,39.3664],[125.4595,39.3849],[125.3587,39.3984],[125.3587,39.4136],[125.3839,39.4407],[125.3443,39.4339],[125.3443,39.4592],[125.3983,39.5014],[125.4127,39.5386],[125.4415,39.547],[125.4523,39.5707],[125.4451,39.5842],[125.2867,39.5217],[125.2363,39.5622],[125.2111,39.5724],[125.2255,39.5909],[125.1571,39.5909],[125.1715,39.5639],[125.1175,39.5656],[125.0959,39.6028],[125.0383,39.6078],[125.0095,39.6348],[124.9878,39.6382],[124.959,39.6619],[124.9482,39.6635],[124.9374,39.6467],[124.9014,39.6619],[124.8942,39.6923],[124.8798,39.7041],[124.833,39.726],[124.8114,39.7277],[124.8006,39.7395],[124.7718,39.7412],[124.761,39.748],[124.7466,39.7834],[124.7394,39.7615],[124.7538,39.7345],[124.743,39.6906],[124.7574,39.6872],[124.7538,39.672],[124.7286,39.6652],[124.743,39.645],[124.7178,39.6467],[124.6962,39.6382],[124.6494,39.6129],[124.6386,39.5909],[124.6242,39.5977],[124.6278,39.6112],[124.6098,39.6281],[124.6278,39.645],[124.6314,39.6635],[124.6458,39.6703],[124.6458,39.6973],[124.6242,39.6939],[124.6098,39.7142],[124.5846,39.7243],[124.5882,39.7666],[124.5666,39.7784],[124.563,39.8138],[124.4334,39.8307],[124.419,39.824],[124.4046,39.8408],[124.3974,39.8662],[124.3614,39.8712],[124.3506,39.8932],[124.3218,39.9135],[124.3686,39.9405],[124.383,40.003],[124.4046,40.0283],[124.4658,40.0148],[124.4982,40.0232],[124.4118,40.0367],[124.3902,40.0485],[124.3686,40.0975],[124.3578,40.0891],[124.3614,40.0114],[124.3074,39.9607],[124.293,39.9337],[124.2678,39.927],[124.203,39.878],[124.1562,39.8611],[124.1166,39.8324],[124.0878,39.8527],[124.041,39.824],[124,39.8159],[124,43],[130.9,43]]],[[[130.8739,42.6034],[130.8163,42.6338],[130.8379,42.6422],[130.8883,42.6388],[130.9,42.6269],[130.9,42.6008],[130.8739,42.6034]]],[[[130.8775,37.4549],[130.8271,37.4718],[130.8055,37.5072],[130.8127,37.5224],[130.8307,37.5326],[130.9,37.5456],[130.9,37.4691],[130.8775,37.4549]]],[[[130.8955,34.2567],[130.8703,34.2787],[130.8847,34.3006],[130.8991,34.3547],[130.9,34.2386],[130.8955,34.2567]]],[[[130.8775,34.0676],[130.8631,34.1014],[130.8739,34.1284],[130.9,34.146],[130.9,34.0661],[130.8775,34.0676]]],[[[130.8811,33.9376],[130.8811,33.9511],[130.9,33.9514],[130.9,33.9236],[130.8811,33.9376]]],[[[130.4283,33],[130.4203,33.0882],[130.3735,33.1152],[130.3663,33.1406],[130.2907,33.149],[130.2403,33.1879],[130.2187,33.1591],[130.1503,33.1119],[130.1287,33.1203],[130.1323,33.1017],[130.1988,33],[129.9479,33],[129.9451,33.0156],[129.8803,33.0629],[129.8227,33.0426],[129.8227,33.0629],[129.7975,33.0781],[129.7759,33.0578],[129.7471,33.0663],[129.7327,33.1017],[129.7507,33.0984],[129.7471,33.1254],[129.7615,33.1304],[129.7579,33.1389],[129.7471,33.1389],[129.7291,33.122],[129.7219,33.1321],[129.7219,33.1591],[129.7111,33.1625],[129.7039,33.1119],[129.6823,33.1152],[129.6679,33.1017],[129.6607,33.1271],[129.6823,33.1304],[129.6859,33.1423],[129.6751,33.1608],[129.6535,33.171],[129.6571,33.1845],[129.6463,33.198],[129.6283,33.1912],[129.5995,33.2081],[129.5635,33.2115],[129.5527,33.225],[129.5671,33.2723],[129.5923,33.2841],[129.5707,33.3213],[129.5815,33.3702],[129.5923,33.3804],[129.6211,33.3601],[129.6427,33.3618],[129.6715,33.3989],[129.6787,33.3905],[129.6751,33.3618],[129.7003,33.3533],[129.7435,33.3652],[129.8083,33.3483],[129.8191,33.3044],[129.8515,33.2807],[129.8407,33.3162],[129.8479,33.3483],[129.8695,33.3787],[129.8623,33.3905],[129.8695,33.3972],[129.8155,33.4259],[129.7867,33.4546],[129.8047,33.4817],[129.8191,33.485],[129.8479,33.4428],[129.8623,33.4378],[129.8731,33.4428],[129.8443,33.4817],[129.8371,33.5138],[129.8551,33.5323],[129.8515,33.5526],[129.8695,33.5391],[129.8875,33.5357],[129.9091,33.5475],[129.9415,33.5323],[129.9595,33.5121],[129.9415,33.48],[129.9523,33.4732],[129.9631,33.4834],[129.9739,33.4546],[130.0171,33.4462],[130.0387,33.4614],[130.0567,33.4952],[130.1035,33.5121],[130.1143,33.5087],[130.1683,33.534],[130.1755,33.5475],[130.1215,33.5425],[130.1179,33.5577],[130.0963,33.561],[130.0927,33.5729],[130.1107,33.5897],[130.1395,33.5948],[130.1575,33.6066],[130.1539,33.6184],[130.1611,33.6303],[130.1971,33.6336],[130.2079,33.6657],[130.2331,33.6539],[130.2367,33.6438],[130.2259,33.6353],[130.2331,33.6184],[130.2511,33.6083],[130.2727,33.6117],[130.2763,33.6032],[130.2655,33.588],[130.2907,33.5745],[130.3159,33.5982],[130.3591,33.5965],[130.3915,33.6049],[130.4059,33.6505],[130.3987,33.6691],[130.3483,33.6404],[130.3195,33.659],[130.3087,33.6556],[130.2943,33.664],[130.2907,33.6809],[130.2943,33.6894],[130.3051,33.6877],[130.3123,33.6725],[130.3447,33.6623],[130.3879,33.6775],[130.4275,33.713],[130.4455,33.7181],[130.4671,33.7434],[130.4707,33.7637],[130.4671,33.7805],[130.4491,33.7907],[130.4491,33.8025],[130.4779,33.8244],[130.4887,33.8548],[130.5067,33.8498],[130.5319,33.8616],[130.5427,33.8768],[130.5643,33.8835],[130.6327,33.8819],[130.6939,33.9376],[130.7299,33.9325],[130.7551,33.9443],[130.8271,33.9393],[130.8199,33.9207],[130.8631,33.9258],[130.8811,33.8954],[130.9,33.8895],[130.9,33],[130.4283,33]]],[[[129.7651,33.0173],[129.7975,33.0106],[129.8075,33],[129.7537,33],[129.7651,33.0173]]],[[[129.6643,33.0697],[129.6823,33.0933],[129.7219,33.0798],[129.7363,33.0595],[129.7363,33.046],[129.7507,33.0578],[129.7579,33.0477],[129.7399,33.019],[129.7373,33],[129.6515,33],[129.6643,33.0697]]],[[[129.1711,33.0055],[129.174,33],[129.1558,33],[129.1711,33.0055]]],[[[129.0487,33.0393],[129.0667,33.0443],[129.0667,33.019],[129.0847,33.0241],[129.0811,33.0561],[129.0847,33.0764],[129.1027,33.0832],[129.1063,33.1017],[129.0955,33.1254],[129.1099,33.1659],[129.1171,33.1591],[129.1099,33.122],[129.1243,33.1085],[129.1027,33.0545],[129.0977,33],[129.0418,33],[129.0487,33.0393]]],[[[129.6823,33.7434],[129.6715,33.7502],[129.6571,33.7434],[129.6463,33.7721],[129.6859,33.7586],[129.6607,33.7839],[129.6571,33.816],[129.6787,33.8143],[129.6715,33.8329],[129.6895,33.8717],[129.7003,33.8616],[129.7687,33.8447],[129.7615,33.8126],[129.7651,33.8025],[129.7975,33.7856],[129.7759,33.7738],[129.8011,33.7653],[129.8011,33.7518],[129.7831,33.7383],[129.7363,33.7366],[129.7219,33.7164],[129.7219,33.6978],[129.6787,33.7299],[129.6823,33.7434]]],[[[129.5023,33.4732],[129.5059,33.4834],[129.5419,33.507],[129.5527,33.507],[129.5563,33.4935],[129.5743,33.4969],[129.5779,33.4884],[129.5527,33.4732],[129.5275,33.48],[129.5023,33.4732]]],[[[129.4483,33.198],[129.4123,33.1777],[129.3763,33.1693],[129.3439,33.1794],[129.3511,33.2132],[129.3835,33.1828],[129.4015,33.1862],[129.4051,33.1946],[129.3763,33.2149],[129.3943,33.2402],[129.4159,33.2368],[129.4051,33.2757],[129.4375,33.2959],[129.4411,33.3483],[129.4951,33.3584],[129.5095,33.382],[129.5239,33.3685],[129.5383,33.3787],[129.5239,33.3905],[129.5239,33.4057],[129.5563,33.4107],[129.5635,33.3668],[129.5275,33.3229],[129.5383,33.3162],[129.5131,33.2976],[129.5023,33.2655],[129.4483,33.198]]],[[[129.3583,34.3901],[129.3943,34.4104],[129.3835,34.3834],[129.3871,34.3665],[129.4087,34.3513],[129.3691,34.3074],[129.3259,34.304],[129.3043,34.3243],[129.3223,34.3344],[129.3439,34.3276],[129.3475,34.3564],[129.3331,34.3614],[129.3151,34.3428],[129.3043,34.3428],[129.3079,34.3851],[129.2863,34.3665],[129.2935,34.3496],[129.2863,34.3445],[129.2719,34.3564],[129.2467,34.3513],[129.2287,34.3564],[129.2359,34.3682],[129.2719,34.3749],[129.2755,34.4138],[129.2683,34.4323],[129.3115,34.461],[129.3079,34.4661],[129.2935,34.4526],[129.2791,34.4509],[129.2755,34.4627],[129.3043,34.5201],[129.3259,34.5353],[129.3079,34.5607],[129.2899,34.5556],[129.3223,34.6485],[129.3799,34.6451],[129.4087,34.6755],[129.4267,34.6772],[129.4195,34.6856],[129.4231,34.6958],[129.4663,34.7008],[129.4879,34.6772],[129.4843,34.662],[129.4699,34.6519],[129.4879,34.6468],[129.4879,34.635],[129.4735,34.6164],[129.4519,34.6198],[129.4771,34.5978],[129.4771,34.5877],[129.4447,34.5151],[129.4015,34.4813],[129.3799,34.4526],[129.3835,34.4239],[129.3619,34.4053],[129.3583,34.3901]]],[[[129.3043,34.2094],[129.2971,34.1706],[129.2863,34.1655],[129.2755,34.1284],[129.2467,34.0997],[129.2359,34.1014],[129.2215,34.0896],[129.1999,34.1115],[129.1891,34.1149],[129.1711,34.1064],[129.1747,34.1959],[129.2071,34.3293],[129.2287,34.3209],[129.2251,34.2939],[129.2755,34.3074],[129.2683,34.3226],[129.3007,34.3074],[129.3007,34.2888],[129.3115,34.2804],[129.3151,34.2939],[129.3439,34.2939],[129.3439,34.2787],[129.3259,34.2719],[129.3187,34.2584],[129.3259,34.2297],[129.2971,34.2179],[129.3043,34.2094]]],[[[129.0739,33.2605],[129.0883,33.2841],[129.1279,33.301],[129.1495,33.2773],[129.1279,33.247],[129.1027,33.2486],[129.0739,33.2605]]],[[[128.8039,35.0571],[128.8363,35.0605],[128.8435,35.0216],[128.8327,34.9946],[128.8255,34.9929],[128.8003,35.0487],[128.8039,35.0571]]],[[[128.6851,34.8089],[128.6815,34.7869],[128.6563,34.7565],[128.6923,34.7363],[128.6779,34.7245],[128.5843,34.7059],[128.6167,34.7261],[128.5987,34.7397],[128.6059,34.7667],[128.5735,34.7532],[128.5627,34.7582],[128.5591,34.7819],[128.5915,34.792],[128.6059,34.8359],[128.5915,34.8427],[128.5303,34.8089],[128.4907,34.8494],[128.4871,34.8697],[128.5231,34.8984],[128.5735,34.9102],[128.6455,34.8899],[128.6167,34.922],[128.6095,34.9541],[128.6239,34.9541],[128.6923,34.9862],[128.6815,35.0048],[128.6887,35.0233],[128.7031,35.0335],[128.7247,35.0183],[128.7175,34.9659],[128.7355,34.9355],[128.7319,34.9102],[128.7139,34.8764],[128.7427,34.8883],[128.7499,34.8697],[128.7355,34.8376],[128.7211,34.8427],[128.7427,34.7903],[128.6851,34.8089]]],[[[128.4367,34.7802],[128.4331,34.7734],[128.4223,34.7633],[128.4079,34.7633],[128.3971,34.7785],[128.3863,34.7785],[128.3863,34.792],[128.3683,34.7971],[128.3791,34.8021],[128.3719,34.8173],[128.3359,34.819],[128.3323,34.8258],[128.3503,34.8359],[128.3863,34.8207],[128.4295,34.8275],[128.4403,34.7937],[128.4223,34.7886],[128.4367,34.7802]]],[[[128.2387,34.6265],[128.2243,34.6333],[128.2315,34.6519],[128.2711,34.6383],[128.2711,34.6316],[128.2963,34.64],[128.2855,34.6215],[128.2351,34.6096],[128.2387,34.6265]]],[[[128.2063,34.8207],[128.2279,34.8393],[128.2603,34.814],[128.2423,34.8072],[128.2387,34.7971],[128.2135,34.8072],[128.2063,34.8207]]],[[[128.0011,34.9136],[128.0191,34.917],[128.0227,34.9051],[128.0119,34.8697],[128.0191,34.8663],[128.0443,34.8933],[128.0587,34.8798],[128.0659,34.8511],[128.0839,34.8359],[128.0263,34.8427],[127.9867,34.8376],[127.9651,34.8595],[127.9687,34.8747],[128.0011,34.9136]]],[[[128.0407,34.6958],[128.0119,34.7093],[127.9759,34.6991],[127.9543,34.7599],[127.9363,34.7667],[127.9147,34.743],[127.9075,34.7126],[127.8679,34.7211],[127.8319,34.8342],[127.8283,34.8697],[127.8391,34.8866],[127.8607,34.8967],[127.8715,34.9237],[127.9039,34.9406],[127.9399,34.9136],[127.9291,34.8883],[127.9039,34.8697],[127.9183,34.8359],[127.9507,34.8241],[127.9615,34.8072],[128.0299,34.8224],[128.0695,34.8156],[128.0731,34.7937],[128.0623,34.7701],[128.0659,34.738],[128.0515,34.7295],[128.0551,34.6974],[128.0407,34.6958]]],[[[127.7383,34.613],[127.7347,34.6248],[127.7455,34.6485],[127.7671,34.6654],[127.7743,34.6907],[127.7599,34.7042],[127.7635,34.7126],[127.7851,34.7177],[127.7995,34.7042],[127.7815,34.6839],[127.8031,34.6704],[127.8175,34.6164],[127.7995,34.5792],[127.7743,34.5843],[127.7383,34.613]]],[[[127.7239,34.5235],[127.7059,34.5337],[127.7131,34.5421],[127.7491,34.5505],[127.7923,34.4914],[127.7707,34.4881],[127.7311,34.5083],[127.7239,34.5235]]],[[[127.4539,34.4526],[127.4575,34.4729],[127.4863,34.461],[127.5115,34.4695],[127.5331,34.4509],[127.5367,34.434],[127.4935,34.4138],[127.4899,34.4256],[127.4539,34.4526]]],[[[127.2775,34.044],[127.2811,34.0575],[127.2955,34.0608],[127.2955,34.0372],[127.3243,34.0051],[127.2955,34.0136],[127.2775,34.044]]],[[[127.1191,34.4374],[127.1227,34.456],[127.1119,34.4644],[127.1227,34.4729],[127.2199,34.4864],[127.2451,34.4644],[127.2415,34.4458],[127.2271,34.4306],[127.1695,34.4171],[127.1191,34.4374]]],[[[127.0399,34.3124],[127.0363,34.3209],[127.0507,34.331],[127.0471,34.3361],[127.0255,34.3395],[127.0255,34.3479],[126.9931,34.358],[127.0255,34.3817],[127.0471,34.358],[127.0759,34.3597],[127.0975,34.3378],[127.0723,34.3428],[127.0651,34.3395],[127.0723,34.3344],[127.0399,34.3124]]],[[[126.8743,33.3736],[126.8419,33.3094],[126.7807,33.3061],[126.7411,33.2807],[126.6403,33.2638],[126.6079,33.2402],[126.5647,33.2334],[126.5215,33.2368],[126.4711,33.2284],[126.4279,33.2385],[126.3343,33.2385],[126.3055,33.2267],[126.2875,33.1997],[126.2695,33.198],[126.2299,33.2351],[126.2011,33.2436],[126.1723,33.2689],[126.1615,33.301],[126.2047,33.3753],[126.2407,33.3922],[126.2695,33.4361],[126.2983,33.4411],[126.3091,33.4648],[126.4603,33.5019],[126.4855,33.5205],[126.5827,33.5289],[126.6475,33.5526],[126.7915,33.5644],[126.8239,33.5593],[126.8491,33.5357],[126.9139,33.507],[126.9211,33.4766],[126.9319,33.4648],[126.9463,33.4783],[126.9535,33.4648],[126.9319,33.4513],[126.9391,33.431],[126.8743,33.3736]]],[[[126.8527,34.1588],[126.8491,34.174],[126.8599,34.2027],[126.8815,34.2128],[126.8995,34.2094],[126.9247,34.1841],[126.9211,34.1672],[126.9031,34.152],[126.8527,34.1588]]],[[[126.7591,34.3361],[126.8023,34.3395],[126.8383,34.353],[126.8923,34.3412],[126.8779,34.3124],[126.8419,34.304],[126.8203,34.326],[126.7843,34.3226],[126.7591,34.3361]]],[[[126.8347,34.4205],[126.8599,34.3935],[126.8239,34.3952],[126.7951,34.3783],[126.7771,34.3547],[126.7663,34.38],[126.7519,34.3867],[126.7699,34.4121],[126.8023,34.4357],[126.8239,34.4391],[126.8419,34.4323],[126.8347,34.4205]]],[[[126.6907,34.3006],[126.6943,34.3209],[126.6619,34.3243],[126.6439,34.3378],[126.6403,34.3732],[126.6547,34.3952],[126.6871,34.4019],[126.7231,34.3817],[126.7447,34.3243],[126.7699,34.2922],[126.7411,34.2989],[126.7303,34.2888],[126.6907,34.3006]]],[[[126.6367,34.1419],[126.6439,34.1639],[126.6367,34.1875],[126.6439,34.1976],[126.6547,34.1976],[126.6691,34.1892],[126.6727,34.1807],[126.6619,34.1655],[126.6799,34.147],[126.6691,34.1368],[126.6655,34.1183],[126.6475,34.1233],[126.6367,34.1419]]],[[[126.5503,34.1909],[126.5611,34.2348],[126.6079,34.2213],[126.6187,34.2044],[126.6079,34.1875],[126.5827,34.1858],[126.5899,34.179],[126.5827,34.1757],[126.5503,34.1909]]],[[[126.5431,37.2843],[126.5611,37.2793],[126.5755,37.2877],[126.5791,37.2708],[126.6151,37.2556],[126.6187,37.2421],[126.6151,37.232],[126.5611,37.1999],[126.5395,37.1982],[126.5503,37.2151],[126.5467,37.2269],[126.5611,37.2388],[126.5431,37.2843]]],[[[126.5359,34.1267],[126.5179,34.1267],[126.5071,34.1385],[126.5143,34.1689],[126.5323,34.179],[126.5755,34.1672],[126.6007,34.1689],[126.6151,34.1571],[126.6151,34.152],[126.5755,34.1537],[126.5359,34.1267]]],[[[126.5071,37.465],[126.4423,37.4211],[126.4207,37.4228],[126.4171,37.4346],[126.3991,37.4363],[126.3991,37.4448],[126.3847,37.438],[126.3667,37.4431],[126.3703,37.4532],[126.3559,37.4667],[126.4207,37.4971],[126.4747,37.4988],[126.4927,37.5072],[126.4999,37.5309],[126.5143,37.5343],[126.5647,37.514],[126.5827,37.4903],[126.5071,37.465]]],[[[126.4099,37.6406],[126.4171,37.6525],[126.3667,37.7268],[126.3703,37.7859],[126.4063,37.8213],[126.4243,37.8247],[126.5179,37.7673],[126.5215,37.7436],[126.5143,37.7234],[126.5287,37.6964],[126.5287,37.6508],[126.5431,37.6305],[126.5287,37.6254],[126.5071,37.5967],[126.4747,37.6102],[126.4639,37.6035],[126.4099,37.6018],[126.3919,37.6086],[126.3703,37.6305],[126.4099,37.6406]]],[[[126.4351,37.2388],[126.4351,37.2641],[126.4423,37.2725],[126.4603,37.281],[126.4927,37.2742],[126.4999,37.2607],[126.4819,37.2539],[126.4711,37.2337],[126.4351,37.2388]]],[[[126.3523,36.4333],[126.3415,36.4384],[126.3451,36.4536],[126.3631,36.4738],[126.3559,36.4789],[126.3451,36.4671],[126.3379,36.4755],[126.3271,36.4704],[126.3343,36.4958],[126.3163,36.5819],[126.3415,36.6038],[126.3595,36.6089],[126.3739,36.592],[126.3631,36.5667],[126.3811,36.5363],[126.3811,36.5177],[126.4063,36.4941],[126.3847,36.4941],[126.3847,36.4873],[126.4063,36.4789],[126.4063,36.4586],[126.4315,36.408],[126.3631,36.4113],[126.3595,36.4265],[126.3775,36.4468],[126.3523,36.4333]]],[[[126.3127,37.7453],[126.3271,37.7419],[126.3307,37.7166],[126.3775,37.6795],[126.3811,37.6693],[126.3703,37.6575],[126.3487,37.6575],[126.2803,37.6997],[126.2911,37.7048],[126.3127,37.7453]]],[[[126.3055,34.4019],[126.2083,34.358],[126.1579,34.353],[126.1435,34.3547],[126.1579,34.3817],[126.1543,34.3884],[126.1255,34.4036],[126.1255,34.3817],[126.1039,34.4019],[126.1147,34.4357],[126.1435,34.4627],[126.1723,34.4644],[126.1867,34.4948],[126.2227,34.5134],[126.2263,34.5269],[126.2371,34.5151],[126.2695,34.5218],[126.2731,34.537],[126.2659,34.5505],[126.2407,34.5657],[126.2623,34.5759],[126.3091,34.5522],[126.3235,34.5337],[126.3487,34.5472],[126.3811,34.4982],[126.3739,34.4543],[126.3451,34.4087],[126.3343,34.4036],[126.3091,34.4239],[126.3055,34.4019]]],[[[126.2479,34.8443],[126.2299,34.8545],[126.2731,34.8663],[126.2983,34.8866],[126.2875,34.9136],[126.2983,34.917],[126.3343,34.9068],[126.3451,34.8967],[126.3451,34.8899],[126.3199,34.8815],[126.3199,34.8663],[126.3595,34.8579],[126.3631,34.8376],[126.3415,34.8224],[126.3307,34.8258],[126.3415,34.8376],[126.3055,34.8562],[126.2479,34.8443]]],[[[126.2227,37.7605],[126.2191,37.7707],[126.2335,37.8027],[126.2479,37.8112],[126.2623,37.8146],[126.2947,37.8027],[126.3343,37.801],[126.3415,37.7926],[126.3199,37.7622],[126.2551,37.769],[126.2227,37.7605]]],[[[126.2767,35.6127],[126.3091,35.616],[126.3055,35.6025],[126.2587,35.5704],[126.2515,35.5873],[126.2767,35.6127]]],[[[126.1759,35.1061],[126.1975,35.0976],[126.2155,35.1044],[126.2371,35.0976],[126.2191,35.0774],[126.2551,35.0571],[126.2659,35.0335],[126.2623,35.025],[126.2371,35.0318],[126.2371,35.052],[126.1831,35.0622],[126.1579,35.0943],[126.1759,35.1061]]],[[[126.2263,34.9136],[126.2191,34.922],[126.2227,34.9322],[126.2515,34.9338],[126.2479,34.917],[126.2263,34.9136]]],[[[126.1327,35.0402],[126.1399,35.047],[126.1291,35.0487],[126.1363,35.0571],[126.1759,35.0537],[126.1831,35.0385],[126.1831,35.0284],[126.1723,35.0233],[126.1543,35.0352],[126.1327,35.0402]]],[[[126.0679,34.7701],[126.1183,34.7701],[126.1651,34.7549],[126.1795,34.7126],[126.1579,34.7025],[126.1399,34.7228],[126.1111,34.7177],[126.0679,34.7701]]],[[[126.1507,34.8089],[126.1687,34.792],[126.1615,34.7836],[126.1651,34.7701],[126.1471,34.7616],[126.0931,34.7869],[126.1507,34.8089]]],[[[126.1003,35.1128],[126.1111,35.1331],[126.1291,35.1432],[126.1651,35.1432],[126.1291,35.1213],[126.1255,35.1111],[126.1435,35.0824],[126.1219,35.0706],[126.1111,35.0504],[126.0571,35.0622],[126.0679,35.1027],[126.1003,35.1128]]],[[[126.1579,37.232],[126.1543,37.2252],[126.1327,37.2117],[126.1111,37.2151],[126.1039,37.2286],[126.0895,37.2252],[126.1039,37.2675],[126.1579,37.232]]],[[[126.1435,34.8798],[126.1543,34.8646],[126.1399,34.8579],[126.1435,34.8325],[126.1183,34.8241],[126.1147,34.8038],[126.0967,34.7988],[126.0643,34.8427],[126.0823,34.8562],[126.1111,34.8528],[126.1147,34.8714],[126.1435,34.8798]]],[[[126.0319,34.5387],[126.0535,34.5522],[126.0319,34.5556],[126.0355,34.5624],[126.0643,34.564],[126.0823,34.5809],[126.0607,34.6215],[126.0679,34.6248],[126.1003,34.6063],[126.1003,34.559],[126.0787,34.5421],[126.0463,34.532],[126.0319,34.5387]]],[[[126.0319,34.8697],[125.9851,34.8629],[125.9851,34.8697],[126.0283,34.9102],[126.0535,34.9068],[126.0607,34.9271],[126.0715,34.9288],[126.0895,34.9119],[126.0895,34.8832],[126.0679,34.8629],[126.0463,34.8612],[126.0319,34.8697]]],[[[126.0211,34.2956],[126.0247,34.3108],[126.0895,34.3074],[126.0859,34.2837],[126.0499,34.2804],[126.0211,34.2956]]],[[[126.0283,34.5657],[126.0211,34.5708],[126.0175,34.6063],[126.0283,34.635],[126.0607,34.5843],[126.0499,34.5708],[126.0283,34.5657]]],[[[125.9239,34.6704],[125.9167,34.6873],[125.9779,34.7278],[126.0067,34.6924],[125.9851,34.6603],[125.9707,34.6552],[125.9239,34.6704]]],[[[125.9167,34.7177],[125.8987,34.7261],[125.8915,34.7498],[125.9023,34.7717],[125.9887,34.7903],[126.0031,34.7869],[126.0067,34.7599],[125.9851,34.7667],[125.9779,34.7565],[125.9527,34.7599],[125.9383,34.7312],[125.9167,34.7177]]],[[[125.7079,37.6727],[125.7043,37.6609],[125.6863,37.6525],[125.6791,37.6778],[125.7079,37.6727]]],[[[125.3983,34.6316],[125.3911,34.6468],[125.4127,34.6924],[125.4307,34.6991],[125.4379,34.689],[125.4559,34.6907],[125.4091,34.6282],[125.3983,34.6316]]],[[[125.2759,37.7335],[125.2795,37.7487],[125.3371,37.769],[125.2975,37.7284],[125.2471,37.6997],[125.2255,37.6964],[125.2219,37.7031],[125.2651,37.7369],[125.2759,37.7335]]],[[[125.1571,37.7859],[125.1463,37.7859],[125.1463,37.8027],[125.1895,37.8196],[125.1931,37.8112],[125.1571,37.7859]]],[[[125.1283,34.0473],[125.0923,34.071],[125.0887,34.0794],[125.1031,34.0963],[125.1211,34.0845],[125.1391,34.0507],[125.1283,34.0473]]],[[[125.0275,37.8196],[125.0311,37.8365],[125.0419,37.8348],[125.0419,37.8179],[125.0239,37.8078],[125.0059,37.8061],[124.9986,37.8129],[125.0275,37.8196]]],[[[124.851,39.5166],[124.8582,39.5285],[124.8438,39.5437],[124.8582,39.5437],[124.8546,39.5741],[124.869,39.5808],[124.869,39.596],[124.8834,39.6044],[124.8798,39.6129],[124.9266,39.6044],[124.9086,39.5943],[124.9338,39.5504],[124.8834,39.5268],[124.8618,39.5082],[124.8186,39.4947],[124.8366,39.5217],[124.851,39.5166]]],[[[124.8834,38.5288],[124.905,38.4951],[124.8402,38.5103],[124.8222,38.5221],[124.8006,38.5086],[124.7898,38.517],[124.7934,38.5339],[124.8438,38.5558],[124.8834,38.5288]]],[[[124.6854,37.9192],[124.6458,37.9243],[124.6134,37.9446],[124.6242,37.98],[124.6494,37.9733],[124.7034,37.9885],[124.7322,37.98],[124.743,37.9699],[124.743,37.9547],[124.7286,37.9463],[124.707,37.9564],[124.6782,37.953],[124.6782,37.9412],[124.707,37.9328],[124.6854,37.9192]]],[[[124.6746,37.8162],[124.6782,37.8247],[124.7106,37.8483],[124.725,37.8433],[124.7142,37.8095],[124.6854,37.7994],[124.6746,37.8162]]],[[[124.6926,39.5352],[124.7034,39.5369],[124.707,39.5302],[124.6962,39.5031],[124.6854,39.5031],[124.6818,39.5217],[124.6926,39.5352]]],[[[124.6746,39.5707],[124.6998,39.5622],[124.6746,39.5386],[124.6458,39.547],[124.5954,39.5386],[124.6314,39.5656],[124.6746,39.5707]]],[[[124.5918,39.4474],[124.6134,39.4575],[124.6206,39.4322],[124.6026,39.4271],[124.5918,39.4474]]],[[[124.2426,39.802],[124.2246,39.7919],[124.2102,39.7953],[124.221,39.8189],[124.2354,39.8172],[124.2426,39.802]]]]}},{"type":"Feature","properties":{"id":"asa-pyeongyang","layer":"site","nameEn":"Asadal candidate: Pyongyang","nameKo":"아사달 후보: 평양","category":"도읍·중심지(전승)","role":"korean","startYear":-2333,"endYear":-1000,"confidence":"low","license":"original (authored)","wikipedia":null,"wikidata":null,"sources":["KOWIKI_GOJOSEON","GK"],"uiDefault":false,"label":null,"note":"평양설(왕검성=평양이라는 견해가 지배적이라고 정리됨; 북한은 단군릉 주장). 표시 구간(-2333~-1000)은 화면용 임의 구간이며 실제 존속 기간 주장이 아님.","source":"korea"},"geometry":{"type":"Point","coordinates":[125.75,39.02]}},{"type":"Feature","properties":{"id":"asa-liaoyang","layer":"site","nameEn":"Asadal candidate: Liaodong","nameKo":"아사달 후보: 요동(요양 일대)","category":"도읍·중심지(전승)","role":"korean","startYear":-2333,"endYear":-1000,"confidence":"speculative","license":"original (authored)","wikipedia":null,"wikidata":null,"sources":["KOWIKI_GOJOSEON","GK"],"uiDefault":false,"label":null,"note":"요동 중심설 계열의 후보(왕검성 요령설은 소수설). 표시 구간(-2333~-1000)은 화면용 임의 구간이며 실제 존속 기간 주장이 아님.","source":"korea"},"geometry":{"type":"Point","coordinates":[123.17,41.27]}},{"type":"Feature","properties":{"id":"asa-guwol","layer":"site","nameEn":"Asadal candidate: Mt. Guwol","nameKo":"아사달 후보: 구월산(황해)","category":"도읍·중심지(전승)","role":"korean","startYear":-2333,"endYear":-1000,"confidence":"speculative","license":"original (authored)","wikipedia":null,"wikidata":null,"sources":["KOWIKI_GOJOSEON","GK"],"uiDefault":false,"label":null,"note":"조선 시대 지리서 전승에서 아사달로 비정하던 산으로 알려짐(작성자 일반 지식, 재검증 필요). 표시 구간(-2333~-1000)은 화면용 임의 구간이며 실제 존속 기간 주장이 아님.","source":"korea"},"geometry":{"type":"Point","coordinates":[125.28,38.55]}},{"type":"Feature","properties":{"id":"gj-h1","layer":"hypothesis","nameEn":"Gojoseon – Liaodong-centered","nameKo":"고조선 – 요동중심설","category":"고조선(학설)","role":"korean","startYear":-2333,"endYear":-108,"confidence":"low","license":"original (authored)","wikipedia":null,"wikidata":null,"sources":["KOWIKI_GOJOSEON"],"uiDefault":true,"label":[123.651,40.893],"note":"중심지를 랴오닝(요동)에 두는 견해. 북한도 1970년대 이전에는 랴오닝성설을 취했다고 정리됨. 연대는 전승(기원전 2333)~한 무제 멸망(기원전 108)을 화면용으로 씀.","source":"korea"},"geometry":{"type":"MultiPolygon","coordinates":[[[[121.3194,39.4542],[121.3302,39.4761],[121.3518,39.4829],[121.4238,39.4744],[121.449,39.4508],[121.4418,39.4407],[121.4166,39.4407],[121.4346,39.417],[121.4346,39.3866],[121.4202,39.3731],[121.4022,39.3714],[121.3374,39.3782],[121.3554,39.4069],[121.3806,39.4255],[121.377,39.4423],[121.341,39.4407],[121.3,39.3943],[121.3,39.4454],[121.3194,39.4542]]],[[[121.3266,39.6028],[121.3806,39.6011],[121.449,39.6146],[121.4706,39.6315],[121.4634,39.6467],[121.4994,39.6534],[121.5246,39.618],[121.5318,39.623],[121.539,39.6416],[121.5246,39.6534],[121.5498,39.6787],[121.539,39.6923],[121.5174,39.6872],[121.5066,39.6939],[121.4922,39.721],[121.4562,39.748],[121.485,39.7632],[121.4886,39.7784],[121.4778,39.7868],[121.4706,39.8105],[121.5102,39.824],[121.5354,39.8611],[121.5678,39.8594],[121.6146,39.8712],[121.6362,39.8966],[121.6866,39.9219],[121.7082,39.927],[121.773,39.9202],[121.8054,39.9489],[121.809,39.9658],[121.8378,39.9709],[121.8738,39.9911],[121.881,39.9979],[121.8738,40.0165],[121.827,40.0232],[121.881,40.0418],[121.9278,40.0772],[121.9314,40.1009],[121.9962,40.1245],[122.007,40.1566],[121.9926,40.187],[122.0394,40.1971],[122.0934,40.2275],[122.1078,40.263],[122.1078,40.3103],[122.1798,40.3525],[122.2122,40.3812],[122.205,40.4268],[122.2518,40.4302],[122.2518,40.4538],[122.2878,40.4724],[122.2878,40.4893],[122.3022,40.5028],[122.277,40.5433],[122.2266,40.5788],[122.1762,40.5872],[122.151,40.6041],[122.1366,40.6243],[122.169,40.6531],[122.169,40.6868],[122.1582,40.702],[122.1222,40.6801],[122.0682,40.7358],[121.8702,40.8152],[121.8522,40.832],[121.8414,40.9131],[121.827,40.9334],[121.827,40.9486],[121.8594,40.9671],[121.8738,40.9891],[121.8666,40.9958],[121.7766,40.935],[121.7802,40.908],[121.7406,40.8489],[121.575,40.8422],[121.5102,40.8793],[121.449,40.8861],[121.431,40.9131],[121.3626,40.9401],[121.3,40.9008],[121.3,42.5],[123.5,42.8],[125.3,42],[125.5,40.6],[124.6,39.8],[124.5649,39.7825],[124.5666,39.8071],[124.5558,39.8172],[124.4334,39.8307],[124.419,39.824],[124.4046,39.8408],[124.3974,39.8662],[124.3614,39.8712],[124.3506,39.8932],[124.3218,39.9135],[124.3686,39.9405],[124.383,40.003],[124.4046,40.0283],[124.4658,40.0148],[124.4982,40.0232],[124.4118,40.0367],[124.3902,40.0485],[124.3686,40.0975],[124.3578,40.0891],[124.3614,40.0114],[124.3074,39.9607],[124.3002,39.9405],[124.1166,39.8324],[124.0878,39.8527],[124.041,39.824],[123.987,39.8105],[123.9438,39.8408],[123.9114,39.824],[123.8862,39.8223],[123.807,39.8375],[123.7746,39.8189],[123.7206,39.8307],[123.6414,39.878],[123.6558,39.9202],[123.6306,39.9033],[123.591,39.7851],[123.5622,39.7699],[123.5334,39.7969],[123.5118,39.7986],[123.4938,39.7902],[123.429,39.726],[123.411,39.7345],[123.4074,39.7463],[123.4182,39.824],[123.3966,39.8189],[123.4038,39.8105],[123.3858,39.7902],[123.3138,39.7767],[123.2742,39.8105],[123.2634,39.7969],[123.2562,39.8003],[123.2526,39.8172],[123.2346,39.802],[123.267,39.7547],[123.249,39.748],[123.2094,39.7547],[123.2058,39.7345],[123.2562,39.7243],[123.2706,39.7075],[123.267,39.7007],[123.1734,39.6652],[123.1266,39.6652],[123.1086,39.6906],[123.0582,39.6754],[123.0078,39.6804],[122.9934,39.6652],[122.979,39.6669],[122.979,39.6585],[122.997,39.65],[122.9934,39.6365],[122.9646,39.6112],[122.9466,39.6196],[122.871,39.6061],[122.8494,39.618],[122.781,39.5605],[122.709,39.5352],[122.6874,39.5183],[122.6766,39.515],[122.6478,39.5318],[122.637,39.5082],[122.5866,39.4677],[122.5614,39.4862],[122.5542,39.4812],[122.5614,39.4609],[122.4966,39.4271],[122.4462,39.412],[122.3958,39.4103],[122.385,39.3951],[122.3562,39.3883],[122.3202,39.3613],[122.2914,39.3512],[122.2662,39.3174],[122.2518,39.3241],[122.241,39.2853],[122.115,39.2009],[122.1042,39.1587],[122.1366,39.1587],[122.1618,39.1468],[122.1258,39.1418],[122.0718,39.1046],[122.0466,39.0996],[122.0394,39.0911],[122.0502,39.0675],[122.043,39.059],[121.989,39.0624],[121.9602,39.0405],[121.9422,39.0371],[121.9026,39.0489],[121.8882,39.0422],[121.9134,39.0303],[121.9242,39.0084],[121.881,39.027],[121.827,39.0371],[121.8378,39.0151],[121.873,39],[121.7924,39],[121.773,39.0219],[121.7442,39.0337],[121.7262,39.0303],[121.719,39.0202],[121.737,39.0016],[121.6722,39.0084],[121.6499,39],[121.3309,39],[121.3266,39.0118],[121.3338,39.027],[121.3518,39.0388],[121.395,39.0422],[121.4274,39.0151],[121.467,39.0151],[121.5462,39.0489],[121.6326,39.0692],[121.6758,39.0877],[121.6902,39.1181],[121.6794,39.1367],[121.6506,39.1587],[121.6434,39.1755],[121.6074,39.1806],[121.593,39.1924],[121.6074,39.2009],[121.6002,39.2211],[121.6254,39.2245],[121.6326,39.2363],[121.5894,39.2634],[121.611,39.2752],[121.6578,39.2667],[121.719,39.2971],[121.737,39.3123],[121.7298,39.3309],[121.7802,39.3714],[121.8378,39.3647],[121.8666,39.3697],[121.9134,39.3951],[121.9422,39.4001],[121.9314,39.417],[121.8486,39.3866],[121.7442,39.3984],[121.7082,39.3951],[121.719,39.3714],[121.5246,39.3647],[121.4922,39.3883],[121.4598,39.4744],[121.4346,39.5082],[121.4202,39.5166],[121.3554,39.5217],[121.3,39.5038],[121.3,39.5936],[121.3266,39.6028]]],[[[123.177,39.0894],[123.1811,39.0905],[123.1725,39.0863],[123.177,39.0894]]],[[[123.1446,39.081],[123.1683,39.0842],[123.1495,39.0748],[123.1446,39.081]]],[[[124.2426,39.802],[124.2246,39.7919],[124.2102,39.7953],[124.221,39.8189],[124.2354,39.8172],[124.2426,39.802]]],[[[123.0186,39.5437],[123.0402,39.5302],[123.0294,39.5082],[123.0042,39.4981],[122.979,39.4998],[122.9646,39.515],[122.9682,39.5403],[122.9898,39.5487],[123.0186,39.5437]]],[[[122.637,39.2279],[122.637,39.2346],[122.7198,39.2414],[122.7414,39.2363],[122.727,39.2093],[122.691,39.1941],[122.6982,39.2211],[122.637,39.2279]]],[[[122.6442,39.2549],[122.5866,39.2583],[122.5326,39.2718],[122.5038,39.2971],[122.5362,39.2988],[122.583,39.2836],[122.6442,39.2786],[122.6838,39.2617],[122.6442,39.2549]]],[[[122.3778,39.1604],[122.3346,39.1468],[122.3202,39.1654],[122.3562,39.1958],[122.403,39.2144],[122.3886,39.1941],[122.403,39.1587],[122.3886,39.1519],[122.3778,39.1604]]]]}},{"type":"Feature","properties":{"id":"gj-h2","layer":"hypothesis","nameEn":"Gojoseon – Pyongyang/Taedong-centered","nameKo":"고조선 – 평양(대동강)중심설","category":"고조선(학설)","role":"korean","startYear":-2333,"endYear":-108,"confidence":"low","license":"original (authored)","wikipedia":null,"wikidata":null,"sources":["KOWIKI_GOJOSEON"],"uiDefault":true,"label":[126.181,39.034],"note":"고조선의 도읍을 처음부터 평양 일대로 보는 견해. 북한은 주체사상 강화 이후 이 입장으로 바뀌었고 정치적 영향이 크다는 비판이 있다고 정리됨.","source":"korea"},"geometry":{"type":"MultiPolygon","coordinates":[[[[127.2,39.2],[126.8,38.3],[125.5,38.1],[124.945,38.2009],[124.9914,38.2266],[124.9662,38.235],[124.9158,38.2283],[124.8726,38.257],[124.869,38.2823],[124.8834,38.3549],[124.9266,38.4089],[124.9482,38.4512],[124.9734,38.463],[124.9734,38.441],[125.0167,38.4984],[125.0203,38.5153],[124.995,38.5356],[124.9986,38.566],[124.9806,38.5845],[124.9842,38.5913],[124.9986,38.593],[125.0167,38.5829],[125.0383,38.5913],[125.0599,38.5677],[125.1031,38.593],[125.1283,38.5795],[125.1355,38.5913],[125.1355,38.6251],[125.1175,38.6453],[125.1247,38.6656],[125.1391,38.6622],[125.1571,38.6318],[125.1787,38.6352],[125.1787,38.6707],[125.2039,38.6521],[125.2687,38.6707],[125.3011,38.6572],[125.3443,38.6876],[125.3983,38.6943],[125.4415,38.6859],[125.4523,38.7044],[125.4631,38.7078],[125.5063,38.6859],[125.5207,38.6521],[125.5315,38.6538],[125.5459,38.6791],[125.5567,38.6774],[125.5855,38.642],[125.6395,38.6268],[125.6575,38.6318],[125.6323,38.6588],[125.5891,38.6656],[125.5279,38.7213],[125.4775,38.7281],[125.4487,38.777],[125.4379,38.7754],[125.4235,38.7551],[125.4127,38.7551],[125.4343,38.7365],[125.4199,38.7298],[125.3875,38.7179],[125.3551,38.7348],[125.3515,38.7213],[125.3407,38.7179],[125.3155,38.7213],[125.3011,38.7348],[125.2975,38.7213],[125.3083,38.7078],[125.2795,38.7027],[125.2615,38.7078],[125.2435,38.7281],[125.2687,38.7551],[125.2543,38.7618],[125.2543,38.7838],[125.2399,38.7939],[125.2255,38.7956],[125.2291,38.772],[125.2183,38.7399],[125.1895,38.7382],[125.1715,38.7635],[125.1463,38.777],[125.1355,38.8041],[125.1535,38.8919],[125.1715,38.9391],[125.2003,38.9746],[125.2003,38.9864],[125.2723,39.081],[125.3335,39.0827],[125.2831,39.0894],[125.2939,39.1435],[125.2867,39.1519],[125.3083,39.1654],[125.3443,39.1688],[125.3299,39.1941],[125.3443,39.2127],[125.3659,39.2211],[125.4127,39.2144],[125.3947,39.2465],[125.4307,39.3005],[125.4451,39.3106],[125.4163,39.3208],[125.4127,39.3343],[125.4199,39.3512],[125.4055,39.3647],[125.4235,39.3579],[125.4451,39.3664],[125.4595,39.3849],[125.3587,39.3984],[125.3587,39.4136],[125.3839,39.4407],[125.3443,39.4339],[125.3443,39.4592],[125.3983,39.5014],[125.4127,39.5386],[125.4415,39.547],[125.4523,39.5707],[125.4451,39.5842],[125.2867,39.5217],[125.2363,39.5622],[125.2111,39.5724],[125.2255,39.5909],[125.1571,39.5909],[125.1715,39.5639],[125.1175,39.5656],[125.0959,39.6028],[125.0383,39.6078],[125.0095,39.6348],[124.9878,39.6382],[124.959,39.6619],[124.9482,39.6635],[124.9374,39.6467],[124.9014,39.6619],[124.8942,39.6923],[124.8798,39.7041],[124.833,39.726],[124.8114,39.7277],[124.8006,39.7395],[124.7718,39.7412],[124.761,39.748],[124.7466,39.7834],[124.7394,39.7615],[124.7538,39.7345],[124.743,39.6906],[124.7574,39.6872],[124.7538,39.672],[124.7286,39.6652],[124.743,39.645],[124.7178,39.6467],[124.6962,39.6382],[124.6494,39.6129],[124.6386,39.5909],[124.6242,39.5977],[124.6278,39.6112],[124.6098,39.6281],[124.6278,39.645],[124.6314,39.6635],[124.6458,39.6703],[124.6458,39.6973],[124.6242,39.6939],[124.6098,39.7142],[124.5846,39.7243],[124.5882,39.7666],[124.5666,39.7784],[124.5666,39.8071],[124.5587,39.8159],[126.4,40],[127.2,39.2]]],[[[124.8798,38.2299],[124.9047,38.2082],[124.8451,38.2191],[124.8798,38.2299]]],[[[124.851,39.5166],[124.8582,39.5285],[124.8438,39.5437],[124.8582,39.5437],[124.8546,39.5741],[124.869,39.5808],[124.869,39.596],[124.8834,39.6044],[124.8798,39.6129],[124.9266,39.6044],[124.9086,39.5943],[124.9338,39.5504],[124.8834,39.5268],[124.8618,39.5082],[124.8186,39.4947],[124.8366,39.5217],[124.851,39.5166]]],[[[124.8834,38.5288],[124.905,38.4951],[124.8402,38.5103],[124.8222,38.5221],[124.8006,38.5086],[124.7898,38.517],[124.7934,38.5339],[124.8438,38.5558],[124.8834,38.5288]]],[[[124.6926,39.5352],[124.7034,39.5369],[124.707,39.5302],[124.6962,39.5031],[124.6854,39.5031],[124.6818,39.5217],[124.6926,39.5352]]],[[[124.6746,39.5707],[124.6998,39.5622],[124.6746,39.5386],[124.6458,39.547],[124.5954,39.5386],[124.6314,39.5656],[124.6746,39.5707]]],[[[124.5918,39.4474],[124.6134,39.4575],[124.6206,39.4322],[124.6026,39.4271],[124.5918,39.4474]]]]}}]}