{"type":"FeatureCollection","properties":{"year":800,"source":"korea","fillHint":"layer in polity|polity_prehistory|hypothesis; prefer uiDefault"},"features":[{"type":"Feature","properties":{"id":"clio-tang-dynasty-763","layer":"polity","nameEn":"Tang Dynasty","nameKo":"당","category":"이웃 정치체(맥락)","role":"context","startYear":763,"endYear":849,"confidence":"context","license":"CC-BY-4.0 (Cliopatria, Seshat) — 단순화·클리핑 등 변경 있음","wikipedia":"Tang dynasty","wikidata":"Q9683","sources":["CLIO"],"uiDefault":false,"label":[119.324,39.902],"note":null,"source":"korea"},"geometry":{"type":"Polygon","coordinates":[[[117.9129,40.5496],[118.0713,40.5496],[118.2003,40.3554],[118.9983,40.2259],[119.5452,40.3554],[119.7596,40.0317],[119.9175,40.0317],[119.3804,39.7729],[119.2153,39.3203],[118.9894,39.1911],[118.0569,39.0618],[118.0457,39.1911],[117.8884,39.1911],[117.5764,38.7389],[117.6549,38.7389],[117.6025,38.4806],[118.0536,38.2869],[118.0674,38.1578],[118.583,38.0933],[118.6476,38.2224],[118.8042,38.2224],[118.7718,38.1578],[119.4571,37.9643],[119.3928,37.8352],[119.2366,37.8352],[118.984,37.3193],[119.14,37.3193],[119.1557,37.1904],[119.7011,37.1904],[119.8266,37.4483],[120.2022,37.5773],[120.1881,37.7062],[120.7538,37.8998],[121.112,37.8352],[121.171,37.6417],[121.4833,37.6417],[121.4969,37.5128],[122.1535,37.5773],[122.1211,37.5128],[122.7129,37.4483],[122.4742,37.126],[122.5664,36.9971],[122.3939,36.8037],[121.9121,36.9326],[121.2121,36.6105],[120.9789,36.6105],[120.9648,36.4172],[120.7318,36.4172],[120.6585,36.0952],[120.3185,36.0308],[119.9865,35.6445],[119.6187,35.5158],[119.2276,34.8079],[119.459,34.8079],[119.4309,34.7436],[119.7113,34.6793],[119.7323,34.5506],[120.3418,34.3577],[120.4894,34.1647],[120.5505,33.5859],[120.9263,33.2002],[120.9192,32.6216],[121.4026,32.4931],[121.5033,32.1717],[121.9112,32],[117,32],[117,41.4312],[117.5986,41.3922],[117.6033,41.2625],[117.7623,41.2625],[117.8467,41.1328],[117.7726,41.0032],[117.8576,40.8736],[117.8209,40.8088],[117.9002,40.8088],[117.8271,40.6792],[117.9129,40.5496]]]}},{"type":"Feature","properties":{"id":"clio-unified-silla-682","layer":"polity","nameEn":"Unified Silla","nameKo":"통일신라","category":"국가(Cliopatria)","role":"korean","startYear":682,"endYear":891,"confidence":"medium","license":"CC-BY-4.0 (Cliopatria, Seshat) — 단순화·클리핑 등 변경 있음","wikipedia":"Unified Silla","wikidata":"Q715257","sources":["CLIO"],"uiDefault":true,"label":[128.058,37.19],"note":null,"source":"korea"},"geometry":{"type":"MultiPolygon","coordinates":[[[[126.3563,33.5217],[126.9988,33.5859],[126.7801,33.2645],[126.7035,33.2645],[126.1388,33.2002],[126.3563,33.5217]]],[[[128.3638,38.8034],[129.1002,37.5773],[129.2563,37.5773],[129.4748,37.2549],[129.4069,37.126],[129.5393,36.9326],[129.3964,36.3528],[129.474,36.3528],[129.4214,36.0952],[129.5765,36.0952],[129.6669,35.9664],[129.5387,35.7089],[129.6161,35.7089],[129.1471,35.0653],[128.5294,35.0653],[128.5451,34.9366],[128.8074,35.001],[128.6849,34.7436],[128.3297,34.8079],[128.3136,34.9366],[128.0821,34.9366],[128.0679,34.7436],[127.7595,34.7436],[127.3783,34.422],[127.2243,34.422],[127.1297,34.5506],[127.2968,34.7436],[127.2196,34.7436],[127.0229,34.4863],[126.6262,34.2933],[126.4246,34.3577],[126.4837,34.4863],[126.3476,34.3577],[126.1166,34.3577],[126.4784,34.8079],[126.1998,34.8723],[126.3812,35.2584],[126.3039,35.2584],[126.5192,35.7089],[126.7678,35.902],[126.6128,35.902],[126.6757,36.0308],[126.5206,36.0308],[126.4286,36.1596],[126.4516,36.6749],[126.2638,36.6105],[126.0498,36.8037],[126.3032,36.9971],[126.6475,37.0615],[126.7023,37.3193],[126.5352,37.4483],[126.6025,37.5773],[126.2459,37.6417],[126.3477,37.8352],[125.8449,37.7707],[125.8347,37.8998],[125.6783,37.8998],[125.3871,37.6417],[125.231,37.6417],[125.2981,37.7707],[125.2093,37.8998],[124.8967,37.8998],[125.0767,38.0933],[124.7637,38.0933],[124.8664,38.2869],[124.7881,38.2869],[124.9614,38.6097],[125.1533,38.6743],[125.1885,38.7389],[125.5734,38.868],[125.7893,39.2557],[126.6368,39.7729],[127.8135,40.1612],[128.2877,40.1612],[128.1714,39.967],[127.9346,39.967],[127.5833,39.7729],[127.6653,39.6436],[127.4414,39.2557],[127.7978,39.1911],[127.761,39.1265],[127.9182,39.1265],[128.002,38.9972],[128.0806,38.9972],[128.2068,38.8034],[128.3638,38.8034]]]]}},{"type":"Feature","properties":{"id":"clio-balhae-741","layer":"polity","nameEn":"Balhae","nameKo":"발해","category":"국가(Cliopatria)","role":"korean","startYear":741,"endYear":824,"confidence":"medium","license":"CC-BY-4.0 (Cliopatria, Seshat) — 단순화·클리핑 등 변경 있음","wikipedia":"Balhae","wikidata":"Q28322","sources":["CLIO"],"uiDefault":true,"label":[126.49,42.041],"note":null,"source":"korea"},"geometry":{"type":"Polygon","coordinates":[[[131.0602,44.1243],[131.014,44.0591],[131.3025,44.1243],[131.2563,44.0591],[132.2937,43.9286],[131.9147,43.2769],[131.7539,43.2769],[131.2251,42.6262],[130.9048,42.6262],[130.6054,42.3012],[130.3221,42.2362],[129.7823,41.7816],[129.6932,41.522],[129.8822,41.1977],[129.7558,40.8736],[129.2378,40.6792],[129.0777,40.4201],[128.289,40.0317],[128.21,40.0317],[128.2877,40.1612],[127.8135,40.1612],[126.6368,39.7729],[125.7893,39.2557],[125.5734,38.868],[125.1885,38.7389],[125.0316,38.7389],[125.39,39.385],[125.3057,39.5143],[124.9907,39.5143],[124.8646,39.7083],[124.5124,39.6436],[124.5072,39.7729],[124.3495,39.7729],[124.2657,39.9023],[124.034,39.7729],[123.5974,39.8376],[122.936,39.6436],[122.1704,39.2557],[121.9519,38.9972],[121.7162,38.9972],[121.4217,38.7389],[121.0293,38.7389],[121.2007,39.0618],[121.5151,39.0618],[121.6901,39.385],[121.2965,39.385],[121.2096,39.5143],[121.2807,39.6436],[121.4383,39.6436],[121.5033,39.9023],[121.7765,39.967],[122.2306,40.4849],[122.1061,40.6792],[121.827,40.744],[121.7443,40.8736],[121.9363,41.1977],[122.49,41.4571],[122.6483,41.8465],[123.1301,42.2362],[123.8156,42.5612],[123.9442,42.8864],[123.864,42.8864],[124.2455,43.4723],[125.0527,44.3201],[126.9667,44.516],[127.3357,44.5813],[127.4264,44.7119],[127.7051,44.6466],[128.6882,44.7773],[129.1627,45.1042],[129.4064,45.1042],[129.36,45.0388],[129.9976,44.908],[129.9857,44.7773],[130.2635,44.7119],[130.2517,44.5813],[130.4137,44.5813],[130.4713,44.3201],[130.7485,44.2548],[130.7024,44.1896],[130.7832,44.1896],[131.0602,44.1243]]]}},{"type":"Feature","properties":{"id":"clio-heian-japan-793","layer":"polity","nameEn":"Heian Japan","nameKo":"헤이안 일본","category":"이웃 정치체(맥락)","role":"context","startYear":793,"endYear":813,"confidence":"context","license":"CC-BY-4.0 (Cliopatria, Seshat) — 단순화·클리핑 등 변경 있음","wikipedia":"Heian period","wikidata":"Q193292","sources":["CLIO"],"uiDefault":false,"label":[130.742,33.779],"note":null,"source":"korea"},"geometry":{"type":"Polygon","coordinates":[[[136.7258,34.9366],[136.5954,34.6793],[136.7942,34.615],[136.9733,34.3577],[136.9093,34.229],[136.4475,34.229],[135.8117,33.3931],[135.4125,33.5217],[135.3511,33.7146],[135.0288,33.8432],[135.1534,34.1004],[135.0168,34.2933],[135.3429,34.4863],[135.4389,34.6793],[134.9125,34.5506],[134.6999,34.7436],[134.4686,34.7436],[133.2463,34.2933],[132.3226,34.2933],[132.1856,33.8432],[131.9085,33.9075],[131.9388,33.9718],[131.0931,33.9718],[131.0971,33.6502],[131.8181,33.7146],[131.6399,33.3288],[132.0885,33.1359],[132.001,32.943],[132.0776,32.943],[131.7807,32.6216],[131.5504,32],[130.1358,32],[130.2089,32.1717],[130.5211,32.3645],[130.5654,32.8145],[130.3736,33.0716],[130.1062,32.8145],[129.8765,32.8145],[129.9333,32.943],[129.6752,32.8788],[129.6841,33.0716],[129.5595,33.1359],[129.617,33.2645],[129.5403,33.2645],[129.5982,33.3931],[129.8283,33.3931],[129.916,33.5859],[130.3293,33.6502],[130.4183,33.8432],[130.8624,33.9718],[130.8761,34.1647],[130.7992,34.1647],[130.9211,34.422],[131.414,34.4863],[131.4759,34.615],[132.5634,35.2584],[132.6925,35.5158],[132.9572,35.5802],[133.4661,35.5158],[135.3788,35.7733],[135.2786,35.5802],[135.7095,35.5158],[135.7763,35.6445],[136.0421,35.7089],[135.9109,35.902],[135.9789,36.0308],[135.9013,36.0308],[136.0039,36.224],[136.6357,36.6749],[136.6995,36.9326],[136.5732,37.126],[136.7178,37.3838],[137,37.5208],[137,37.1385],[136.9627,37.126],[137,37.0962],[137,34.7436],[136.9363,34.7436],[136.7258,34.9366]]]}},{"type":"Feature","properties":{"id":"cap-gyeongju","layer":"site","nameEn":"Geumseong (Gyeongju)","nameKo":"금성(경주)","category":"도읍","role":"korean","startYear":-57,"endYear":935,"confidence":"high","license":"original (authored)","wikipedia":null,"wikidata":null,"sources":["KOWIKI_SILLA"],"uiDefault":false,"label":null,"note":"사로국~신라~통일신라 도읍(건국 -57은 삼국사기 기준). 935년 고려에 항복.","source":"korea"},"geometry":{"type":"Point","coordinates":[129.22,35.835]}},{"type":"Feature","properties":{"id":"sogyeong-geumgwan","layer":"site","nameEn":"Geumgwan-gyeong","nameKo":"금관경(김해)","category":"통일신라 5소경","role":"korean","startYear":685,"endYear":935,"confidence":"medium","license":"original (authored)","wikipedia":null,"wikidata":null,"sources":["GK","KOWIKI_SILLA"],"uiDefault":false,"label":null,"note":"통일신라 5소경 체제(대략 신문왕 대 완성으로 알려짐, 연도 근사). 좌표는 현행 시 중심 기준.","source":"korea"},"geometry":{"type":"Point","coordinates":[128.889,35.228]}},{"type":"Feature","properties":{"id":"sogyeong-jungwon","layer":"site","nameEn":"Jungwon-gyeong","nameKo":"중원경(충주)","category":"통일신라 5소경","role":"korean","startYear":685,"endYear":935,"confidence":"medium","license":"original (authored)","wikipedia":null,"wikidata":null,"sources":["GK","KOWIKI_SILLA"],"uiDefault":false,"label":null,"note":"통일신라 5소경 체제(대략 신문왕 대 완성으로 알려짐, 연도 근사). 좌표는 현행 시 중심 기준.","source":"korea"},"geometry":{"type":"Point","coordinates":[127.93,36.99]}},{"type":"Feature","properties":{"id":"sogyeong-seowon","layer":"site","nameEn":"Seowon-gyeong","nameKo":"서원경(청주)","category":"통일신라 5소경","role":"korean","startYear":685,"endYear":935,"confidence":"medium","license":"original (authored)","wikipedia":null,"wikidata":null,"sources":["GK","KOWIKI_SILLA"],"uiDefault":false,"label":null,"note":"통일신라 5소경 체제(대략 신문왕 대 완성으로 알려짐, 연도 근사). 좌표는 현행 시 중심 기준.","source":"korea"},"geometry":{"type":"Point","coordinates":[127.49,36.64]}},{"type":"Feature","properties":{"id":"sogyeong-namwon","layer":"site","nameEn":"Namwon-gyeong","nameKo":"남원경(남원)","category":"통일신라 5소경","role":"korean","startYear":685,"endYear":935,"confidence":"medium","license":"original (authored)","wikipedia":null,"wikidata":null,"sources":["GK","KOWIKI_SILLA"],"uiDefault":false,"label":null,"note":"통일신라 5소경 체제(대략 신문왕 대 완성으로 알려짐, 연도 근사). 좌표는 현행 시 중심 기준.","source":"korea"},"geometry":{"type":"Point","coordinates":[127.39,35.42]}},{"type":"Feature","properties":{"id":"sogyeong-bugwon","layer":"site","nameEn":"Bugwon-gyeong","nameKo":"북원경(원주)","category":"통일신라 5소경","role":"korean","startYear":685,"endYear":935,"confidence":"medium","license":"original (authored)","wikipedia":null,"wikidata":null,"sources":["GK","KOWIKI_SILLA"],"uiDefault":false,"label":null,"note":"통일신라 5소경 체제(대략 신문왕 대 완성으로 알려짐, 연도 근사). 좌표는 현행 시 중심 기준.","source":"korea"},"geometry":{"type":"Point","coordinates":[127.95,37.34]}},{"type":"Feature","properties":{"id":"stele-bukhansan","layer":"site","nameEn":"Bukhansan Monument (Jinheung)","nameKo":"북한산 순수비","category":"영역 증거(순수비)","role":"korean","startYear":555,"endYear":2026,"confidence":"medium","license":"original (authored)","wikipedia":null,"wikidata":null,"sources":["KOWIKI_SILLA","GK"],"uiDefault":false,"label":null,"note":"진흥왕 한강 유역 진출(553) 이후의 순수비로 알려짐(연도 근사).","source":"korea"},"geometry":{"type":"Point","coordinates":[126.96,37.62]}},{"type":"Feature","properties":{"id":"stele-changnyeong","layer":"site","nameEn":"Changnyeong Monument (Jinheung)","nameKo":"창녕 순수비","category":"영역 증거(순수비)","role":"korean","startYear":561,"endYear":2026,"confidence":"medium","license":"original (authored)","wikipedia":null,"wikidata":null,"sources":["KOWIKI_SILLA","GK"],"uiDefault":false,"label":null,"note":"가야 방면 진출 관련 순수비로 알려짐(연도 근사).","source":"korea"},"geometry":{"type":"Point","coordinates":[128.49,35.54]}},{"type":"Feature","properties":{"id":"stele-hwangchoryeong","layer":"site","nameEn":"Hwangchoryeong Monument (Jinheung)","nameKo":"황초령 순수비","category":"영역 증거(순수비)","role":"korean","startYear":568,"endYear":2026,"confidence":"low","license":"original (authored)","wikipedia":null,"wikidata":null,"sources":["KOWIKI_SILLA","GK"],"uiDefault":false,"label":null,"note":"함경도 방면 진출을 보여 주는 순수비로 알려짐. 좌표는 지명 기준 개략.","source":"korea"},"geometry":{"type":"Point","coordinates":[127.45,40.25]}},{"type":"Feature","properties":{"id":"stele-maunryeong","layer":"site","nameEn":"Maunryeong Monument (Jinheung)","nameKo":"마운령 순수비","category":"영역 증거(순수비)","role":"korean","startYear":568,"endYear":2026,"confidence":"low","license":"original (authored)","wikipedia":null,"wikidata":null,"sources":["KOWIKI_SILLA","GK"],"uiDefault":false,"label":null,"note":"함경도 방면 진출을 보여 주는 순수비로 알려짐. 좌표는 지명 기준 개략.","source":"korea"},"geometry":{"type":"Point","coordinates":[128.4,40.35]}},{"type":"Feature","properties":{"id":"isl-ulleung","layer":"site","nameEn":"Ulleungdo","nameKo":"울릉도","category":"국경·경계","role":"korean","startYear":512,"endYear":2026,"confidence":"medium","license":"original (authored)","wikipedia":null,"wikidata":null,"sources":["GK","KOWIKI_DOKDO"],"uiDefault":false,"label":null,"note":"신라 이사부의 우산국 복속(512)은 위키 정리 본문에는 명시가 없어 작성자 일반 지식으로 표기. 재검증 필요.","source":"korea"},"geometry":{"type":"Point","coordinates":[130.87,37.5]}},{"type":"Feature","properties":{"id":"gr-gwanggaeto-stele","layer":"site","nameEn":"Gwanggaeto Stele (Ji'an)","nameKo":"광개토왕릉비(집안)","category":"고구려 성·유적","role":"korean","startYear":414,"endYear":2026,"confidence":"high","license":"original (authored)","wikipedia":null,"wikidata":null,"sources":["RESEARCH_V02"],"uiDefault":false,"label":null,"note":"414년 장수왕이 건립. 395~410년 원정의 동시대 기록. 신묘년 조 해석은 논쟁.","source":"korea"},"geometry":{"type":"Point","coordinates":[126.2142,41.1447]}},{"type":"Feature","properties":{"id":"bh-shangjing","layer":"site","nameEn":"Shangjing Longquanfu (Ning'an)","nameKo":"상경 용천부(닝안 동경성)","category":"도읍","role":"korean","startYear":756,"endYear":926,"confidence":"high","license":"original (authored)","wikipedia":null,"wikidata":null,"sources":["RESEARCH_V02"],"uiDefault":false,"label":null,"note":"가장 크게 발굴된 발해 도성(당 장안성식 계획). 756~785, 793/794~926 수도, 926년 초 거란 함락.","source":"korea"},"geometry":{"type":"Point","coordinates":[129.2,44.15]}},{"type":"Feature","properties":{"id":"bh-donggyeong","layer":"site","nameEn":"Donggyeong Longyuanfu (Balyeonseong, Hunchun)","nameKo":"동경 용원부(훈춘 팔련성)","category":"5경","role":"korean","startYear":785,"endYear":926,"confidence":"high","license":"original (authored)","wikipedia":null,"wikidata":null,"sources":["RESEARCH_V02"],"uiDefault":false,"label":null,"note":"1942년 훈춘 반랍성 발굴로 비정 확정. 785~794 임시 수도. 산하 염주(경주·염주·목주·하주 중 염주 중심=크라스키노 유적).","source":"korea"},"geometry":{"type":"Point","coordinates":[130.37,42.86]}},{"type":"Feature","properties":{"id":"bh-namgyeong","layer":"site","nameEn":"Namgyeong Namhaebu (Bukcheong view, disputed)","nameKo":"남경 남해부(북청설, 위치 논쟁)","category":"5경","role":"korean","startYear":785,"endYear":926,"confidence":"low","license":"original (authored)","wikipedia":null,"wikidata":null,"sources":["RESEARCH_V02"],"uiDefault":false,"label":null,"note":"북청(청해토성)이 유력하다는 서술이 많으나 함흥설(정약용)·백운산성설 등이 있어 확정 못 함. 776년 일본 사신 '도호포' 출항 기록이 남해부 해안 발해 존재의 정황 증거.","source":"korea"},"geometry":{"type":"Point","coordinates":[128.3,40.25]}},{"type":"Feature","properties":{"id":"bh-xijing","layer":"site","nameEn":"Seogyeong Aprokbu (Linjiang view)","nameKo":"서경 압록부(임강설)","category":"5경","role":"korean","startYear":785,"endYear":926,"confidence":"medium","license":"original (authored)","wikipedia":null,"wikidata":null,"sources":["RESEARCH_V02"],"uiDefault":false,"label":null,"note":"임강(허난툰 발굴, 2005)이 유력하나 발해 유적이 얇다는 비판. 대안: 집안·평양 등.","source":"korea"},"geometry":{"type":"Point","coordinates":[126.917,41.817]}},{"type":"Feature","properties":{"id":"bh-kraskino","layer":"site","nameEn":"Kraskino gorodishche (Yanzhou), Primorye","nameKo":"크라스키노 성터(염주 비정, 러시아 연해주)","category":"연해주 발해 유적","role":"korean","startYear":700,"endYear":926,"confidence":"high","license":"original (authored)","wikipedia":null,"wikidata":null,"sources":["RESEARCH_V02"],"uiDefault":false,"label":null,"note":"발해 염주(동경 용원부 산하) 치소로 1871년 카파로프 이래 비정. 둘레 약 1.2km 성, 절터·탑지·가마·우물, 10세기 상층에서 거란계 유물. 일본도의 해항으로서 발해 국가 행정의 가장 명확한 증거. 다만 이것만으로 연해주 중·북부 지배가 입증되지는 않음. [v0.4] 이 성터의 '가장 아래 층'을 고구려시기로 본 보고가 있으나 유물 형식이 아니라 14C+층위 추정이고, '고구려 최동단' 주장과는 별개(→ 주장 검증 탭).","source":"korea"},"geometry":{"type":"Point","coordinates":[130.767,42.695]}},{"type":"Feature","properties":{"id":"bh-marianovka","layer":"site","nameEn":"Marianovskoe gorodishche (Kirovsky district)","nameKo":"마리야노프카 성터(키로프 구)","category":"연해주 발해 유적","role":"korean","startYear":700,"endYear":1250,"confidence":"low","license":"original (authored)","wikipedia":null,"wikidata":null,"sources":["RESEARCH_V02"],"uiDefault":false,"label":null,"note":"키로프 구 자료: 8~13세기. 동북아역사넷: 발해 때 사용 뒤 금(金)대에 재사용, 1995년 한러 공동조사; 소속 행정 단위 미상. 일부 요약의 '연해주 최북단 발해 성'은 재확인되지 않음. 발해 영토 확장 증거로 쓰려면 발해기 층위 확정이 먼저 필요.","source":"korea"},"geometry":{"type":"Point","coordinates":[133.5,45.1]}},{"type":"Feature","properties":{"id":"bh-nikolaevka","layer":"site","nameEn":"Nikolaevskoe gorodishche (Partizansk district)","nameKo":"니콜라예프카 성터(파르티잔스크 구)","category":"연해주 발해 유적","role":"korean","startYear":700,"endYear":1250,"confidence":"low","license":"original (authored)","wikipedia":null,"wikidata":null,"sources":["RESEARCH_V02"],"uiDefault":false,"label":null,"note":"발해기(8~10세기)와 금대(12~13세기) 층. 샤브쿠노프 1960~62 발굴. 새 해석은 이 곳이 발해 국경 밖 말갈 수령의 근거지일 수 있다고 봄(동북아역사넷 요약).","source":"korea"},"geometry":{"type":"Point","coordinates":[133.13,43.13]}},{"type":"Feature","properties":{"id":"bh-troitskoe-amur","layer":"site","nameEn":"Troitskoye burial ground (Amur Oblast, Mohe / Troitskaya group)","nameKo":"트로이츠코예 고분군(아무르주, 말갈)","category":"아무르·말갈 유적(발해 관련성 논쟁)","role":"korean","startYear":600,"endYear":1000,"confidence":"medium","license":"original (authored)","wikipedia":null,"wikidata":null,"sources":["RESEARCH_V02"],"uiDefault":false,"label":null,"note":"연해주가 아니라 아무르주 이바노프 구(벨라야 강 좌안). 백두산에서 직선 약 1,000km. 데레뱐코 발굴(1969~74)·알킨과 지린대(2004~05), 약 1,100기 이상 무덤 자리. 러시아 학계는 말갈 문화(트로이츠카야 그룹)로 보며 편년은 6~8세기설부터 8세기~11세기 초설까지 갈림(일부는 926년 이후). 네스테로프·볼코프는 트로이츠카야 그룹을 송화강 유역의 발해(속말)말갈이 8세기에 이주해 형성한 집단으로 해석 — 발해 건국 집단과의 '문화·인구 연결' 가설이며 발해 국가 통치의 증거는 아님. 정석배(2018)는 취락에서 회색 도편 9점이 상경·크라스키노 토기와 비슷하다며 발해 거주·서쪽 아무르 평원(약 북위 50.7°)까지 영역 가능성을 제기(신문 보도만 열람, 논문 미열람). NRICH 2007 목록은 '초기 중세'로만 분류. 아직 이 지역에서 발해 행정 유적(성터·관청·불교 유적)이 확인된 사례는 열람 범위에서 못 찾음.","source":"korea"},"geometry":{"type":"Point","coordinates":[127.933,50.75]}},{"type":"Feature","properties":{"id":"bh-ext-mid","layer":"hypothesis","nameEn":"Balhae – mid period (schematic)","nameKo":"발해 – 문왕기 중기(741~817, 상경 이전·남해부 해안)","category":"발해 영역(작성)","role":"korean","startYear":741,"endYear":817,"confidence":"low","license":"original (authored)","wikipedia":null,"wikidata":null,"sources":["RESEARCH_V02"],"uiDefault":true,"label":[128.48,43.025],"note":"756 상경 천도, 776 남해부 해안 출항 기록. 어떤 사료도 이 시기 경계를 진술하지 않아 추측이 많이 들어 있음. 출처 요약의 꼭짓점은 대백과 강역 서술의 지명(박작구·창투·이퉁·농안·아청·이란·싱카이호·올가만·포시예트·북청·영흥만)에 맞춘 도식이며 곳곳의 앵커 좌표는 기억 기반(미검증).","source":"korea"},"geometry":{"type":"MultiPolygon","coordinates":[[[[126,44.4],[127,45.5],[129,46],[131.1,44.9],[131.8,43.5],[130.949,42.649],[130.9315,42.6574],[130.8487,42.6608],[130.7875,42.654],[130.8307,42.6743],[130.8379,42.6912],[130.8271,42.6996],[130.7695,42.681],[130.7443,42.681],[130.7191,42.6996],[130.6579,42.6642],[130.6615,42.6439],[130.6831,42.6439],[130.7335,42.6152],[130.7299,42.5797],[130.7623,42.6],[130.7839,42.5797],[130.8417,42.5576],[130.5228,42.3257],[130.5103,42.3366],[130.4815,42.3399],[130.4671,42.3349],[130.4707,42.3214],[130.4383,42.3095],[130.4203,42.3247],[130.4059,42.3247],[130.4059,42.3079],[130.3843,42.291],[130.3915,42.264],[130.4059,42.2606],[130.4023,42.242],[130.3771,42.2572],[130.3663,42.2555],[130.3591,42.2437],[130.3699,42.2319],[130.3519,42.2167],[130.3339,42.2133],[130.3303,42.1913],[130.3087,42.1829],[130.3159,42.2184],[130.3087,42.2369],[130.2943,42.2369],[130.2295,42.1829],[130.2007,42.1728],[130.2007,42.1019],[130.1755,42.0985],[130.1611,42.085],[130.1683,42.0765],[130.1503,42.0748],[130.1215,42.09],[130.0927,42.09],[130.0747,42.0782],[130.0675,42.0512],[130.0531,42.0512],[130.0351,42.0124],[130.0351,41.9955],[130.0279,41.9921],[130.0135,42.014],[130.0027,42.0107],[130.0027,41.9904],[129.9811,41.982],[130.0027,41.9617],[129.9847,41.9549],[129.9707,41.9241],[129.9398,41.9017],[129.9127,41.911],[129.8983,41.9043],[129.8853,41.8621],[128.3,40.7],[127.5,39.9],[126.9,41.8],[125.3,43.35],[126,44.4]]],[[[130.8739,42.6034],[130.8163,42.6338],[130.8379,42.6422],[130.8883,42.6388],[130.9175,42.6175],[130.9008,42.6008],[130.8739,42.6034]]]]}},{"type":"Feature","properties":{"id":"bh-ne-yilan-tieli","layer":"site","nameEn":"Yilan — majority location of Tieli-fu","nameKo":"이란(依兰) — 철리부 다수설 위치","category":"발해 북동부 조사","role":"korean","startYear":741,"endYear":926,"confidence":"low","license":"original (authored)","wikipedia":null,"wikidata":null,"sources":["RESEARCH_V02"],"uiDefault":false,"label":null,"note":"한국민족문화대백과 '철리부'는 이란을 첫째 설로, 하바롭스크(伯力)를 둘째 설로 제시. 중국어 위키도 이란 일대(마다툰=치소 후보)로 서술. 발굴로 확인된 치소는 못 찾음. 746년 발해 일본 사신단에 철리 사람이 포함(속일본기, 류·먀오 요약)돼 8세기 중반엔 발해와 연결된 정황이 있으나, 철리는 841년에도 당에 독자 조공(류·먀오) — 완전 복속이 아니라 부분적·간헐적 관계로 읽힘.","source":"korea"},"geometry":{"type":"Point","coordinates":[129.562,46.317]}},{"type":"Feature","properties":{"id":"bh-ne-tonghe","layer":"site","nameEn":"Tonghe County — no Balhae/Mohe walled site found","nameKo":"통허현(通河) — 조사 결과: 발해·말갈 성터 못 찾음","category":"발해 북동부 조사","role":"korean","startYear":700,"endYear":926,"confidence":"low","license":"original (authored)","wikipedia":null,"wikidata":null,"sources":["RESEARCH_V02"],"uiDefault":false,"label":null,"note":"'통하지구 일대' 성터를 찾았으나 열람한 목록(하얼빈 시 문물 목록·2024 현 조사 보도)에서 통허현의 발해·말갈 성터를 찾지 못함 — 통허에서 확인된 문화재는 항일 유적뿐. 유일한 연결은 중국어 위키가 철리부 관할에 통허가 들어간다고 출처 없이 적은 것. 이 점은 '성터가 있다'가 아니라 '조사했으나 열람 범위에서 못 찾음'을 표시한 것. 발굴 보고서(《北方文物》 등)와 《중국문물지도집》은 열람하지 못했으므로 '없다'의 증명은 아님. 참고: 통화(通化, 지린성)는 발음이 비슷하나 송화강 하류가 아니라 고구려 국내성 일대(약 41.7°N, 125.9°E).","source":"korea"},"geometry":{"type":"Point","coordinates":[128.746,45.99]}},{"type":"Feature","properties":{"id":"bh-ne-mishan-dangbi","layer":"site","nameEn":"Mishan — candidate for Dongping-fu (Dangbi)","nameKo":"미산(密山) — 동평부 후보(당벽진설)","category":"발해 북동부 조사","role":"korean","startYear":741,"endYear":926,"confidence":"low","license":"original (authored)","wikipedia":null,"wikidata":null,"sources":["RESEARCH_V02"],"uiDefault":false,"label":null,"note":"불열말갈 옛 땅=동평부(대백과). 당벽진을 동평부 이주 치소로 보는 설이 있으나 발굴 확증 못 찾음(중간 정도 연결).","source":"korea"},"geometry":{"type":"Point","coordinates":[131.847,45.53]}},{"type":"Feature","properties":{"id":"bh-ne-suibin-tongren","layer":"site","nameEn":"Suibin — Tongren culture (Heishui-line Mohe), not a Balhae fort","nameKo":"쑤이빈(绥滨) — 동인문화(흑수계 말갈, 발해 성터 아님)","category":"발해 북동부 조사","role":"korean","startYear":500,"endYear":900,"confidence":"low","license":"original (authored)","wikipedia":null,"wikidata":null,"sources":["RESEARCH_V02"],"uiDefault":false,"label":null,"note":"송화강 하류~삼강평원의 동인문화는 흑수말갈 계열로 보는 요약이 있음(신문·백과 수준). 이곳의 말갈 유물만으로 발해 통치를 증명하지는 못함 — 발해 물질문화 자체가 말갈 기반이기 때문.","source":"korea"},"geometry":{"type":"Point","coordinates":[131.853,47.288]}},{"type":"Feature","properties":{"id":"bh-ne-mdj-wall","layer":"line","nameEn":"Mudanjiang border wall (Balhae-era northern defensive line)","nameKo":"목단강 변장(발해 북방 방어선, 약 66km)","category":"발해 북동부 조사","role":"korean","startYear":726,"endYear":926,"confidence":"medium","license":"original (authored)","wikipedia":null,"wikidata":null,"sources":["RESEARCH_V02"],"uiDefault":false,"label":null,"note":"공식 문화·관광청 자료의 구간별 좌표 범위(bbox) 세 곳의 중심을 이은 도식선(실제 성벽 선형이 아님). 구간: 목단강시 애민구(44.69~44.80°N) · 강동(44.27~44.34°N) · 경박호(43.87~43.89°N). 류·먀오(2019)는 726년 흑수 원정이 정체된 뒤 쌓았다고 봄 — 발해가 실제로 방어선을 그은 곳이 북위 44.3~44.8°(이란보다 훨씬 남쪽)라는 점이 '북동쪽으로 크게 뻗었다'는 해석에 대한 가장 큰 반증. 해석 일부는 요약 경유.","source":"korea"},"geometry":{"type":"LineString","coordinates":[[129.55,44.742],[129.6,44.305],[128.99,43.88]]}},{"type":"Feature","properties":{"id":"bh-h-amur-heishui","layer":"hypothesis","nameEn":"Contested – Heishui/Amur reach (Troitskoye reading)","nameKo":"[논쟁] 흑수말갈·아무르 중류(발해 영향권 최대 해석 — 트로이츠코예 포함)","category":"발해 북동부(논쟁)","role":"korean","startYear":725,"endYear":926,"confidence":"speculative","license":"original (authored)","wikipedia":null,"wikidata":null,"sources":["RESEARCH_V02"],"uiDefault":true,"label":[130.071,47.3],"note":"정석배(2018)의 '서쪽 아무르 평원(약 북위 50.7°)까지' 서술, 대백과 '선왕이 흑수말갈을 통제' 서술을 시각화한 상자형 도식이며 근거 있는 경계가 아님. 반대 증거: ① 신당서 부·주 목록에 흑수 땅 부가 없음, ② 당이 725/726년 흑수주(도독부)를 두어 흑수말갈이 당과 독자 교섭, ③ 우리역사넷 '흑수말갈은 끝까지 완전 복속되지 않았다', ④ Kradin(2023) 요약은 러시아 내 발해를 연해주 남·서부로 한정, ⑤ 아무르주에서 발해 성터·관청 유적이 확인된 사례를 열람 범위에서 못 찾음. 트로이츠코예는 말갈 묘지이며 송화강 발해말갈 이주설(네스테로프·볼코프)이 연결점일 뿐 영토 증거는 아님.","source":"korea"},"geometry":{"type":"Polygon","coordinates":[[[134,50.8],[136,49],[136,47.6],[132.6,47.6],[129.6,47],[127,48.4],[126,49.8],[126,51.4],[130,51.6],[134,50.8]]]}},{"type":"Feature","properties":{"id":"bh-east-nikolaevka","layer":"site","nameEn":"Nikolaevka fortress (Partizansk area) — attribution disputed","nameKo":"니콜라예프카 성터(수찬/파르티잔스카야 계곡; 귀속 논란)","category":"발해 최동단 검증","role":"korean","startYear":700,"endYear":1234,"confidence":"low","license":"original (authored)","wikipedia":null,"wikidata":null,"sources":["RESEARCH_V02"],"uiDefault":false,"label":null,"note":"둘레 1.55km·성벽 10m의 대형 성. 발해→여진 재사용. 정리부 치소 후보로 거론되지만 발해 행정 영역 안인지 자체가 논란(겔만·니키틴은 수찬 계곡을 발해 밖으로 본다). 좌표는 지역 근사.","source":"korea"},"geometry":{"type":"Point","coordinates":[133.1,43.15]}}]}