{"type":"FeatureCollection","properties":{"year":1200,"source":"korea","fillHint":"layer in polity|polity_prehistory|hypothesis; prefer uiDefault"},"features":[{"type":"Feature","properties":{"id":"clio-tamna-936","layer":"polity","nameEn":"Tamna","nameKo":"탐라","category":"국가(Cliopatria)","role":"korean","startYear":936,"endYear":1278,"confidence":"medium","license":"CC-BY-4.0 (Cliopatria, Seshat) — 단순화·클리핑 등 변경 있음","wikipedia":"Tamna","wikidata":"Q28057","sources":["CLIO"],"uiDefault":true,"label":[126.568,33.393],"note":null,"source":"korea"},"geometry":{"type":"Polygon","coordinates":[[[126.1388,33.2002],[126.3563,33.5217],[126.9988,33.5859],[126.7801,33.2645],[126.7035,33.2645],[126.1388,33.2002]]]}},{"type":"Feature","properties":{"id":"clio-goryeo-1139","layer":"polity","nameEn":"Goryeo","nameKo":"고려","category":"국가(Cliopatria)","role":"korean","startYear":1139,"endYear":1215,"confidence":"medium","license":"CC-BY-4.0 (Cliopatria, Seshat) — 단순화·클리핑 등 변경 있음","wikipedia":"Goryeo","wikidata":"Q28208","sources":["CLIO"],"uiDefault":true,"label":[127.829,36.868],"note":null,"source":"korea"},"geometry":{"type":"Polygon","coordinates":[[[128.3638,38.8034],[129.1002,37.5773],[129.2563,37.5773],[129.4748,37.2549],[129.4069,37.126],[129.5393,36.9326],[129.3964,36.3528],[129.474,36.3528],[129.4214,36.0952],[129.5765,36.0952],[129.6669,35.9664],[129.5387,35.7089],[129.6161,35.7089],[129.1471,35.0653],[128.5294,35.0653],[128.5451,34.9366],[128.8074,35.001],[128.6849,34.7436],[128.3297,34.8079],[128.3136,34.9366],[128.0821,34.9366],[128.0679,34.7436],[127.7595,34.7436],[127.3783,34.422],[127.2243,34.422],[127.1297,34.5506],[127.2968,34.7436],[127.2196,34.7436],[126.9162,34.422],[126.4722,34.2933],[126.4837,34.4863],[126.3476,34.3577],[126.1166,34.3577],[126.4784,34.8079],[126.1998,34.8723],[126.5192,35.7089],[126.7678,35.902],[126.6128,35.902],[126.6757,36.0308],[126.5206,36.0308],[126.4286,36.1596],[126.4516,36.6749],[126.2638,36.6105],[126.0498,36.8037],[126.3032,36.9971],[126.6475,37.0615],[126.7023,37.3193],[126.5352,37.4483],[126.6025,37.5773],[126.2459,37.6417],[126.3477,37.8352],[125.8449,37.7707],[125.8347,37.8998],[125.6783,37.8998],[125.3871,37.6417],[125.231,37.6417],[125.2981,37.7707],[125.2093,37.8998],[124.8967,37.8998],[125.0767,38.0933],[124.7637,38.0933],[124.8664,38.2869],[124.7881,38.2869],[124.9614,38.6097],[125.1533,38.6743],[125.1885,38.7389],[125.0316,38.7389],[125.3536,39.3203],[126.7653,39.4496],[126.7283,39.385],[127.4784,39.3203],[127.4414,39.2557],[127.7978,39.1911],[127.9234,38.9972],[128.2432,38.868],[128.2068,38.8034],[128.3638,38.8034]]]}},{"type":"Feature","properties":{"id":"clio-great-jin-1139","layer":"polity","nameEn":"Great Jin","nameKo":"금(여진)","category":"이웃 정치체(맥락)","role":"context","startYear":1139,"endYear":1205,"confidence":"context","license":"CC-BY-4.0 (Cliopatria, Seshat) — 단순화·클리핑 등 변경 있음","wikipedia":"Jin dynasty (1115-1234)","wikidata":"Q5066","sources":["CLIO"],"uiDefault":true,"label":[126,44.361],"note":null,"source":"korea"},"geometry":{"type":"Polygon","coordinates":[[[120.0938,46.7429],[120.3028,46.8086],[122.3748,47.0716],[124.5153,47.5323],[126.3935,47.73],[130.0413,47.5323],[129.9913,47.4665],[131.3744,47.3348],[132.0718,47.5982],[132.0917,47.73],[132.4736,47.7959],[132.982,48.1257],[133.4788,48.1257],[134.3252,48.4559],[134.6033,48.3899],[135.1521,48.6542],[136.566,49.0513],[137,49.244],[137,45.3139],[136.7191,45.1042],[136.1484,44.4507],[135.9866,44.4507],[135.2842,43.6027],[134.2218,43.0165],[133.2723,42.6912],[132.9519,42.6912],[132.997,42.7563],[132.5611,42.8213],[132.6062,42.8864],[132.2052,42.8864],[132.271,43.2118],[132.0999,43.0816],[131.7787,43.0816],[131.9147,43.2769],[131.7539,43.2769],[131.2251,42.6262],[130.9048,42.6262],[130.6054,42.3012],[130.3221,42.2362],[129.7823,41.7816],[129.6932,41.522],[129.8822,41.1977],[129.7558,40.8736],[129.2378,40.6792],[129.0777,40.4201],[128.6822,40.2906],[128.368,40.0317],[127.9346,39.967],[127.5833,39.7729],[127.6653,39.6436],[127.4784,39.3203],[126.7283,39.385],[126.7653,39.4496],[125.3536,39.3203],[125.39,39.385],[125.3057,39.5143],[124.8697,39.5789],[124.8646,39.7083],[124.5124,39.6436],[124.3446,39.9023],[124.034,39.7729],[123.5974,39.8376],[122.513,39.4496],[122.1704,39.2557],[122.0653,39.0618],[121.7162,38.9972],[121.4217,38.7389],[121.0293,38.7389],[121.2007,39.0618],[121.5151,39.0618],[121.6901,39.385],[121.2965,39.385],[121.2096,39.5143],[121.2807,39.6436],[121.4383,39.6436],[121.5033,39.9023],[121.7765,39.967],[122.2306,40.4849],[122.1061,40.6792],[121.827,40.744],[121.8237,40.8736],[121.1098,40.8736],[120.9967,40.6792],[120.6473,40.4849],[120.5003,40.2259],[119.3804,39.7729],[119.2153,39.3203],[118.9894,39.1911],[118.4498,39.0618],[118.0569,39.0618],[118.0457,39.1911],[117.776,39.1265],[117.5764,38.7389],[117.6549,38.7389],[117.6025,38.4806],[117.7592,38.4806],[117.7727,38.3515],[118.0536,38.2869],[118.0674,38.1578],[118.583,38.0933],[118.6476,38.2224],[118.8042,38.2224],[118.7718,38.1578],[119.4571,37.9643],[119.3928,37.8352],[119.2366,37.8352],[118.984,37.3193],[119.14,37.3193],[119.1557,37.1904],[119.7011,37.1904],[119.8266,37.4483],[120.2022,37.5773],[120.1881,37.7062],[120.7538,37.8998],[121.112,37.8352],[121.171,37.6417],[121.4833,37.6417],[121.4969,37.5128],[122.1535,37.5773],[122.1211,37.5128],[122.7129,37.4483],[122.4424,37.0615],[122.5664,36.9971],[122.5031,36.8682],[122.1605,36.8037],[122.1456,36.9326],[121.9121,36.9326],[121.2121,36.6105],[120.9789,36.6105],[120.9648,36.4172],[120.7318,36.4172],[120.6585,36.0952],[120.3185,36.0308],[119.9865,35.6445],[119.6187,35.5158],[119.2276,34.8079],[119.459,34.8079],[119.7603,34.615],[119.7323,34.5506],[118.8192,34.0361],[117,33.3365],[117,43.7442],[118.9324,45.3659],[120.0938,46.7429]]]}},{"type":"Feature","properties":{"id":"clio-kamakura-shogunate-1192","layer":"polity","nameEn":"Kamakura Shogunate","nameKo":"가마쿠라 막부","category":"이웃 정치체(맥락)","role":"context","startYear":1192,"endYear":1332,"confidence":"context","license":"CC-BY-4.0 (Cliopatria, Seshat) — 단순화·클리핑 등 변경 있음","wikipedia":"Kamakura shogunate","wikidata":"Q736839","sources":["CLIO"],"uiDefault":false,"label":[132.534,33.425],"note":null,"source":"korea"},"geometry":{"type":"MultiPolygon","coordinates":[[[[130.5287,32.5574],[130.1325,32.1717],[129.9309,32.236],[129.9934,32.5574],[130.5287,32.5574]]],[[[128.7698,32.5574],[128.5681,32.6216],[128.6518,32.8145],[128.8815,32.8145],[128.9299,32.7502],[128.7698,32.5574]]],[[[129.8804,33.8432],[129.8212,33.7146],[129.5908,33.7146],[129.7267,33.8432],[129.8804,33.8432]]],[[[129.3075,34.1004],[129.1065,34.1647],[129.1665,34.2933],[129.3974,34.2933],[129.3075,34.1004]]],[[[129.4275,34.3577],[129.2267,34.422],[129.2873,34.5506],[129.4415,34.5506],[129.4275,34.3577]]],[[[133.3323,36.1596],[133.0996,36.1596],[133.2004,36.3528],[133.4333,36.3528],[133.3323,36.1596]]],[[[136.7258,34.9366],[136.5954,34.6793],[136.7942,34.615],[136.9733,34.3577],[136.9093,34.229],[136.4475,34.229],[135.8117,33.3931],[135.4125,33.5217],[135.3511,33.7146],[135.0288,33.8432],[135.1534,34.1004],[135.0168,34.2933],[135.3429,34.4863],[135.4389,34.6793],[135.2076,34.6793],[134.9083,34.229],[134.7231,34.1647],[134.7065,33.9718],[134.7834,33.9718],[134.6599,33.7146],[134.3684,33.5859],[134.2174,33.2645],[133.9874,33.2645],[133.8473,33.4574],[133.5404,33.4574],[133.1613,33.1359],[133.0334,32.6859],[132.6797,32.7502],[132.6611,32.8788],[132.4314,32.8788],[132.4423,33.0716],[132.3657,33.0716],[132.4539,33.2645],[132.3006,33.2645],[132.3598,33.3931],[132.0233,33.3288],[132.0826,33.4574],[132.556,33.6502],[132.8765,34.1647],[133.0304,34.1647],[133.1227,34.0361],[133.5072,34.0361],[133.6312,34.2933],[134.2328,34.422],[134.2014,34.3577],[134.6319,34.2933],[134.9444,34.615],[134.4686,34.7436],[133.2463,34.2933],[132.3226,34.2933],[132.1856,33.8432],[131.9085,33.9075],[131.9388,33.9718],[131.0931,33.9718],[131.0971,33.6502],[131.8181,33.7146],[131.6399,33.3288],[132.0885,33.1359],[132.001,32.943],[132.0776,32.943],[131.7807,32.6216],[131.5504,32],[130.1358,32],[130.2089,32.1717],[130.5211,32.3645],[130.5654,32.8145],[130.4408,32.8788],[130.3274,32.6216],[130.0979,32.6216],[130.1543,32.7502],[130.0013,32.7502],[129.792,32.6216],[129.6952,32.7502],[129.7518,32.8788],[129.627,32.943],[129.6841,33.0716],[129.5595,33.1359],[129.617,33.2645],[129.5403,33.2645],[129.5982,33.3931],[129.8283,33.3931],[129.916,33.5859],[130.3293,33.6502],[130.4183,33.8432],[130.8624,33.9718],[130.8761,34.1647],[130.7992,34.1647],[130.9211,34.422],[131.414,34.4863],[131.4759,34.615],[132.5634,35.2584],[132.6925,35.5158],[132.9572,35.5802],[133.4661,35.5158],[135.3788,35.7733],[135.2786,35.5802],[135.7095,35.5158],[136.0758,35.7733],[135.9109,35.902],[136.0039,36.224],[136.4529,36.4816],[136.7063,36.8037],[136.5795,36.9971],[136.6511,37.126],[136.5732,37.126],[136.7178,37.3838],[137,37.467],[137,37.1385],[136.9627,37.126],[137,37.0962],[137,34.7436],[136.9363,34.7436],[136.7258,34.9366]]]]}},{"type":"Feature","properties":{"id":"cap-gaegyeong","layer":"site","nameEn":"Gaegyeong (Kaesong)","nameKo":"개경(개성)","category":"도읍","role":"korean","startYear":919,"endYear":1392,"confidence":"high","license":"original (authored)","wikipedia":null,"wikidata":null,"sources":["KOWIKI_GORYEO"],"uiDefault":false,"label":null,"note":"고려 도읍. 몽골 항쟁기 강화도 천도(1232~1270)가 별도로 있음.","source":"korea"},"geometry":{"type":"Point","coordinates":[126.55,37.97]}},{"type":"Feature","properties":{"id":"stele-bukhansan","layer":"site","nameEn":"Bukhansan Monument (Jinheung)","nameKo":"북한산 순수비","category":"영역 증거(순수비)","role":"korean","startYear":555,"endYear":2026,"confidence":"medium","license":"original (authored)","wikipedia":null,"wikidata":null,"sources":["KOWIKI_SILLA","GK"],"uiDefault":false,"label":null,"note":"진흥왕 한강 유역 진출(553) 이후의 순수비로 알려짐(연도 근사).","source":"korea"},"geometry":{"type":"Point","coordinates":[126.96,37.62]}},{"type":"Feature","properties":{"id":"stele-changnyeong","layer":"site","nameEn":"Changnyeong Monument (Jinheung)","nameKo":"창녕 순수비","category":"영역 증거(순수비)","role":"korean","startYear":561,"endYear":2026,"confidence":"medium","license":"original (authored)","wikipedia":null,"wikidata":null,"sources":["KOWIKI_SILLA","GK"],"uiDefault":false,"label":null,"note":"가야 방면 진출 관련 순수비로 알려짐(연도 근사).","source":"korea"},"geometry":{"type":"Point","coordinates":[128.49,35.54]}},{"type":"Feature","properties":{"id":"stele-hwangchoryeong","layer":"site","nameEn":"Hwangchoryeong Monument (Jinheung)","nameKo":"황초령 순수비","category":"영역 증거(순수비)","role":"korean","startYear":568,"endYear":2026,"confidence":"low","license":"original (authored)","wikipedia":null,"wikidata":null,"sources":["KOWIKI_SILLA","GK"],"uiDefault":false,"label":null,"note":"함경도 방면 진출을 보여 주는 순수비로 알려짐. 좌표는 지명 기준 개략.","source":"korea"},"geometry":{"type":"Point","coordinates":[127.45,40.25]}},{"type":"Feature","properties":{"id":"stele-maunryeong","layer":"site","nameEn":"Maunryeong Monument (Jinheung)","nameKo":"마운령 순수비","category":"영역 증거(순수비)","role":"korean","startYear":568,"endYear":2026,"confidence":"low","license":"original (authored)","wikipedia":null,"wikidata":null,"sources":["KOWIKI_SILLA","GK"],"uiDefault":false,"label":null,"note":"함경도 방면 진출을 보여 주는 순수비로 알려짐. 좌표는 지명 기준 개략.","source":"korea"},"geometry":{"type":"Point","coordinates":[128.4,40.35]}},{"type":"Feature","properties":{"id":"gr-gangdong6","layer":"hypothesis","nameEn":"Gangdong Six Garrisons (schematic)","nameKo":"강동6주(개략)","category":"고려(작성)","role":"korean","startYear":993,"endYear":1392,"confidence":"low","license":"original (authored)","wikipedia":null,"wikidata":null,"sources":["KOWIKI_GORYEO"],"uiDefault":true,"label":[125.252,39.928],"note":"993년 서희의 외교담판으로 압록강 동쪽 강동 6주를 확보했다고 정리됨. 범위는 압록강 이남~청천강 이북 서해안 쪽을 도식. Cliopatria의 Goryeo 북계(약 39.4°N)와 비교용.","source":"korea"},"geometry":{"type":"Polygon","coordinates":[[[124.4046,40.0283],[124.4334,40.0249],[124.4658,40.0148],[124.4982,40.0232],[124.4,40.0432],[124.4,40.35],[126.1,40.35],[126.1,39.7],[125.006,39.6356],[124.9878,39.6382],[124.959,39.6619],[124.9482,39.6635],[124.9374,39.6467],[124.9014,39.6619],[124.8942,39.6923],[124.8798,39.7041],[124.833,39.726],[124.8114,39.7277],[124.8006,39.7395],[124.7718,39.7412],[124.761,39.748],[124.7466,39.7834],[124.7394,39.7615],[124.7538,39.7345],[124.743,39.6906],[124.7574,39.6872],[124.7538,39.672],[124.7286,39.6652],[124.743,39.645],[124.7178,39.6467],[124.6746,39.6213],[124.6205,39.613],[124.6098,39.6281],[124.6278,39.645],[124.6314,39.6635],[124.6458,39.6703],[124.6458,39.6973],[124.6242,39.6939],[124.6098,39.7142],[124.5846,39.7243],[124.5882,39.7666],[124.5666,39.7784],[124.563,39.8138],[124.4334,39.8307],[124.419,39.824],[124.4046,39.8408],[124.4046,40.0283]]]}},{"type":"Feature","properties":{"id":"gr-cheonri","layer":"line","nameEn":"Goryeo Cheolli Wall (schematic route)","nameKo":"고려 천리장성(개략 경로)","category":"성곽·방어선","role":"korean","startYear":1033,"endYear":1392,"confidence":"low","license":"original (authored)","wikipedia":null,"wikidata":null,"sources":["KOWIKI_GORYEO","GK"],"uiDefault":false,"label":null,"note":"귀주대첩(1018) 뒤 북쪽 국경에 쌓은 방어선으로 정리됨. 경로 좌표는 압록강 하구~영흥만 일대를 잇는 도식이며 실제 성터를 따른 것이 아님.","source":"korea"},"geometry":{"type":"LineString","coordinates":[[124.4,40.1],[124.9,40.35],[125.6,40.5],[126.3,40.5],[127,40.45],[127.6,40.1],[127.65,39.85]]}},{"type":"Feature","properties":{"id":"isl-ulleung","layer":"site","nameEn":"Ulleungdo","nameKo":"울릉도","category":"국경·경계","role":"korean","startYear":512,"endYear":2026,"confidence":"medium","license":"original (authored)","wikipedia":null,"wikidata":null,"sources":["GK","KOWIKI_DOKDO"],"uiDefault":false,"label":null,"note":"신라 이사부의 우산국 복속(512)은 위키 정리 본문에는 명시가 없어 작성자 일반 지식으로 표기. 재검증 필요.","source":"korea"},"geometry":{"type":"Point","coordinates":[130.87,37.5]}},{"type":"Feature","properties":{"id":"gr-gwanggaeto-stele","layer":"site","nameEn":"Gwanggaeto Stele (Ji'an)","nameKo":"광개토왕릉비(집안)","category":"고구려 성·유적","role":"korean","startYear":414,"endYear":2026,"confidence":"high","license":"original (authored)","wikipedia":null,"wikidata":null,"sources":["RESEARCH_V02"],"uiDefault":false,"label":null,"note":"414년 장수왕이 건립. 395~410년 원정의 동시대 기록. 신묘년 조 해석은 논쟁.","source":"korea"},"geometry":{"type":"Point","coordinates":[126.2142,41.1447]}},{"type":"Feature","properties":{"id":"bh-marianovka","layer":"site","nameEn":"Marianovskoe gorodishche (Kirovsky district)","nameKo":"마리야노프카 성터(키로프 구)","category":"연해주 발해 유적","role":"korean","startYear":700,"endYear":1250,"confidence":"low","license":"original (authored)","wikipedia":null,"wikidata":null,"sources":["RESEARCH_V02"],"uiDefault":false,"label":null,"note":"키로프 구 자료: 8~13세기. 동북아역사넷: 발해 때 사용 뒤 금(金)대에 재사용, 1995년 한러 공동조사; 소속 행정 단위 미상. 일부 요약의 '연해주 최북단 발해 성'은 재확인되지 않음. 발해 영토 확장 증거로 쓰려면 발해기 층위 확정이 먼저 필요.","source":"korea"},"geometry":{"type":"Point","coordinates":[133.5,45.1]}},{"type":"Feature","properties":{"id":"bh-nikolaevka","layer":"site","nameEn":"Nikolaevskoe gorodishche (Partizansk district)","nameKo":"니콜라예프카 성터(파르티잔스크 구)","category":"연해주 발해 유적","role":"korean","startYear":700,"endYear":1250,"confidence":"low","license":"original (authored)","wikipedia":null,"wikidata":null,"sources":["RESEARCH_V02"],"uiDefault":false,"label":null,"note":"발해기(8~10세기)와 금대(12~13세기) 층. 샤브쿠노프 1960~62 발굴. 새 해석은 이 곳이 발해 국경 밖 말갈 수령의 근거지일 수 있다고 봄(동북아역사넷 요약).","source":"korea"},"geometry":{"type":"Point","coordinates":[133.13,43.13]}},{"type":"Feature","properties":{"id":"bh-east-nikolaevka","layer":"site","nameEn":"Nikolaevka fortress (Partizansk area) — attribution disputed","nameKo":"니콜라예프카 성터(수찬/파르티잔스카야 계곡; 귀속 논란)","category":"발해 최동단 검증","role":"korean","startYear":700,"endYear":1234,"confidence":"low","license":"original (authored)","wikipedia":null,"wikidata":null,"sources":["RESEARCH_V02"],"uiDefault":false,"label":null,"note":"둘레 1.55km·성벽 10m의 대형 성. 발해→여진 재사용. 정리부 치소 후보로 거론되지만 발해 행정 영역 안인지 자체가 논란(겔만·니키틴은 수찬 계곡을 발해 밖으로 본다). 좌표는 지역 근사.","source":"korea"},"geometry":{"type":"Point","coordinates":[133.1,43.15]}}]}