{"type":"FeatureCollection","properties":{"year":-200,"source":"korea","fillHint":"layer in polity|polity_prehistory|hypothesis; prefer uiDefault"},"features":[{"type":"Feature","properties":{"id":"clio-xiongnu--203","layer":"polity","nameEn":"Xiongnu","nameKo":"흉노","category":"이웃 정치체(맥락)","role":"context","startYear":-203,"endYear":-127,"confidence":"context","license":"CC-BY-4.0 (Cliopatria, Seshat) — 단순화·클리핑 등 변경 있음","wikipedia":"Xiongnu","wikidata":"Q188836","sources":["CLIO"],"uiDefault":true,"label":[123.669,44.451],"note":null,"source":"korea"},"geometry":{"type":"Polygon","coordinates":[[[118.2921,50.246],[118.5441,50.246],[118.4932,50.1795],[118.829,50.1795],[118.7781,50.113],[119.1468,50.0465],[119.0962,49.98],[119.5817,49.8471],[119.5313,49.7807],[119.6987,49.7807],[119.6484,49.7143],[119.8995,49.7143],[121.0958,50.1795],[121.0439,50.113],[121.2956,50.113],[121.2438,50.0465],[121.4954,50.0465],[121.4436,49.98],[121.6113,49.98],[121.5596,49.9136],[122.6095,49.6479],[122.5582,49.5816],[122.7255,49.5816],[122.6743,49.5152],[123.7226,49.25],[123.6718,49.1838],[124.2371,49.0513],[124.1864,48.9851],[124.5703,49.0513],[124.5195,48.9851],[124.686,48.9851],[124.6354,48.9189],[124.8345,48.8527],[124.784,48.7865],[125.0335,48.7865],[124.9831,48.7204],[125.3483,48.6542],[125.2981,48.5881],[125.5801,48.522],[125.53,48.4559],[125.7789,48.4559],[125.7289,48.3899],[125.8948,48.3899],[125.8449,48.3238],[126.0936,48.3238],[126.0437,48.2578],[126.2095,48.2578],[126.1597,48.1917],[126.4082,48.1917],[126.3584,48.1257],[126.524,48.1257],[126.4744,48.0597],[126.7226,48.0597],[126.673,47.9938],[126.8385,47.9938],[126.7889,47.9278],[127.3513,47.7959],[127.3019,47.73],[127.5828,47.6641],[127.5336,47.5982],[127.7811,47.5982],[127.7319,47.5323],[127.8969,47.5323],[127.8478,47.4665],[128.0951,47.4665],[128.046,47.4006],[128.2108,47.4006],[128.1618,47.3348],[128.4089,47.3348],[128.3599,47.269],[128.5246,47.269],[128.4756,47.2032],[128.7226,47.2032],[128.6736,47.1374],[128.8382,47.1374],[128.7893,47.0716],[129.036,47.0716],[128.9872,47.0058],[129.1516,47.0058],[129.1029,46.9401],[129.3494,46.9401],[129.3006,46.8743],[129.5804,46.8086],[129.5318,46.7429],[129.8934,46.6772],[129.7817,46.4145],[129.8636,46.4145],[129.7395,46.0209],[129.8213,46.0209],[129.6313,45.7588],[128.4344,44.6466],[128.2424,44.2548],[127.9905,44.1243],[125.6762,41.7167],[125.5126,41.3274],[124.8366,41.1328],[124.4392,41.2625],[124.4789,41.3274],[124.2404,41.3274],[124.2802,41.3922],[124.0018,41.4571],[124.0417,41.522],[123.8029,41.522],[123.8429,41.5869],[123.5643,41.6518],[123.6044,41.7167],[123.3654,41.7167],[123.4055,41.7816],[123.1268,41.8465],[123.167,41.9114],[122.9277,41.9114],[118.979,40.6144],[117.4527,40.2906],[117,40.0683],[117,50.5928],[118.3431,50.3125],[118.2921,50.246]]]}},{"type":"Feature","properties":{"id":"clio-han-dynasty--202","layer":"polity","nameEn":"Han Dynasty","nameKo":"한(漢)","category":"이웃 정치체(맥락)","role":"context","startYear":-202,"endYear":-198,"confidence":"context","license":"CC-BY-4.0 (Cliopatria, Seshat) — 단순화·클리핑 등 변경 있음","wikipedia":"Han dynasty","wikidata":"Q1068371","sources":["CLIO"],"uiDefault":false,"label":[123.303,40.388],"note":null,"source":"korea"},"geometry":{"type":"Polygon","coordinates":[[[123.8711,39.9023],[123.8762,39.7729],[123.5974,39.8376],[122.936,39.6436],[122.1704,39.2557],[121.9519,38.9972],[121.7162,38.9972],[121.4217,38.7389],[121.0293,38.7389],[121.2007,39.0618],[121.5151,39.0618],[121.6901,39.385],[121.2965,39.385],[121.2096,39.5143],[121.2807,39.6436],[121.4383,39.6436],[121.5033,39.9023],[121.7765,39.967],[122.2306,40.4849],[122.1061,40.6792],[121.827,40.744],[121.8237,40.8736],[121.1098,40.8736],[120.9967,40.6792],[120.6473,40.4849],[120.5003,40.2259],[119.3804,39.7729],[119.2153,39.3203],[118.4498,39.0618],[118.0569,39.0618],[118.0457,39.1911],[117.8884,39.1911],[117.5764,38.7389],[117.6549,38.7389],[117.6025,38.4806],[118.0536,38.2869],[118.0674,38.1578],[118.583,38.0933],[118.6476,38.2224],[118.8042,38.2224],[118.7718,38.1578],[119.4571,37.9643],[119.3928,37.8352],[119.2366,37.8352],[118.984,37.3193],[119.14,37.3193],[119.1557,37.1904],[119.7011,37.1904],[119.8266,37.4483],[120.2022,37.5773],[120.1881,37.7062],[120.7538,37.8998],[121.112,37.8352],[121.171,37.6417],[121.4833,37.6417],[121.4969,37.5128],[122.1535,37.5773],[122.1211,37.5128],[122.7129,37.4483],[122.4742,37.126],[122.5664,36.9971],[122.3939,36.8037],[121.9121,36.9326],[121.2121,36.6105],[120.9789,36.6105],[120.9648,36.4172],[120.7318,36.4172],[120.6585,36.0952],[120.3185,36.0308],[119.9865,35.6445],[119.6187,35.5158],[119.2276,34.8079],[119.459,34.8079],[119.4309,34.7436],[119.7113,34.6793],[119.7323,34.5506],[120.3418,34.3577],[120.4894,34.1647],[120.5505,33.5859],[120.9263,33.2002],[120.9192,32.6216],[121.4026,32.4931],[121.5033,32.1717],[121.7832,32.1074],[121.8684,32],[117,32],[117,40.0683],[117.4527,40.2906],[118.979,40.6144],[122.9277,41.9114],[123.167,41.9114],[123.1268,41.8465],[123.4055,41.7816],[123.3654,41.7167],[123.6044,41.7167],[123.5643,41.6518],[123.8429,41.5869],[123.8029,41.522],[124.0417,41.522],[124.0018,41.4571],[124.2802,41.3922],[124.2404,41.3274],[124.4789,41.3274],[124.4392,41.2625],[124.8366,41.1328],[124.4118,40.2906],[123.8711,39.9023]]]}},{"type":"Feature","properties":{"id":"cul-sehyeong","layer":"hypothesis","nameEn":"Slender bronze dagger area (schematic)","nameKo":"세형동검 분포권(개략)","category":"선사·문화권","role":"korean","startYear":-400,"endYear":-100,"confidence":"low","license":"original (authored)","wikipedia":null,"wikidata":null,"sources":["KOWIKI_GOJOSEON"],"uiDefault":true,"label":[128.162,37.047],"note":"세형동검 시기는 대체로 기원전 4세기 무렵부터로 보는 견해가 소개됨(이청규 1993, 위키 재인용). 분포 경계는 도식.","source":"korea"},"geometry":{"type":"MultiPolygon","coordinates":[[[[127.5429,39.5587],[127.5187,39.5099],[127.5619,39.3444],[127.5619,39.3157],[127.5439,39.3022],[127.5223,39.3157],[127.5259,39.3444],[127.5439,39.3714],[127.4935,39.4339],[127.4683,39.4305],[127.4251,39.3917],[127.3783,39.3782],[127.3891,39.3664],[127.4251,39.3579],[127.4539,39.368],[127.4683,39.3647],[127.4719,39.3478],[127.4683,39.3393],[127.4251,39.3309],[127.4143,39.341],[127.3927,39.341],[127.3999,39.3241],[127.3711,39.2397],[127.3927,39.2026],[127.4539,39.1654],[127.4719,39.1688],[127.4719,39.1941],[127.4899,39.1941],[127.5115,39.157],[127.5331,39.1468],[127.6087,39.1519],[127.6303,39.1468],[127.6627,39.1215],[127.7599,39.1164],[127.8247,39.0438],[127.8499,39.0016],[127.8859,38.9746],[127.8895,38.9611],[127.9147,38.9645],[127.9255,38.9341],[127.9615,38.9172],[128.0155,38.8581],[128.0911,38.8429],[128.2099,38.7281],[128.2819,38.7551],[128.3215,38.7112],[128.3395,38.7027],[128.3611,38.6791],[128.3647,38.6251],[128.4403,38.5052],[128.4727,38.4258],[128.5627,38.289],[128.6419,38.1286],[128.6779,38.0949],[128.6923,38.0645],[128.9227,37.8027],[129.0631,37.6795],[129.0739,37.6136],[129.1099,37.5967],[129.1603,37.487],[129.1891,37.4701],[129.2719,37.3553],[129.2827,37.3249],[129.3295,37.2827],[129.3475,37.2472],[129.3619,37.1712],[129.3799,37.1307],[129.4339,37.0615],[129.4123,37.0175],[129.4375,36.8554],[129.4699,36.7727],[129.4735,36.7305],[129.4627,36.6917],[129.4231,36.6174],[129.4483,36.4941],[129.4411,36.408],[129.4339,36.3894],[129.3907,36.3421],[129.3871,36.3235],[129.3835,36.202],[129.3907,36.1766],[129.4051,36.1682],[129.4159,36.1074],[129.4303,36.0973],[129.4195,36.0736],[129.3979,36.0669],[129.3799,36.0416],[129.4339,35.996],[129.4519,35.9926],[129.4807,36.0095],[129.5563,36.0821],[129.5707,36.0719],[129.5887,36.0162],[129.5347,35.9385],[129.5239,35.844],[129.4951,35.7849],[129.4987,35.7477],[129.4447,35.6363],[129.4663,35.5991],[129.4555,35.513],[129.4123,35.4725],[129.4015,35.513],[129.3871,35.5299],[129.3727,35.5333],[129.3655,35.513],[129.3871,35.5029],[129.3907,35.4759],[129.3871,35.4624],[129.3583,35.4522],[129.3655,35.4066],[129.3475,35.383],[129.3619,35.3678],[129.3619,35.3543],[129.3223,35.3391],[129.2935,35.3155],[129.2683,35.3172],[129.2503,35.2665],[129.2575,35.2462],[129.2287,35.2006],[129.1927,35.155],[129.1207,35.15],[129.1279,35.1263],[129.1243,35.101],[129.1027,35.0926],[129.0631,35.1213],[129.0379,35.0976],[129.0235,35.0605],[129.0127,35.0554],[128.9983,35.0757],[129.0019,35.0453],[128.9839,35.0537],[128.9659,35.0436],[128.9587,35.0504],[128.9515,35.0723],[128.9623,35.1196],[128.9587,35.1365],[128.9191,35.0824],[128.9047,35.0807],[128.9047,35.1213],[128.8975,35.1213],[128.8831,35.0807],[128.7931,35.0824],[128.7823,35.1111],[128.7715,35.0841],[128.7607,35.0791],[128.7391,35.0875],[128.7283,35.1044],[128.6995,35.0959],[128.6959,35.1432],[128.6815,35.1314],[128.6815,35.1162],[128.6383,35.15],[128.6167,35.1432],[128.6239,35.1567],[128.6131,35.177],[128.6095,35.2108],[128.6023,35.2141],[128.5771,35.1888],[128.5771,35.1787],[128.6023,35.1213],[128.6275,35.0909],[128.6311,35.0807],[128.6239,35.0689],[128.6527,35.0622],[128.6023,35.0571],[128.5879,35.0841],[128.5123,35.1044],[128.4691,35.0959],[128.4799,35.0757],[128.3899,35.0487],[128.3827,35.0368],[128.3719,35.0065],[128.4727,35.0504],[128.4871,35.0504],[128.4979,35.02],[128.4907,34.9963],[128.4799,34.9896],[128.4259,34.9929],[128.4187,34.9828],[128.4403,34.9659],[128.4331,34.8899],[128.4439,34.8832],[128.4619,34.9034],[128.4727,34.8899],[128.4367,34.8427],[128.4115,34.8376],[128.3827,34.8393],[128.3827,34.8545],[128.4115,34.8562],[128.4151,34.8629],[128.3539,34.868],[128.3251,34.8883],[128.3251,34.8967],[128.3575,34.9102],[128.3359,34.9474],[128.3179,34.9338],[128.3035,34.9085],[128.2783,34.9068],[128.2567,34.9305],[128.2243,34.9372],[128.2135,34.9322],[128.2063,34.8899],[128.1379,34.8916],[128.1199,34.9001],[128.1163,34.9237],[128.0551,34.9322],[128.0551,35.047],[128.0695,35.0824],[128.0263,35.0352],[128.0011,35.0335],[128.0191,34.998],[128.0083,34.9913],[127.9795,34.9929],[127.9543,34.9794],[127.9255,35.02],[127.9111,34.9625],[127.8895,34.9474],[127.8643,34.944],[127.8427,34.9507],[127.8319,34.944],[127.7995,34.9592],[127.7563,34.9575],[127.7383,34.9659],[127.7203,34.9896],[127.7203,34.9659],[127.7095,34.9406],[127.6627,34.9068],[127.6411,34.8984],[127.6087,34.9406],[127.5907,34.9457],[127.5799,34.9338],[127.5763,34.8967],[127.6015,34.8562],[127.6447,34.8156],[127.6699,34.819],[127.6987,34.8427],[127.7563,34.841],[127.7743,34.8494],[127.7743,34.8292],[127.7419,34.7261],[127.7059,34.716],[127.6555,34.7312],[127.6375,34.6974],[127.6231,34.6974],[127.6375,34.6704],[127.6411,34.6181],[127.6123,34.6367],[127.5727,34.6468],[127.5619,34.662],[127.5547,34.6839],[127.5835,34.7464],[127.5547,34.8004],[127.5367,34.8089],[127.5403,34.8224],[127.5223,34.8595],[127.5295,34.8798],[127.5151,34.8916],[127.4827,34.8393],[127.4431,34.8292],[127.3639,34.8241],[127.4251,34.8004],[127.4251,34.7937],[127.3603,34.7734],[127.3567,34.7599],[127.3675,34.7532],[127.3963,34.7565],[127.4035,34.7464],[127.3927,34.7397],[127.4071,34.7008],[127.4647,34.662],[127.4863,34.6367],[127.4539,34.6367],[127.4935,34.6231],[127.5043,34.5911],[127.4827,34.5759],[127.4539,34.5742],[127.3927,34.6012],[127.3495,34.586],[127.3423,34.5776],[127.3567,34.5539],[127.3819,34.5472],[127.4179,34.5556],[127.4395,34.5404],[127.3747,34.4847],[127.3567,34.4914],[127.3279,34.4746],[127.3315,34.456],[127.3423,34.4458],[127.3171,34.4442],[127.2235,34.5472],[127.1731,34.5269],[127.1803,34.5134],[127.1335,34.5269],[127.1263,34.5404],[127.1227,34.5556],[127.1587,34.5792],[127.1983,34.6316],[127.2127,34.6367],[127.2091,34.6046],[127.1947,34.5742],[127.2451,34.5843],[127.2631,34.6012],[127.2559,34.6417],[127.2415,34.6552],[127.2415,34.6704],[127.2739,34.7059],[127.2919,34.6941],[127.2883,34.6772],[127.3027,34.6552],[127.3135,34.6519],[127.3315,34.6569],[127.3567,34.6974],[127.3315,34.7413],[127.2919,34.7211],[127.2487,34.7667],[127.1983,34.6907],[127.1371,34.6873],[127.1083,34.6603],[127.0111,34.613],[127.0075,34.5809],[126.9859,34.5539],[126.9931,34.5404],[126.9391,34.4965],[126.9391,34.4543],[126.9319,34.4475],[126.9031,34.4594],[126.8923,34.4408],[126.8995,34.4171],[126.8095,34.4509],[126.8023,34.4712],[126.8059,34.5691],[126.7879,34.5894],[126.7771,34.586],[126.7555,34.5573],[126.7663,34.5235],[126.7339,34.5151],[126.7627,34.4796],[126.7087,34.4492],[126.7267,34.4425],[126.7267,34.4323],[126.6907,34.4357],[126.6835,34.4138],[126.6331,34.3952],[126.6043,34.3209],[126.6043,34.3006],[126.5791,34.304],[126.5323,34.2922],[126.5215,34.2939],[126.5287,34.3412],[126.4783,34.3496],[126.4891,34.38],[126.4999,34.3817],[126.5179,34.4138],[126.5143,34.4239],[126.4747,34.434],[126.4855,34.4695],[126.4819,34.4762],[126.4675,34.4729],[126.4711,34.4965],[126.4891,34.5083],[126.5431,34.5134],[126.5143,34.5337],[126.5395,34.5539],[126.5395,34.5624],[126.5215,34.5674],[126.5071,34.5539],[126.4783,34.5607],[126.4675,34.5404],[126.3919,34.5337],[126.3811,34.559],[126.3559,34.5691],[126.3451,34.5843],[126.3415,34.5742],[126.3235,34.5691],[126.2911,34.5995],[126.3019,34.6096],[126.3055,34.6046],[126.3235,34.6096],[126.3199,34.6198],[126.2695,34.6417],[126.2767,34.7025],[126.2911,34.7498],[126.3199,34.7481],[126.3559,34.6974],[126.3451,34.667],[126.3703,34.6096],[126.4639,34.5843],[126.4711,34.6012],[126.4351,34.6063],[126.4135,34.6299],[126.4171,34.6535],[126.3847,34.6367],[126.3775,34.6789],[126.3847,34.6941],[126.3775,34.711],[126.4495,34.7059],[126.4531,34.6704],[126.5359,34.6231],[126.5395,34.6282],[126.5179,34.6502],[126.5323,34.6519],[126.6043,34.6248],[126.6223,34.6299],[126.5863,34.6417],[126.5539,34.6637],[126.5611,34.6704],[126.4891,34.7261],[126.4351,34.7278],[126.4171,34.7397],[126.3919,34.7329],[126.3667,34.7397],[126.3631,34.7498],[126.3919,34.7684],[126.4207,34.765],[126.4603,34.7785],[126.5071,34.7515],[126.5359,34.7464],[126.5323,34.7836],[126.5431,34.7954],[126.5683,34.8004],[126.6367,34.7886],[126.6295,34.8004],[126.6655,34.8089],[126.6511,34.8224],[126.6295,34.8258],[126.5755,34.8224],[126.5755,34.8545],[126.5899,34.8832],[126.5827,34.8984],[126.5683,34.9018],[126.5431,34.8832],[126.5395,34.8747],[126.5503,34.8494],[126.5143,34.7819],[126.4927,34.7802],[126.4855,34.7869],[126.4999,34.8089],[126.4855,34.814],[126.4567,34.8004],[126.4279,34.8055],[126.4207,34.792],[126.3739,34.7903],[126.3703,34.8021],[126.4063,34.8376],[126.4099,34.8747],[126.4243,34.8899],[126.4027,34.9153],[126.3955,34.9355],[126.3991,34.9507],[126.4351,34.9811],[126.3991,34.9845],[126.3703,34.9693],[126.3775,34.9372],[126.3631,34.9271],[126.3163,34.9372],[126.3307,34.944],[126.3019,34.9727],[126.3127,34.9777],[126.3487,34.9727],[126.3451,34.9946],[126.3739,35.0166],[126.3667,35.0385],[126.3379,35.0706],[126.3019,35.0892],[126.3091,35.0656],[126.3019,35.0537],[126.2875,35.0537],[126.2731,35.0689],[126.2839,35.0791],[126.2587,35.1061],[126.2551,35.123],[126.2695,35.1365],[126.2875,35.1399],[126.3163,35.1162],[126.3271,35.123],[126.3415,35.1567],[126.3523,35.1365],[126.3451,35.0959],[126.3559,35.0959],[126.3667,35.074],[126.4099,35.0622],[126.4063,35.0385],[126.4243,35.02],[126.4495,35.0672],[126.4531,35.101],[126.4135,35.1196],[126.4027,35.1415],[126.3703,35.1736],[126.3631,35.1871],[126.3775,35.2125],[126.3667,35.2175],[126.3631,35.2395],[126.3091,35.2327],[126.3199,35.2445],[126.3775,35.253],[126.3559,35.2597],[126.3811,35.2834],[126.3811,35.3273],[126.4099,35.3695],[126.4315,35.3492],[126.4603,35.3459],[126.4171,35.3948],[126.4243,35.4185],[126.4927,35.5248],[126.5611,35.5417],[126.5935,35.5417],[126.6223,35.5687],[126.6439,35.5721],[126.6799,35.5384],[126.6943,35.535],[126.6691,35.589],[126.6547,35.5958],[126.5143,35.5772],[126.4639,35.6025],[126.4675,35.6397],[126.4927,35.6498],[126.5287,35.6836],[126.5971,35.714],[126.6259,35.746],[126.6295,35.7748],[126.6619,35.7933],[126.7339,35.7916],[126.7699,35.7748],[126.7807,35.7596],[126.7915,35.7916],[126.7087,35.8355],[126.7015,35.8406],[126.7051,35.8491],[126.7303,35.8642],[126.7987,35.8626],[126.8131,35.8828],[126.8383,35.893],[126.8095,35.9115],[126.7339,35.8862],[126.6115,35.8896],[126.6079,35.9318],[126.5683,35.9453],[126.5251,35.9402],[126.5215,35.9706],[126.7123,35.9858],[126.7267,35.9943],[126.7447,35.9892],[126.8707,36.0483],[126.8707,36.0618],[126.7915,36.0416],[126.7555,36.0179],[126.6943,35.9993],[126.6763,36.0061],[126.6655,36.0348],[126.6295,36.0753],[126.6439,36.0855],[126.6403,36.0905],[126.6115,36.099],[126.5899,36.131],[126.5719,36.1378],[126.5539,36.131],[126.5503,36.1412],[126.5287,36.153],[126.5107,36.1513],[126.4999,36.126],[126.4927,36.131],[126.4963,36.1598],[126.5323,36.1733],[126.5611,36.1817],[126.6043,36.1716],[126.5899,36.1918],[126.5683,36.2053],[126.5503,36.2053],[126.5359,36.2189],[126.5683,36.2864],[126.5827,36.2948],[126.5719,36.305],[126.5143,36.3219],[126.5827,36.3522],[126.5755,36.3658],[126.5287,36.3691],[126.4999,36.3911],[126.4999,36.3978],[126.5143,36.3978],[126.4999,36.4198],[126.5359,36.4333],[126.5575,36.4553],[126.6187,36.4738],[126.5575,36.4738],[126.5251,36.4417],[126.5071,36.4384],[126.4963,36.4485],[126.4819,36.4975],[126.5143,36.5295],[126.5107,36.5346],[126.4927,36.5279],[126.4711,36.5397],[126.4567,36.5954],[126.5107,36.6038],[126.5215,36.6258],[126.4855,36.6494],[126.5071,36.6697],[126.4999,36.6849],[126.4747,36.6883],[126.4711,36.7052],[126.4783,36.717],[126.4999,36.7204],[126.4783,36.7474],[126.4387,36.717],[126.4459,36.7001],[126.4387,36.6646],[126.4423,36.6376],[126.4243,36.6072],[126.3667,36.6292],[126.3775,36.7018],[126.3667,36.7068],[126.3703,36.7322],[126.3595,36.7423],[126.3415,36.7406],[126.3235,36.7001],[126.3019,36.7001],[126.3307,36.6613],[126.3343,36.6444],[126.3235,36.6359],[126.3415,36.6106],[126.3163,36.6022],[126.2947,36.5819],[126.2875,36.6106],[126.3019,36.6342],[126.2731,36.6731],[126.2803,36.6933],[126.2731,36.7204],[126.2299,36.6849],[126.1795,36.6731],[126.1651,36.6781],[126.1579,36.7018],[126.2047,36.7052],[126.2119,36.7271],[126.2011,36.7423],[126.1579,36.7609],[126.1507,36.7237],[126.1327,36.7035],[126.1291,36.7609],[126.1579,36.7947],[126.1651,36.8166],[126.1867,36.7811],[126.2119,36.7811],[126.1939,36.8082],[126.2335,36.8048],[126.2407,36.8166],[126.1975,36.8234],[126.2119,36.8571],[126.1903,36.8723],[126.1939,36.8858],[126.2335,36.9044],[126.2299,36.8723],[126.2767,36.874],[126.2839,36.9618],[126.3091,36.9669],[126.3055,36.9314],[126.3235,36.8825],[126.3019,36.8571],[126.3091,36.8284],[126.2803,36.8115],[126.2911,36.7896],[126.3163,36.8048],[126.3559,36.7896],[126.3271,36.847],[126.3379,36.8571],[126.3667,36.8352],[126.3739,36.8504],[126.4063,36.8571],[126.4063,36.8639],[126.3775,36.8706],[126.3775,36.8774],[126.4027,36.8808],[126.4171,36.8993],[126.4207,36.923],[126.4099,36.9382],[126.3775,36.9416],[126.3523,36.9551],[126.3559,36.9686],[126.3703,36.9601],[126.3775,36.9753],[126.3703,36.9838],[126.3343,36.9872],[126.3523,37.0007],[126.3919,36.9905],[126.3919,37.0074],[126.4459,37.004],[126.4531,36.9905],[126.4315,36.9618],[126.4387,36.9466],[126.4675,36.9568],[126.4783,36.9365],[126.4783,36.9264],[126.4675,36.9179],[126.4675,36.8538],[126.4855,36.8419],[126.5179,36.9483],[126.5503,36.9264],[126.5611,36.9044],[126.5827,36.8977],[126.5683,36.9314],[126.4927,36.9973],[126.4963,37.0074],[126.5071,37.0074],[126.5395,36.977],[126.5719,36.977],[126.5647,36.9905],[126.5107,37.0159],[126.4999,37.0547],[126.5359,37.0496],[126.6259,36.9956],[126.6367,36.9821],[126.6223,36.9601],[126.6331,36.9382],[126.6295,36.9112],[126.6475,36.9247],[126.6439,36.9584],[126.6655,36.9888],[126.6799,36.9939],[126.7591,36.9821],[126.7951,36.9551],[126.7987,36.9348],[126.7807,36.8909],[126.8131,36.9162],[126.8239,36.9179],[126.8311,36.9095],[126.8383,36.8673],[126.8311,36.8318],[126.8419,36.82],[126.8491,36.7879],[126.8311,36.7744],[126.8311,36.7659],[126.8491,36.7541],[126.8707,36.8048],[126.8635,36.8284],[126.9031,36.8217],[126.8599,36.869],[126.9427,36.8926],[126.9895,36.9179],[127.0003,36.9281],[127.0075,36.9534],[126.9931,36.9669],[127.0399,36.9821],[127.0435,36.9939],[126.9823,36.9804],[126.9715,36.9703],[126.9751,36.9399],[126.9679,36.9314],[126.9139,36.9297],[126.8383,36.9753],[126.8239,37.0024],[126.8851,37.0074],[126.8707,37.0209],[126.8815,37.0226],[126.9103,37.0142],[126.9067,37.0327],[126.8815,37.0699],[126.8923,37.0952],[126.8779,37.1003],[126.8635,37.075],[126.8599,37.0412],[126.8491,37.0378],[126.8383,37.0446],[126.8023,37.0378],[126.7555,37.0496],[126.7519,37.0699],[126.7519,37.1003],[126.7771,37.1324],[126.8635,37.1509],[126.8707,37.1577],[126.8707,37.1763],[126.8635,37.1797],[126.8311,37.1594],[126.8167,37.1611],[126.8059,37.1645],[126.8023,37.1847],[126.7771,37.1763],[126.7159,37.1273],[126.7015,37.1239],[126.6907,37.1256],[126.6871,37.1391],[126.7087,37.1645],[126.6691,37.1611],[126.6691,37.1864],[126.7087,37.1999],[126.7195,37.2134],[126.6799,37.2185],[126.6583,37.2539],[126.6727,37.2624],[126.6799,37.2573],[126.7087,37.2624],[126.7519,37.2489],[126.7663,37.2539],[126.7663,37.232],[126.7807,37.2202],[126.7915,37.2236],[126.8023,37.2539],[126.8203,37.2742],[126.8707,37.2675],[126.8527,37.286],[126.8275,37.2877],[126.8239,37.2962],[126.7843,37.2945],[126.7339,37.3063],[126.6907,37.3333],[126.6871,37.3434],[126.7195,37.3772],[126.7159,37.384],[126.6655,37.389],[126.6403,37.3637],[126.6151,37.3789],[126.6403,37.4144],[126.5971,37.4397],[126.5935,37.4718],[126.6043,37.4853],[126.6403,37.4954],[126.6439,37.5039],[126.6295,37.5072],[126.6259,37.4988],[126.6079,37.4971],[126.6007,37.5072],[126.6043,37.5494],[126.5611,37.6069],[126.5323,37.7555],[126.5359,37.769],[126.5467,37.7707],[126.6043,37.7538],[126.6475,37.7656],[126.6619,37.7571],[126.6691,37.7284],[126.6619,37.6727],[126.6907,37.6525],[126.7555,37.6373],[126.6799,37.6862],[126.7015,37.7436],[126.6835,37.7943],[126.7015,37.8298],[126.6943,37.8365],[126.6655,37.8281],[126.6511,37.7994],[126.5935,37.774],[126.4351,37.8483],[126.3991,37.8922],[126.3775,37.8889],[126.2587,37.845],[126.2011,37.845],[126.1579,37.8298],[126.1471,37.8196],[126.1651,37.769],[126.1615,37.7403],[126.1579,37.7335],[126.1111,37.7403],[126.0859,37.801],[126.0643,37.8027],[126.0571,37.8703],[126.0247,37.8534],[126.0139,37.8551],[125.9995,37.8855],[125.9599,37.9125],[125.9455,37.9024],[125.9491,37.8889],[125.9743,37.8737],[125.9851,37.823],[125.9563,37.8399],[125.9203,37.845],[125.8951,37.8652],[125.8339,37.9429],[125.8051,37.9513],[125.8051,37.9885],[125.7979,37.9935],[125.5963,38.0324],[125.5783,38.0256],[125.5783,38.0087],[125.5963,37.9919],[125.6395,37.9733],[125.6755,37.9783],[125.6863,37.9716],[125.6791,37.953],[125.7007,37.9581],[125.7187,37.953],[125.6971,37.926],[125.7331,37.9328],[125.7403,37.926],[125.7151,37.9074],[125.6863,37.899],[125.6683,37.899],[125.6323,37.926],[125.6287,37.9024],[125.6395,37.8568],[125.6215,37.8365],[125.6431,37.823],[125.6395,37.8129],[125.6107,37.8061],[125.6215,37.7656],[125.5927,37.7639],[125.5747,37.774],[125.5819,37.7825],[125.5711,37.7875],[125.5531,37.7825],[125.5495,37.7707],[125.5279,37.7723],[125.5207,37.7808],[125.5279,37.796],[125.5027,37.7791],[125.4739,37.7318],[125.4379,37.72],[125.3839,37.7166],[125.3623,37.6795],[125.3479,37.6761],[125.3335,37.6862],[125.3479,37.7386],[125.3623,37.7605],[125.3911,37.7538],[125.4451,37.774],[125.3767,37.7825],[125.3911,37.796],[125.4343,37.8196],[125.4559,37.823],[125.5063,37.8129],[125.5243,37.8179],[125.5279,37.8433],[125.4991,37.8399],[125.4775,37.8568],[125.5099,37.8838],[125.5099,37.8939],[125.4631,37.9041],[125.4451,37.9209],[125.4235,37.9125],[125.4307,37.899],[125.3839,37.8922],[125.4451,37.8601],[125.4451,37.8433],[125.3983,37.8652],[125.3479,37.8652],[125.3767,37.8433],[125.3083,37.8095],[125.3011,37.823],[125.2399,37.823],[125.2507,37.8382],[125.2939,37.8601],[125.3083,37.8787],[125.3011,37.8956],[125.2579,37.9142],[125.2615,37.9328],[125.2399,37.9294],[125.2075,37.8804],[125.1751,37.8669],[125.0995,37.8753],[125.0635,37.8956],[125.0131,37.9057],[125.0059,37.9192],[125.0131,37.9395],[124.9806,37.926],[124.9914,37.953],[125.0383,37.9632],[125.0635,37.9783],[125.1355,37.9598],[125.1643,37.9632],[125.1859,37.98],[125.1787,37.9885],[125.1571,37.98],[125.1427,37.9834],[125.1139,38.002],[125.1067,38.0341],[125.1175,38.0425],[125.2003,38.0493],[125.2147,38.0459],[125.2255,38.0223],[125.2471,38.0206],[125.2543,38.0543],[125.2723,38.0628],[125.2651,38.078],[125.1391,38.0982],[125.0131,38.0628],[124.9374,38.0982],[124.887,38.132],[124.8654,38.1067],[124.7934,38.0982],[124.6782,38.1151],[124.6674,38.1253],[124.6746,38.1371],[124.6962,38.1455],[124.7466,38.1472],[124.7646,38.1556],[124.779,38.1793],[124.8222,38.186],[124.8546,38.2266],[124.8798,38.2299],[124.9194,38.1894],[124.9914,38.2266],[124.9662,38.235],[124.9158,38.2283],[124.8726,38.257],[124.869,38.2823],[124.8798,38.3448],[124.9482,38.4512],[124.9734,38.463],[124.9734,38.441],[125.0167,38.4984],[125.0203,38.5153],[124.995,38.5356],[124.9986,38.566],[124.9806,38.5845],[124.9842,38.5913],[124.9986,38.593],[125.0167,38.5829],[125.0383,38.5913],[125.0599,38.5677],[125.1031,38.593],[125.1283,38.5795],[125.1355,38.5913],[125.1355,38.6251],[125.1175,38.6453],[125.1247,38.6656],[125.1391,38.6622],[125.1571,38.6318],[125.1787,38.6352],[125.1787,38.6707],[125.2039,38.6521],[125.2687,38.6707],[125.3011,38.6572],[125.3443,38.6876],[125.3983,38.6943],[125.4415,38.6859],[125.4523,38.7044],[125.4631,38.7078],[125.5063,38.6859],[125.5207,38.6521],[125.5315,38.6538],[125.5459,38.6791],[125.5567,38.6774],[125.5855,38.642],[125.6395,38.6268],[125.6575,38.6318],[125.6323,38.6588],[125.5891,38.6656],[125.5279,38.7213],[125.4775,38.7281],[125.4487,38.777],[125.4379,38.7754],[125.4235,38.7551],[125.4127,38.7551],[125.4343,38.7365],[125.4199,38.7298],[125.3875,38.7179],[125.3551,38.7348],[125.3515,38.7213],[125.3407,38.7179],[125.3155,38.7213],[125.3011,38.7348],[125.2975,38.7213],[125.3083,38.7078],[125.2795,38.7027],[125.2615,38.7078],[125.2435,38.7281],[125.2687,38.7551],[125.2543,38.7618],[125.2543,38.7838],[125.2399,38.7939],[125.2255,38.7956],[125.2291,38.772],[125.2183,38.7399],[125.1895,38.7382],[125.1715,38.7635],[125.1463,38.777],[125.1355,38.8041],[125.1535,38.8919],[125.1715,38.9391],[125.2003,38.9746],[125.2003,38.9864],[125.2723,39.081],[125.3335,39.0827],[125.2831,39.0894],[125.2939,39.1435],[125.2867,39.1519],[125.3083,39.1654],[125.3443,39.1688],[125.3299,39.1941],[125.3443,39.2127],[125.3659,39.2211],[125.4127,39.2144],[125.3947,39.2465],[125.4307,39.3005],[125.4451,39.3106],[125.4163,39.3208],[125.4127,39.3343],[125.4199,39.3512],[125.4055,39.3647],[125.4235,39.3579],[125.4451,39.3664],[125.4595,39.3849],[125.3587,39.3984],[125.3587,39.4136],[125.3839,39.4407],[125.3443,39.4339],[125.3443,39.4592],[125.3983,39.5014],[125.4127,39.5386],[125.4415,39.547],[125.4523,39.5707],[125.4451,39.5842],[125.2867,39.5217],[125.2363,39.5622],[125.2111,39.5724],[125.2255,39.5909],[125.1571,39.5909],[125.1715,39.5639],[125.1175,39.5656],[125.0959,39.6028],[125.0383,39.6078],[125.0095,39.6348],[124.9878,39.6382],[124.959,39.6619],[124.9482,39.6635],[124.9374,39.6467],[124.9014,39.6619],[124.8942,39.6923],[124.8798,39.7041],[124.833,39.726],[124.8114,39.7277],[124.8006,39.7395],[124.7718,39.7412],[124.761,39.748],[124.7466,39.7834],[124.7394,39.7615],[124.7538,39.7345],[124.743,39.6906],[124.7574,39.6872],[124.7538,39.672],[124.7286,39.6652],[124.743,39.645],[124.7178,39.6467],[124.6962,39.6382],[124.6494,39.6129],[124.6386,39.5909],[124.6242,39.5977],[124.6278,39.6112],[124.6098,39.6281],[124.6278,39.645],[124.6314,39.6635],[124.6458,39.6703],[124.6458,39.6973],[124.6242,39.6939],[124.6098,39.7142],[124.5846,39.7243],[124.5882,39.7666],[124.563,39.7868],[124.5654,39.8],[127,39.8],[127.5429,39.5587]]],[[[127.2775,34.044],[127.2811,34.0575],[127.2955,34.0608],[127.3018,34.0298],[127.2883,34.0312],[127.2775,34.044]]],[[[128.8039,35.0571],[128.8363,35.0605],[128.8435,35.0216],[128.8327,34.9946],[128.8255,34.9929],[128.8003,35.0487],[128.8039,35.0571]]],[[[128.6851,34.8089],[128.6815,34.7869],[128.6563,34.7565],[128.6923,34.7363],[128.6779,34.7245],[128.5843,34.7059],[128.6167,34.7261],[128.5987,34.7397],[128.6059,34.7667],[128.5735,34.7532],[128.5627,34.7582],[128.5591,34.7819],[128.5915,34.792],[128.6059,34.8359],[128.5915,34.8427],[128.5303,34.8089],[128.4907,34.8494],[128.4871,34.8697],[128.5231,34.8984],[128.5735,34.9102],[128.6455,34.8899],[128.6167,34.922],[128.6095,34.9541],[128.6239,34.9541],[128.6923,34.9862],[128.6815,35.0048],[128.6887,35.0233],[128.7031,35.0335],[128.7247,35.0183],[128.7175,34.9659],[128.7355,34.9355],[128.7319,34.9102],[128.7139,34.8764],[128.7427,34.8883],[128.7499,34.8697],[128.7355,34.8376],[128.7211,34.8427],[128.7427,34.7903],[128.6851,34.8089]]],[[[128.4367,34.7802],[128.4331,34.7734],[128.4223,34.7633],[128.4079,34.7633],[128.3971,34.7785],[128.3863,34.7785],[128.3863,34.792],[128.3683,34.7971],[128.3791,34.8021],[128.3719,34.8173],[128.3359,34.819],[128.3323,34.8258],[128.3503,34.8359],[128.3863,34.8207],[128.4295,34.8275],[128.4403,34.7937],[128.4223,34.7886],[128.4367,34.7802]]],[[[128.2387,34.6265],[128.2243,34.6333],[128.2315,34.6519],[128.2711,34.6383],[128.2711,34.6316],[128.2963,34.64],[128.2855,34.6215],[128.2351,34.6096],[128.2387,34.6265]]],[[[128.2063,34.8207],[128.2279,34.8393],[128.2603,34.814],[128.2423,34.8072],[128.2387,34.7971],[128.2135,34.8072],[128.2063,34.8207]]],[[[128.0011,34.9136],[128.0191,34.917],[128.0227,34.9051],[128.0119,34.8697],[128.0191,34.8663],[128.0443,34.8933],[128.0587,34.8798],[128.0659,34.8511],[128.0839,34.8359],[128.0263,34.8427],[127.9867,34.8376],[127.9651,34.8595],[127.9687,34.8747],[128.0011,34.9136]]],[[[128.0407,34.6958],[128.0119,34.7093],[127.9759,34.6991],[127.9543,34.7599],[127.9363,34.7667],[127.9147,34.743],[127.9075,34.7126],[127.8679,34.7211],[127.8319,34.8342],[127.8283,34.8697],[127.8391,34.8866],[127.8607,34.8967],[127.8715,34.9237],[127.9039,34.9406],[127.9399,34.9136],[127.9291,34.8883],[127.9039,34.8697],[127.9183,34.8359],[127.9507,34.8241],[127.9615,34.8072],[128.0299,34.8224],[128.0695,34.8156],[128.0731,34.7937],[128.0623,34.7701],[128.0659,34.738],[128.0515,34.7295],[128.0551,34.6974],[128.0407,34.6958]]],[[[127.7383,34.613],[127.7347,34.6248],[127.7455,34.6485],[127.7671,34.6654],[127.7743,34.6907],[127.7599,34.7042],[127.7635,34.7126],[127.7851,34.7177],[127.7995,34.7042],[127.7815,34.6839],[127.8031,34.6704],[127.8175,34.6164],[127.7995,34.5792],[127.7743,34.5843],[127.7383,34.613]]],[[[127.7239,34.5235],[127.7059,34.5337],[127.7131,34.5421],[127.7491,34.5505],[127.7923,34.4914],[127.7707,34.4881],[127.7311,34.5083],[127.7239,34.5235]]],[[[127.4539,34.4526],[127.4575,34.4729],[127.4863,34.461],[127.5115,34.4695],[127.5331,34.4509],[127.5367,34.434],[127.4935,34.4138],[127.4899,34.4256],[127.4539,34.4526]]],[[[127.1191,34.4374],[127.1227,34.456],[127.1119,34.4644],[127.1227,34.4729],[127.2199,34.4864],[127.2451,34.4644],[127.2415,34.4458],[127.2271,34.4306],[127.1695,34.4171],[127.1191,34.4374]]],[[[127.0399,34.3124],[127.0363,34.3209],[127.0507,34.331],[127.0471,34.3361],[127.0255,34.3395],[127.0255,34.3479],[126.9931,34.358],[127.0255,34.3817],[127.0471,34.358],[127.0759,34.3597],[127.0975,34.3378],[127.0723,34.3428],[127.0651,34.3395],[127.0723,34.3344],[127.0399,34.3124]]],[[[126.8527,34.1588],[126.8491,34.174],[126.8599,34.2027],[126.8815,34.2128],[126.8995,34.2094],[126.9247,34.1841],[126.9211,34.1672],[126.9031,34.152],[126.8527,34.1588]]],[[[126.7591,34.3361],[126.8023,34.3395],[126.8383,34.353],[126.8923,34.3412],[126.8779,34.3124],[126.8419,34.304],[126.8203,34.326],[126.7843,34.3226],[126.7591,34.3361]]],[[[126.8347,34.4205],[126.8599,34.3935],[126.8239,34.3952],[126.7951,34.3783],[126.7771,34.3547],[126.7663,34.38],[126.7519,34.3867],[126.7699,34.4121],[126.8023,34.4357],[126.8239,34.4391],[126.8419,34.4323],[126.8347,34.4205]]],[[[126.6907,34.3006],[126.6943,34.3209],[126.6619,34.3243],[126.6439,34.3378],[126.6403,34.3732],[126.6547,34.3952],[126.6871,34.4019],[126.7231,34.3817],[126.7447,34.3243],[126.7699,34.2922],[126.7411,34.2989],[126.7303,34.2888],[126.6907,34.3006]]],[[[126.6367,34.1419],[126.6439,34.1639],[126.6367,34.1875],[126.6439,34.1976],[126.6547,34.1976],[126.6691,34.1892],[126.6727,34.1807],[126.6619,34.1655],[126.6799,34.147],[126.6691,34.1368],[126.6655,34.1183],[126.6475,34.1233],[126.6367,34.1419]]],[[[126.5503,34.1909],[126.5611,34.2348],[126.6079,34.2213],[126.6187,34.2044],[126.6079,34.1875],[126.5827,34.1858],[126.5899,34.179],[126.5827,34.1757],[126.5503,34.1909]]],[[[126.5431,37.2843],[126.5611,37.2793],[126.5755,37.2877],[126.5791,37.2708],[126.6151,37.2556],[126.6187,37.2421],[126.6151,37.232],[126.5611,37.1999],[126.5395,37.1982],[126.5503,37.2151],[126.5467,37.2269],[126.5611,37.2388],[126.5431,37.2843]]],[[[126.5359,34.1267],[126.5179,34.1267],[126.5071,34.1385],[126.5143,34.1689],[126.5323,34.179],[126.5755,34.1672],[126.6007,34.1689],[126.6151,34.1571],[126.6151,34.152],[126.5755,34.1537],[126.5359,34.1267]]],[[[126.5071,37.465],[126.4423,37.4211],[126.4207,37.4228],[126.4171,37.4346],[126.3991,37.4363],[126.3991,37.4448],[126.3847,37.438],[126.3667,37.4431],[126.3703,37.4532],[126.3559,37.4667],[126.4207,37.4971],[126.4747,37.4988],[126.4927,37.5072],[126.4999,37.5309],[126.5143,37.5343],[126.5647,37.514],[126.5827,37.4903],[126.5071,37.465]]],[[[126.4099,37.6406],[126.4171,37.6525],[126.3667,37.7268],[126.3703,37.7859],[126.4063,37.8213],[126.4243,37.8247],[126.5179,37.7673],[126.5215,37.7436],[126.5143,37.7234],[126.5287,37.6964],[126.5287,37.6508],[126.5431,37.6305],[126.5287,37.6254],[126.5071,37.5967],[126.4747,37.6102],[126.4639,37.6035],[126.4099,37.6018],[126.3919,37.6086],[126.3703,37.6305],[126.4099,37.6406]]],[[[126.4351,37.2388],[126.4351,37.2641],[126.4423,37.2725],[126.4603,37.281],[126.4927,37.2742],[126.4999,37.2607],[126.4819,37.2539],[126.4711,37.2337],[126.4351,37.2388]]],[[[126.3523,36.4333],[126.3415,36.4384],[126.3451,36.4536],[126.3631,36.4738],[126.3559,36.4789],[126.3451,36.4671],[126.3379,36.4755],[126.3271,36.4704],[126.3343,36.4958],[126.3163,36.5819],[126.3415,36.6038],[126.3595,36.6089],[126.3739,36.592],[126.3631,36.5667],[126.3811,36.5363],[126.3811,36.5177],[126.4063,36.4941],[126.3847,36.4941],[126.3847,36.4873],[126.4063,36.4789],[126.4063,36.4586],[126.4315,36.408],[126.3631,36.4113],[126.3595,36.4265],[126.3775,36.4468],[126.3523,36.4333]]],[[[126.3127,37.7453],[126.3271,37.7419],[126.3307,37.7166],[126.3775,37.6795],[126.3811,37.6693],[126.3703,37.6575],[126.3487,37.6575],[126.2803,37.6997],[126.2911,37.7048],[126.3127,37.7453]]],[[[126.3055,34.4019],[126.2083,34.358],[126.1579,34.353],[126.1435,34.3547],[126.1579,34.3817],[126.1543,34.3884],[126.1255,34.4036],[126.1255,34.3817],[126.1039,34.4019],[126.1147,34.4357],[126.1435,34.4627],[126.1723,34.4644],[126.1867,34.4948],[126.2227,34.5134],[126.2263,34.5269],[126.2371,34.5151],[126.2695,34.5218],[126.2731,34.537],[126.2659,34.5505],[126.2407,34.5657],[126.2623,34.5759],[126.3091,34.5522],[126.3235,34.5337],[126.3487,34.5472],[126.3811,34.4982],[126.3739,34.4543],[126.3451,34.4087],[126.3343,34.4036],[126.3091,34.4239],[126.3055,34.4019]]],[[[126.2479,34.8443],[126.2299,34.8545],[126.2731,34.8663],[126.2983,34.8866],[126.2875,34.9136],[126.2983,34.917],[126.3343,34.9068],[126.3451,34.8967],[126.3451,34.8899],[126.3199,34.8815],[126.3199,34.8663],[126.3595,34.8579],[126.3631,34.8376],[126.3415,34.8224],[126.3307,34.8258],[126.3415,34.8376],[126.3055,34.8562],[126.2479,34.8443]]],[[[126.2227,37.7605],[126.2191,37.7707],[126.2335,37.8027],[126.2479,37.8112],[126.2623,37.8146],[126.2947,37.8027],[126.3343,37.801],[126.3415,37.7926],[126.3199,37.7622],[126.2551,37.769],[126.2227,37.7605]]],[[[126.2767,35.6127],[126.3091,35.616],[126.3055,35.6025],[126.2587,35.5704],[126.2515,35.5873],[126.2767,35.6127]]],[[[126.1759,35.1061],[126.1975,35.0976],[126.2155,35.1044],[126.2371,35.0976],[126.2191,35.0774],[126.2551,35.0571],[126.2659,35.0335],[126.2623,35.025],[126.2371,35.0318],[126.2371,35.052],[126.1831,35.0622],[126.1579,35.0943],[126.1759,35.1061]]],[[[126.2263,34.9136],[126.2191,34.922],[126.2227,34.9322],[126.2515,34.9338],[126.2479,34.917],[126.2263,34.9136]]],[[[126.1327,35.0402],[126.1399,35.047],[126.1291,35.0487],[126.1363,35.0571],[126.1759,35.0537],[126.1831,35.0385],[126.1831,35.0284],[126.1723,35.0233],[126.1543,35.0352],[126.1327,35.0402]]],[[[126.0679,34.7701],[126.1183,34.7701],[126.1651,34.7549],[126.1795,34.7126],[126.1579,34.7025],[126.1399,34.7228],[126.1111,34.7177],[126.0679,34.7701]]],[[[126.1507,34.8089],[126.1687,34.792],[126.1615,34.7836],[126.1651,34.7701],[126.1471,34.7616],[126.0931,34.7869],[126.1507,34.8089]]],[[[126.1003,35.1128],[126.1111,35.1331],[126.1291,35.1432],[126.1651,35.1432],[126.1291,35.1213],[126.1255,35.1111],[126.1435,35.0824],[126.1219,35.0706],[126.1111,35.0504],[126.0571,35.0622],[126.0679,35.1027],[126.1003,35.1128]]],[[[126.1579,37.232],[126.1543,37.2252],[126.1327,37.2117],[126.1111,37.2151],[126.1039,37.2286],[126.0895,37.2252],[126.1039,37.2675],[126.1579,37.232]]],[[[126.1435,34.8798],[126.1543,34.8646],[126.1399,34.8579],[126.1435,34.8325],[126.1183,34.8241],[126.1147,34.8038],[126.0967,34.7988],[126.0643,34.8427],[126.0823,34.8562],[126.1111,34.8528],[126.1147,34.8714],[126.1435,34.8798]]],[[[126.0319,34.5387],[126.0535,34.5522],[126.0319,34.5556],[126.0355,34.5624],[126.0643,34.564],[126.0823,34.5809],[126.0607,34.6215],[126.0679,34.6248],[126.1003,34.6063],[126.1003,34.559],[126.0787,34.5421],[126.0463,34.532],[126.0319,34.5387]]],[[[126.0319,34.8697],[125.9851,34.8629],[125.9851,34.8697],[126.0283,34.9102],[126.0535,34.9068],[126.0607,34.9271],[126.0715,34.9288],[126.0895,34.9119],[126.0895,34.8832],[126.0679,34.8629],[126.0463,34.8612],[126.0319,34.8697]]],[[[126.0211,34.2956],[126.0247,34.3108],[126.0895,34.3074],[126.0859,34.2837],[126.0499,34.2804],[126.0211,34.2956]]],[[[126.0283,34.5657],[126.0211,34.5708],[126.0175,34.6063],[126.0283,34.635],[126.0607,34.5843],[126.0499,34.5708],[126.0283,34.5657]]],[[[125.9239,34.6704],[125.9167,34.6873],[125.9779,34.7278],[126.0067,34.6924],[125.9851,34.6603],[125.9707,34.6552],[125.9239,34.6704]]],[[[125.9167,34.7177],[125.8987,34.7261],[125.8915,34.7498],[125.9023,34.7717],[125.9887,34.7903],[126.0031,34.7869],[126.0067,34.7599],[125.9851,34.7667],[125.9779,34.7565],[125.9527,34.7599],[125.9383,34.7312],[125.9167,34.7177]]],[[[125.7079,37.6727],[125.7043,37.6609],[125.6863,37.6525],[125.6791,37.6778],[125.7079,37.6727]]],[[[125.3983,34.6316],[125.3911,34.6468],[125.4127,34.6924],[125.4307,34.6991],[125.4379,34.689],[125.4559,34.6907],[125.4091,34.6282],[125.3983,34.6316]]],[[[125.2759,37.7335],[125.2795,37.7487],[125.3371,37.769],[125.2975,37.7284],[125.2471,37.6997],[125.2255,37.6964],[125.2219,37.7031],[125.2651,37.7369],[125.2759,37.7335]]],[[[125.1571,37.7859],[125.1463,37.7859],[125.1463,37.8027],[125.1895,37.8196],[125.1931,37.8112],[125.1571,37.7859]]],[[[125.0275,37.8196],[125.0311,37.8365],[125.0419,37.8348],[125.0419,37.8179],[125.0239,37.8078],[125.0059,37.8061],[124.9986,37.8129],[125.0275,37.8196]]],[[[124.851,39.5166],[124.8582,39.5285],[124.8438,39.5437],[124.8582,39.5437],[124.8546,39.5741],[124.869,39.5808],[124.869,39.596],[124.8834,39.6044],[124.8798,39.6129],[124.9266,39.6044],[124.9086,39.5943],[124.9338,39.5504],[124.8834,39.5268],[124.8618,39.5082],[124.8186,39.4947],[124.8366,39.5217],[124.851,39.5166]]],[[[124.8834,38.5288],[124.905,38.4951],[124.8402,38.5103],[124.8222,38.5221],[124.8006,38.5086],[124.7898,38.517],[124.7934,38.5339],[124.8438,38.5558],[124.8834,38.5288]]],[[[124.6854,37.9192],[124.6458,37.9243],[124.6134,37.9446],[124.6242,37.98],[124.6494,37.9733],[124.7034,37.9885],[124.7322,37.98],[124.743,37.9699],[124.743,37.9547],[124.7286,37.9463],[124.707,37.9564],[124.6782,37.953],[124.6782,37.9412],[124.707,37.9328],[124.6854,37.9192]]],[[[124.6746,37.8162],[124.6782,37.8247],[124.7106,37.8483],[124.725,37.8433],[124.7142,37.8095],[124.6854,37.7994],[124.6746,37.8162]]],[[[124.6926,39.5352],[124.7034,39.5369],[124.707,39.5302],[124.6962,39.5031],[124.6854,39.5031],[124.6818,39.5217],[124.6926,39.5352]]],[[[124.6746,39.5707],[124.6998,39.5622],[124.6746,39.5386],[124.6458,39.547],[124.5954,39.5386],[124.6314,39.5656],[124.6746,39.5707]]],[[[124.5918,39.4474],[124.6134,39.4575],[124.6206,39.4322],[124.6026,39.4271],[124.5918,39.4474]]]]}},{"type":"Feature","properties":{"id":"gj-h1","layer":"hypothesis","nameEn":"Gojoseon – Liaodong-centered","nameKo":"고조선 – 요동중심설","category":"고조선(학설)","role":"korean","startYear":-2333,"endYear":-108,"confidence":"low","license":"original (authored)","wikipedia":null,"wikidata":null,"sources":["KOWIKI_GOJOSEON"],"uiDefault":true,"label":[123.651,40.893],"note":"중심지를 랴오닝(요동)에 두는 견해. 북한도 1970년대 이전에는 랴오닝성설을 취했다고 정리됨. 연대는 전승(기원전 2333)~한 무제 멸망(기원전 108)을 화면용으로 씀.","source":"korea"},"geometry":{"type":"MultiPolygon","coordinates":[[[[121.3194,39.4542],[121.3302,39.4761],[121.3518,39.4829],[121.4238,39.4744],[121.449,39.4508],[121.4418,39.4407],[121.4166,39.4407],[121.4346,39.417],[121.4346,39.3866],[121.4202,39.3731],[121.4022,39.3714],[121.3374,39.3782],[121.3554,39.4069],[121.3806,39.4255],[121.377,39.4423],[121.341,39.4407],[121.3,39.3943],[121.3,39.4454],[121.3194,39.4542]]],[[[121.3266,39.6028],[121.3806,39.6011],[121.449,39.6146],[121.4706,39.6315],[121.4634,39.6467],[121.4994,39.6534],[121.5246,39.618],[121.5318,39.623],[121.539,39.6416],[121.5246,39.6534],[121.5498,39.6787],[121.539,39.6923],[121.5174,39.6872],[121.5066,39.6939],[121.4922,39.721],[121.4562,39.748],[121.485,39.7632],[121.4886,39.7784],[121.4778,39.7868],[121.4706,39.8105],[121.5102,39.824],[121.5354,39.8611],[121.5678,39.8594],[121.6146,39.8712],[121.6362,39.8966],[121.6866,39.9219],[121.7082,39.927],[121.773,39.9202],[121.8054,39.9489],[121.809,39.9658],[121.8378,39.9709],[121.8738,39.9911],[121.881,39.9979],[121.8738,40.0165],[121.827,40.0232],[121.881,40.0418],[121.9278,40.0772],[121.9314,40.1009],[121.9962,40.1245],[122.007,40.1566],[121.9926,40.187],[122.0394,40.1971],[122.0934,40.2275],[122.1078,40.263],[122.1078,40.3103],[122.1798,40.3525],[122.2122,40.3812],[122.205,40.4268],[122.2518,40.4302],[122.2518,40.4538],[122.2878,40.4724],[122.2878,40.4893],[122.3022,40.5028],[122.277,40.5433],[122.2266,40.5788],[122.1762,40.5872],[122.151,40.6041],[122.1366,40.6243],[122.169,40.6531],[122.169,40.6868],[122.1582,40.702],[122.1222,40.6801],[122.0682,40.7358],[121.8702,40.8152],[121.8522,40.832],[121.8414,40.9131],[121.827,40.9334],[121.827,40.9486],[121.8594,40.9671],[121.8738,40.9891],[121.8666,40.9958],[121.7766,40.935],[121.7802,40.908],[121.7406,40.8489],[121.575,40.8422],[121.5102,40.8793],[121.449,40.8861],[121.431,40.9131],[121.3626,40.9401],[121.3,40.9008],[121.3,42.5],[123.5,42.8],[125.3,42],[125.5,40.6],[124.6,39.8],[124.5649,39.7825],[124.5666,39.8071],[124.5558,39.8172],[124.4334,39.8307],[124.419,39.824],[124.4046,39.8408],[124.3974,39.8662],[124.3614,39.8712],[124.3506,39.8932],[124.3218,39.9135],[124.3686,39.9405],[124.383,40.003],[124.4046,40.0283],[124.4658,40.0148],[124.4982,40.0232],[124.4118,40.0367],[124.3902,40.0485],[124.3686,40.0975],[124.3578,40.0891],[124.3614,40.0114],[124.3074,39.9607],[124.3002,39.9405],[124.1166,39.8324],[124.0878,39.8527],[124.041,39.824],[123.987,39.8105],[123.9438,39.8408],[123.9114,39.824],[123.8862,39.8223],[123.807,39.8375],[123.7746,39.8189],[123.7206,39.8307],[123.6414,39.878],[123.6558,39.9202],[123.6306,39.9033],[123.591,39.7851],[123.5622,39.7699],[123.5334,39.7969],[123.5118,39.7986],[123.4938,39.7902],[123.429,39.726],[123.411,39.7345],[123.4074,39.7463],[123.4182,39.824],[123.3966,39.8189],[123.4038,39.8105],[123.3858,39.7902],[123.3138,39.7767],[123.2742,39.8105],[123.2634,39.7969],[123.2562,39.8003],[123.2526,39.8172],[123.2346,39.802],[123.267,39.7547],[123.249,39.748],[123.2094,39.7547],[123.2058,39.7345],[123.2562,39.7243],[123.2706,39.7075],[123.267,39.7007],[123.1734,39.6652],[123.1266,39.6652],[123.1086,39.6906],[123.0582,39.6754],[123.0078,39.6804],[122.9934,39.6652],[122.979,39.6669],[122.979,39.6585],[122.997,39.65],[122.9934,39.6365],[122.9646,39.6112],[122.9466,39.6196],[122.871,39.6061],[122.8494,39.618],[122.781,39.5605],[122.709,39.5352],[122.6874,39.5183],[122.6766,39.515],[122.6478,39.5318],[122.637,39.5082],[122.5866,39.4677],[122.5614,39.4862],[122.5542,39.4812],[122.5614,39.4609],[122.4966,39.4271],[122.4462,39.412],[122.3958,39.4103],[122.385,39.3951],[122.3562,39.3883],[122.3202,39.3613],[122.2914,39.3512],[122.2662,39.3174],[122.2518,39.3241],[122.241,39.2853],[122.115,39.2009],[122.1042,39.1587],[122.1366,39.1587],[122.1618,39.1468],[122.1258,39.1418],[122.0718,39.1046],[122.0466,39.0996],[122.0394,39.0911],[122.0502,39.0675],[122.043,39.059],[121.989,39.0624],[121.9602,39.0405],[121.9422,39.0371],[121.9026,39.0489],[121.8882,39.0422],[121.9134,39.0303],[121.9242,39.0084],[121.881,39.027],[121.827,39.0371],[121.8378,39.0151],[121.873,39],[121.7924,39],[121.773,39.0219],[121.7442,39.0337],[121.7262,39.0303],[121.719,39.0202],[121.737,39.0016],[121.6722,39.0084],[121.6499,39],[121.3309,39],[121.3266,39.0118],[121.3338,39.027],[121.3518,39.0388],[121.395,39.0422],[121.4274,39.0151],[121.467,39.0151],[121.5462,39.0489],[121.6326,39.0692],[121.6758,39.0877],[121.6902,39.1181],[121.6794,39.1367],[121.6506,39.1587],[121.6434,39.1755],[121.6074,39.1806],[121.593,39.1924],[121.6074,39.2009],[121.6002,39.2211],[121.6254,39.2245],[121.6326,39.2363],[121.5894,39.2634],[121.611,39.2752],[121.6578,39.2667],[121.719,39.2971],[121.737,39.3123],[121.7298,39.3309],[121.7802,39.3714],[121.8378,39.3647],[121.8666,39.3697],[121.9134,39.3951],[121.9422,39.4001],[121.9314,39.417],[121.8486,39.3866],[121.7442,39.3984],[121.7082,39.3951],[121.719,39.3714],[121.5246,39.3647],[121.4922,39.3883],[121.4598,39.4744],[121.4346,39.5082],[121.4202,39.5166],[121.3554,39.5217],[121.3,39.5038],[121.3,39.5936],[121.3266,39.6028]]],[[[123.177,39.0894],[123.1811,39.0905],[123.1725,39.0863],[123.177,39.0894]]],[[[123.1446,39.081],[123.1683,39.0842],[123.1495,39.0748],[123.1446,39.081]]],[[[124.2426,39.802],[124.2246,39.7919],[124.2102,39.7953],[124.221,39.8189],[124.2354,39.8172],[124.2426,39.802]]],[[[123.0186,39.5437],[123.0402,39.5302],[123.0294,39.5082],[123.0042,39.4981],[122.979,39.4998],[122.9646,39.515],[122.9682,39.5403],[122.9898,39.5487],[123.0186,39.5437]]],[[[122.637,39.2279],[122.637,39.2346],[122.7198,39.2414],[122.7414,39.2363],[122.727,39.2093],[122.691,39.1941],[122.6982,39.2211],[122.637,39.2279]]],[[[122.6442,39.2549],[122.5866,39.2583],[122.5326,39.2718],[122.5038,39.2971],[122.5362,39.2988],[122.583,39.2836],[122.6442,39.2786],[122.6838,39.2617],[122.6442,39.2549]]],[[[122.3778,39.1604],[122.3346,39.1468],[122.3202,39.1654],[122.3562,39.1958],[122.403,39.2144],[122.3886,39.1941],[122.403,39.1587],[122.3886,39.1519],[122.3778,39.1604]]]]}},{"type":"Feature","properties":{"id":"gj-h2","layer":"hypothesis","nameEn":"Gojoseon – Pyongyang/Taedong-centered","nameKo":"고조선 – 평양(대동강)중심설","category":"고조선(학설)","role":"korean","startYear":-2333,"endYear":-108,"confidence":"low","license":"original (authored)","wikipedia":null,"wikidata":null,"sources":["KOWIKI_GOJOSEON"],"uiDefault":true,"label":[126.181,39.034],"note":"고조선의 도읍을 처음부터 평양 일대로 보는 견해. 북한은 주체사상 강화 이후 이 입장으로 바뀌었고 정치적 영향이 크다는 비판이 있다고 정리됨.","source":"korea"},"geometry":{"type":"MultiPolygon","coordinates":[[[[127.2,39.2],[126.8,38.3],[125.5,38.1],[124.945,38.2009],[124.9914,38.2266],[124.9662,38.235],[124.9158,38.2283],[124.8726,38.257],[124.869,38.2823],[124.8834,38.3549],[124.9266,38.4089],[124.9482,38.4512],[124.9734,38.463],[124.9734,38.441],[125.0167,38.4984],[125.0203,38.5153],[124.995,38.5356],[124.9986,38.566],[124.9806,38.5845],[124.9842,38.5913],[124.9986,38.593],[125.0167,38.5829],[125.0383,38.5913],[125.0599,38.5677],[125.1031,38.593],[125.1283,38.5795],[125.1355,38.5913],[125.1355,38.6251],[125.1175,38.6453],[125.1247,38.6656],[125.1391,38.6622],[125.1571,38.6318],[125.1787,38.6352],[125.1787,38.6707],[125.2039,38.6521],[125.2687,38.6707],[125.3011,38.6572],[125.3443,38.6876],[125.3983,38.6943],[125.4415,38.6859],[125.4523,38.7044],[125.4631,38.7078],[125.5063,38.6859],[125.5207,38.6521],[125.5315,38.6538],[125.5459,38.6791],[125.5567,38.6774],[125.5855,38.642],[125.6395,38.6268],[125.6575,38.6318],[125.6323,38.6588],[125.5891,38.6656],[125.5279,38.7213],[125.4775,38.7281],[125.4487,38.777],[125.4379,38.7754],[125.4235,38.7551],[125.4127,38.7551],[125.4343,38.7365],[125.4199,38.7298],[125.3875,38.7179],[125.3551,38.7348],[125.3515,38.7213],[125.3407,38.7179],[125.3155,38.7213],[125.3011,38.7348],[125.2975,38.7213],[125.3083,38.7078],[125.2795,38.7027],[125.2615,38.7078],[125.2435,38.7281],[125.2687,38.7551],[125.2543,38.7618],[125.2543,38.7838],[125.2399,38.7939],[125.2255,38.7956],[125.2291,38.772],[125.2183,38.7399],[125.1895,38.7382],[125.1715,38.7635],[125.1463,38.777],[125.1355,38.8041],[125.1535,38.8919],[125.1715,38.9391],[125.2003,38.9746],[125.2003,38.9864],[125.2723,39.081],[125.3335,39.0827],[125.2831,39.0894],[125.2939,39.1435],[125.2867,39.1519],[125.3083,39.1654],[125.3443,39.1688],[125.3299,39.1941],[125.3443,39.2127],[125.3659,39.2211],[125.4127,39.2144],[125.3947,39.2465],[125.4307,39.3005],[125.4451,39.3106],[125.4163,39.3208],[125.4127,39.3343],[125.4199,39.3512],[125.4055,39.3647],[125.4235,39.3579],[125.4451,39.3664],[125.4595,39.3849],[125.3587,39.3984],[125.3587,39.4136],[125.3839,39.4407],[125.3443,39.4339],[125.3443,39.4592],[125.3983,39.5014],[125.4127,39.5386],[125.4415,39.547],[125.4523,39.5707],[125.4451,39.5842],[125.2867,39.5217],[125.2363,39.5622],[125.2111,39.5724],[125.2255,39.5909],[125.1571,39.5909],[125.1715,39.5639],[125.1175,39.5656],[125.0959,39.6028],[125.0383,39.6078],[125.0095,39.6348],[124.9878,39.6382],[124.959,39.6619],[124.9482,39.6635],[124.9374,39.6467],[124.9014,39.6619],[124.8942,39.6923],[124.8798,39.7041],[124.833,39.726],[124.8114,39.7277],[124.8006,39.7395],[124.7718,39.7412],[124.761,39.748],[124.7466,39.7834],[124.7394,39.7615],[124.7538,39.7345],[124.743,39.6906],[124.7574,39.6872],[124.7538,39.672],[124.7286,39.6652],[124.743,39.645],[124.7178,39.6467],[124.6962,39.6382],[124.6494,39.6129],[124.6386,39.5909],[124.6242,39.5977],[124.6278,39.6112],[124.6098,39.6281],[124.6278,39.645],[124.6314,39.6635],[124.6458,39.6703],[124.6458,39.6973],[124.6242,39.6939],[124.6098,39.7142],[124.5846,39.7243],[124.5882,39.7666],[124.5666,39.7784],[124.5666,39.8071],[124.5587,39.8159],[126.4,40],[127.2,39.2]]],[[[124.8798,38.2299],[124.9047,38.2082],[124.8451,38.2191],[124.8798,38.2299]]],[[[124.851,39.5166],[124.8582,39.5285],[124.8438,39.5437],[124.8582,39.5437],[124.8546,39.5741],[124.869,39.5808],[124.869,39.596],[124.8834,39.6044],[124.8798,39.6129],[124.9266,39.6044],[124.9086,39.5943],[124.9338,39.5504],[124.8834,39.5268],[124.8618,39.5082],[124.8186,39.4947],[124.8366,39.5217],[124.851,39.5166]]],[[[124.8834,38.5288],[124.905,38.4951],[124.8402,38.5103],[124.8222,38.5221],[124.8006,38.5086],[124.7898,38.517],[124.7934,38.5339],[124.8438,38.5558],[124.8834,38.5288]]],[[[124.6926,39.5352],[124.7034,39.5369],[124.707,39.5302],[124.6962,39.5031],[124.6854,39.5031],[124.6818,39.5217],[124.6926,39.5352]]],[[[124.6746,39.5707],[124.6998,39.5622],[124.6746,39.5386],[124.6458,39.547],[124.5954,39.5386],[124.6314,39.5656],[124.6746,39.5707]]],[[[124.5918,39.4474],[124.6134,39.4575],[124.6206,39.4322],[124.6026,39.4271],[124.5918,39.4474]]]]}},{"type":"Feature","properties":{"id":"gj-h3b","layer":"hypothesis","nameEn":"Gojoseon – migration theory (late: Pyongyang)","nameKo":"고조선 – 중심지 이동설(후기: 평양)","category":"고조선(학설)","role":"korean","startYear":-300,"endYear":-194,"confidence":"low","license":"original (authored)","wikipedia":null,"wikidata":null,"sources":["KOWIKI_GOJOSEON"],"uiDefault":true,"label":[126.181,39.034],"note":"연나라 침입으로 영토를 대거 잃고 평양 일대로 중심이 옮겨진 뒤~위만 집권 직전까지. 위만 집권 이후(-194~)는 Cliopatria 'Gojoseon' 폴리곤이 이어서 표시됨.","source":"korea"},"geometry":{"type":"MultiPolygon","coordinates":[[[[127.2,39.2],[126.8,38.3],[125.5,38.1],[124.945,38.2009],[124.9914,38.2266],[124.9662,38.235],[124.9158,38.2283],[124.8726,38.257],[124.869,38.2823],[124.8834,38.3549],[124.9266,38.4089],[124.9482,38.4512],[124.9734,38.463],[124.9734,38.441],[125.0167,38.4984],[125.0203,38.5153],[124.995,38.5356],[124.9986,38.566],[124.9806,38.5845],[124.9842,38.5913],[124.9986,38.593],[125.0167,38.5829],[125.0383,38.5913],[125.0599,38.5677],[125.1031,38.593],[125.1283,38.5795],[125.1355,38.5913],[125.1355,38.6251],[125.1175,38.6453],[125.1247,38.6656],[125.1391,38.6622],[125.1571,38.6318],[125.1787,38.6352],[125.1787,38.6707],[125.2039,38.6521],[125.2687,38.6707],[125.3011,38.6572],[125.3443,38.6876],[125.3983,38.6943],[125.4415,38.6859],[125.4523,38.7044],[125.4631,38.7078],[125.5063,38.6859],[125.5207,38.6521],[125.5315,38.6538],[125.5459,38.6791],[125.5567,38.6774],[125.5855,38.642],[125.6395,38.6268],[125.6575,38.6318],[125.6323,38.6588],[125.5891,38.6656],[125.5279,38.7213],[125.4775,38.7281],[125.4487,38.777],[125.4379,38.7754],[125.4235,38.7551],[125.4127,38.7551],[125.4343,38.7365],[125.4199,38.7298],[125.3875,38.7179],[125.3551,38.7348],[125.3515,38.7213],[125.3407,38.7179],[125.3155,38.7213],[125.3011,38.7348],[125.2975,38.7213],[125.3083,38.7078],[125.2795,38.7027],[125.2615,38.7078],[125.2435,38.7281],[125.2687,38.7551],[125.2543,38.7618],[125.2543,38.7838],[125.2399,38.7939],[125.2255,38.7956],[125.2291,38.772],[125.2183,38.7399],[125.1895,38.7382],[125.1715,38.7635],[125.1463,38.777],[125.1355,38.8041],[125.1535,38.8919],[125.1715,38.9391],[125.2003,38.9746],[125.2003,38.9864],[125.2723,39.081],[125.3335,39.0827],[125.2831,39.0894],[125.2939,39.1435],[125.2867,39.1519],[125.3083,39.1654],[125.3443,39.1688],[125.3299,39.1941],[125.3443,39.2127],[125.3659,39.2211],[125.4127,39.2144],[125.3947,39.2465],[125.4307,39.3005],[125.4451,39.3106],[125.4163,39.3208],[125.4127,39.3343],[125.4199,39.3512],[125.4055,39.3647],[125.4235,39.3579],[125.4451,39.3664],[125.4595,39.3849],[125.3587,39.3984],[125.3587,39.4136],[125.3839,39.4407],[125.3443,39.4339],[125.3443,39.4592],[125.3983,39.5014],[125.4127,39.5386],[125.4415,39.547],[125.4523,39.5707],[125.4451,39.5842],[125.2867,39.5217],[125.2363,39.5622],[125.2111,39.5724],[125.2255,39.5909],[125.1571,39.5909],[125.1715,39.5639],[125.1175,39.5656],[125.0959,39.6028],[125.0383,39.6078],[125.0095,39.6348],[124.9878,39.6382],[124.959,39.6619],[124.9482,39.6635],[124.9374,39.6467],[124.9014,39.6619],[124.8942,39.6923],[124.8798,39.7041],[124.833,39.726],[124.8114,39.7277],[124.8006,39.7395],[124.7718,39.7412],[124.761,39.748],[124.7466,39.7834],[124.7394,39.7615],[124.7538,39.7345],[124.743,39.6906],[124.7574,39.6872],[124.7538,39.672],[124.7286,39.6652],[124.743,39.645],[124.7178,39.6467],[124.6962,39.6382],[124.6494,39.6129],[124.6386,39.5909],[124.6242,39.5977],[124.6278,39.6112],[124.6098,39.6281],[124.6278,39.645],[124.6314,39.6635],[124.6458,39.6703],[124.6458,39.6973],[124.6242,39.6939],[124.6098,39.7142],[124.5846,39.7243],[124.5882,39.7666],[124.5666,39.7784],[124.5666,39.8071],[124.5587,39.8159],[126.4,40],[127.2,39.2]]],[[[124.8798,38.2299],[124.9047,38.2082],[124.8451,38.2191],[124.8798,38.2299]]],[[[124.851,39.5166],[124.8582,39.5285],[124.8438,39.5437],[124.8582,39.5437],[124.8546,39.5741],[124.869,39.5808],[124.869,39.596],[124.8834,39.6044],[124.8798,39.6129],[124.9266,39.6044],[124.9086,39.5943],[124.9338,39.5504],[124.8834,39.5268],[124.8618,39.5082],[124.8186,39.4947],[124.8366,39.5217],[124.851,39.5166]]],[[[124.8834,38.5288],[124.905,38.4951],[124.8402,38.5103],[124.8222,38.5221],[124.8006,38.5086],[124.7898,38.517],[124.7934,38.5339],[124.8438,38.5558],[124.8834,38.5288]]],[[[124.6926,39.5352],[124.7034,39.5369],[124.707,39.5302],[124.6962,39.5031],[124.6854,39.5031],[124.6818,39.5217],[124.6926,39.5352]]],[[[124.6746,39.5707],[124.6998,39.5622],[124.6746,39.5386],[124.6458,39.547],[124.5954,39.5386],[124.6314,39.5656],[124.6746,39.5707]]],[[[124.5918,39.4474],[124.6134,39.4575],[124.6206,39.4322],[124.6026,39.4271],[124.5918,39.4474]]]]}}]}