{"type":"FeatureCollection","properties":{"year":1800,"source":"korea","fillHint":"layer in polity|polity_prehistory|hypothesis; prefer uiDefault"},"features":[{"type":"Feature","properties":{"id":"clio-joseon-1640","layer":"polity","nameEn":"Joseon","nameKo":"조선","category":"국가(Cliopatria)","role":"korean","startYear":1640,"endYear":1859,"confidence":"medium","license":"CC-BY-4.0 (Cliopatria, Seshat) — 단순화·클리핑 등 변경 있음","wikipedia":"Joseon","wikidata":"Q28405","sources":["CLIO"],"uiDefault":true,"label":[126.756,38.642],"note":null,"source":"korea"},"geometry":{"type":"MultiPolygon","coordinates":[[[[126.3563,33.5217],[126.9988,33.5859],[126.7801,33.2645],[126.7035,33.2645],[126.1388,33.2002],[126.3563,33.5217]]],[[[129.7558,40.8736],[129.2378,40.6792],[129.0777,40.4201],[128.6822,40.2906],[128.368,40.0317],[127.9346,39.967],[127.5833,39.7729],[127.6653,39.6436],[127.4414,39.2557],[127.7978,39.1911],[127.9234,38.9972],[128.3638,38.8034],[128.84,37.9643],[129.1002,37.5773],[129.2563,37.5773],[129.4748,37.2549],[129.4069,37.126],[129.5288,37.0615],[129.3964,36.3528],[129.474,36.3528],[129.4214,36.0952],[129.5765,36.0952],[129.6669,35.9664],[129.5387,35.7089],[129.6161,35.7089],[129.1471,35.0653],[128.5294,35.0653],[128.5451,34.9366],[128.8074,35.001],[128.6849,34.7436],[128.3297,34.8079],[128.3136,34.9366],[128.0821,34.9366],[128.0679,34.7436],[127.7595,34.7436],[127.3783,34.422],[127.2243,34.422],[127.1297,34.5506],[127.2968,34.7436],[127.2196,34.7436],[127.0229,34.4863],[126.6262,34.2933],[126.4246,34.3577],[126.4837,34.4863],[126.3476,34.3577],[126.1166,34.3577],[126.4784,34.8079],[126.1998,34.8723],[126.3812,35.2584],[126.3039,35.2584],[126.5192,35.7089],[126.7678,35.902],[126.6128,35.902],[126.6757,36.0308],[126.5206,36.0308],[126.4286,36.1596],[126.4516,36.6749],[126.2638,36.6105],[126.0498,36.8037],[126.3032,36.9971],[126.6475,37.0615],[126.7023,37.3193],[126.5352,37.4483],[126.6025,37.5773],[126.2459,37.6417],[126.3477,37.8352],[125.8449,37.7707],[125.8347,37.8998],[125.6783,37.8998],[125.3871,37.6417],[125.231,37.6417],[125.2981,37.7707],[125.2093,37.8998],[124.8967,37.8998],[125.0767,38.0933],[124.7637,38.0933],[124.8664,38.2869],[124.7881,38.2869],[124.9614,38.6097],[125.1533,38.6743],[125.1885,38.7389],[125.0316,38.7389],[125.39,39.385],[125.3057,39.5143],[124.8697,39.5789],[124.8646,39.7083],[124.5124,39.6436],[124.3446,39.9023],[124.2657,39.9023],[124.57,40.2906],[126.1071,41.0032],[126.833,41.7816],[127.0722,41.7816],[127.1075,41.5869],[127.3848,41.522],[127.3437,41.4571],[128.0982,41.3922],[128.3436,41.6518],[128.2678,41.7816],[128.1084,41.7816],[128.1503,41.8465],[127.9908,41.8465],[128.0749,41.9764],[128.8355,42.0413],[129.1664,42.3012],[129.6963,42.4962],[129.8433,42.9515],[130.2001,42.8864],[130.3002,42.5612],[130.5404,42.5612],[130.4965,42.4962],[130.6927,42.4312],[130.649,42.3662],[130.3221,42.2362],[129.6977,41.6518],[129.7774,41.6518],[129.7269,41.3274],[129.8822,41.1977],[129.7558,40.8736]]]]}},{"type":"Feature","properties":{"id":"clio-tokugawa-shogunate-1602","layer":"polity","nameEn":"Tokugawa Shogunate","nameKo":"도쿠가와 막부","category":"이웃 정치체(맥락)","role":"context","startYear":1602,"endYear":1855,"confidence":"context","license":"CC-BY-4.0 (Cliopatria, Seshat) — 단순화·클리핑 등 변경 있음","wikipedia":"Tokugawa shogunate","wikidata":"Q205662","sources":["CLIO"],"uiDefault":false,"label":[132.534,33.425],"note":null,"source":"korea"},"geometry":{"type":"MultiPolygon","coordinates":[[[[128.7698,32.5574],[128.5681,32.6216],[128.6518,32.8145],[128.8815,32.8145],[128.9299,32.7502],[128.7698,32.5574]]],[[[129.8804,33.8432],[129.8212,33.7146],[129.5908,33.7146],[129.7267,33.8432],[129.8804,33.8432]]],[[[129.3075,34.1004],[129.1065,34.1647],[129.1665,34.2933],[129.3974,34.2933],[129.3075,34.1004]]],[[[129.4275,34.3577],[129.2267,34.422],[129.2873,34.5506],[129.4415,34.5506],[129.4275,34.3577]]],[[[130.1325,32.1717],[129.9309,32.236],[129.9934,32.5574],[130.5287,32.5574],[130.1325,32.1717]]],[[[133.3323,36.1596],[133.0996,36.1596],[133.2004,36.3528],[133.4333,36.3528],[133.3323,36.1596]]],[[[136.7258,34.9366],[136.5954,34.6793],[136.7942,34.615],[136.9733,34.3577],[136.9093,34.229],[136.4475,34.229],[135.8117,33.3931],[135.4125,33.5217],[135.3511,33.7146],[135.0288,33.8432],[135.1534,34.1004],[135.0168,34.2933],[135.3429,34.4863],[135.4389,34.6793],[135.2076,34.6793],[134.9083,34.229],[134.7231,34.1647],[134.7065,33.9718],[134.7834,33.9718],[134.6599,33.7146],[134.3684,33.5859],[134.2174,33.2645],[133.9874,33.2645],[133.8473,33.4574],[133.5404,33.4574],[133.1613,33.1359],[133.0334,32.6859],[132.6797,32.7502],[132.6611,32.8788],[132.4314,32.8788],[132.4423,33.0716],[132.3657,33.0716],[132.4539,33.2645],[132.3006,33.2645],[132.3598,33.3931],[132.0233,33.3288],[132.0826,33.4574],[132.556,33.6502],[132.8765,34.1647],[133.0304,34.1647],[133.1227,34.0361],[133.5072,34.0361],[133.6312,34.2933],[134.2328,34.422],[134.2014,34.3577],[134.6319,34.2933],[134.9444,34.615],[134.4686,34.7436],[133.2463,34.2933],[132.3226,34.2933],[132.1856,33.8432],[131.9085,33.9075],[131.9388,33.9718],[131.0931,33.9718],[131.0971,33.6502],[131.8181,33.7146],[131.6399,33.3288],[132.0885,33.1359],[132.001,32.943],[132.0776,32.943],[131.7807,32.6216],[131.5504,32],[130.1358,32],[130.2089,32.1717],[130.5211,32.3645],[130.5654,32.8145],[130.4408,32.8788],[130.3274,32.6216],[130.0979,32.6216],[130.1543,32.7502],[130.0013,32.7502],[129.792,32.6216],[129.6952,32.7502],[129.7518,32.8788],[129.627,32.943],[129.6841,33.0716],[129.5595,33.1359],[129.617,33.2645],[129.5403,33.2645],[129.5982,33.3931],[129.8283,33.3931],[129.916,33.5859],[130.3293,33.6502],[130.4183,33.8432],[130.8624,33.9718],[130.8761,34.1647],[130.7992,34.1647],[130.9211,34.422],[131.414,34.4863],[131.4759,34.615],[132.5634,35.2584],[132.6925,35.5158],[132.9572,35.5802],[133.4661,35.5158],[135.3788,35.7733],[135.2786,35.5802],[135.7095,35.5158],[136.0758,35.7733],[135.9109,35.902],[136.0039,36.224],[136.4529,36.4816],[136.7063,36.8037],[136.5795,36.9971],[136.6511,37.126],[136.5732,37.126],[136.7178,37.3838],[137,37.467],[137,37.1385],[136.9627,37.126],[137,37.0962],[137,34.7436],[136.9363,34.7436],[136.7258,34.9366]]]]}},{"type":"Feature","properties":{"id":"clio-qing-dynasty-1706","layer":"polity","nameEn":"Qing Dynasty","nameKo":"청","category":"이웃 정치체(맥락)","role":"context","startYear":1706,"endYear":1847,"confidence":"context","license":"CC-BY-4.0 (Cliopatria, Seshat) — 단순화·클리핑 등 변경 있음","wikipedia":"Qing dynasty","wikidata":"Q8733","sources":["CLIO"],"uiDefault":true,"label":[126,45.638],"note":null,"source":"korea"},"geometry":{"type":"Polygon","coordinates":[[[136.1484,44.4507],[135.9866,44.4507],[135.1096,43.4723],[134.2218,43.0165],[133.2723,42.6912],[132.9519,42.6912],[132.997,42.7563],[132.5611,42.8213],[132.6062,42.8864],[132.2052,42.8864],[132.271,43.2118],[132.0999,43.0816],[131.7787,43.0816],[131.9147,43.2769],[131.7539,43.2769],[131.2251,42.6262],[130.9048,42.6262],[130.7728,42.4312],[130.4965,42.4962],[130.5404,42.5612],[130.3002,42.5612],[130.2001,42.8864],[129.8433,42.9515],[129.6963,42.4962],[129.1664,42.3012],[128.8355,42.0413],[128.0749,41.9764],[127.9908,41.8465],[128.1503,41.8465],[128.1084,41.7816],[128.2678,41.7816],[128.3436,41.6518],[128.0982,41.3922],[127.3437,41.4571],[127.3848,41.522],[127.1075,41.5869],[127.0722,41.7816],[126.833,41.7816],[126.1071,41.0032],[124.57,40.2906],[124.2286,39.8376],[123.5974,39.8376],[122.936,39.6436],[122.1704,39.2557],[121.9519,38.9972],[121.7162,38.9972],[121.4217,38.7389],[121.0293,38.7389],[121.2007,39.0618],[121.5151,39.0618],[121.6901,39.385],[121.2965,39.385],[121.2096,39.5143],[121.2807,39.6436],[121.4383,39.6436],[121.5033,39.9023],[121.7765,39.967],[122.2306,40.4849],[122.1061,40.6792],[121.827,40.744],[121.8237,40.8736],[121.1098,40.8736],[120.9967,40.6792],[120.6473,40.4849],[120.5003,40.2259],[119.3804,39.7729],[119.2153,39.3203],[118.9894,39.1911],[118.4498,39.0618],[118.0569,39.0618],[118.0457,39.1911],[117.776,39.1265],[117.5764,38.7389],[117.6549,38.7389],[117.6025,38.4806],[117.7592,38.4806],[117.7727,38.3515],[118.0536,38.2869],[118.0674,38.1578],[118.583,38.0933],[118.6476,38.2224],[118.8042,38.2224],[118.7718,38.1578],[119.4571,37.9643],[119.3928,37.8352],[119.2366,37.8352],[118.984,37.3193],[119.14,37.3193],[119.1557,37.1904],[119.7011,37.1904],[119.8266,37.4483],[120.2022,37.5773],[120.1881,37.7062],[120.7538,37.8998],[121.112,37.8352],[121.171,37.6417],[121.4833,37.6417],[121.4969,37.5128],[122.1535,37.5773],[122.1211,37.5128],[122.7129,37.4483],[122.4742,37.126],[122.5664,36.9971],[122.3939,36.8037],[121.9121,36.9326],[121.2121,36.6105],[120.9789,36.6105],[120.9648,36.4172],[120.7318,36.4172],[120.6585,36.0952],[120.3185,36.0308],[119.9865,35.6445],[119.6187,35.5158],[119.2276,34.8079],[119.459,34.8079],[119.4309,34.7436],[119.7113,34.6793],[119.7323,34.5506],[120.3418,34.3577],[120.4894,34.1647],[120.5505,33.5859],[120.9263,33.2002],[120.9192,32.6216],[121.4026,32.4931],[121.5033,32.1717],[121.9112,32],[117,32],[117,49.7075],[117.8274,49.5152],[118.5429,49.9136],[119.0123,49.98],[119.3327,50.1795],[119.1509,50.3791],[119.7303,51.1124],[119.6457,51.1124],[120.1919,51.7811],[120.6709,52.0492],[120.5571,52.1163],[120.6706,52.2505],[120.5006,52.4519],[120.5301,52.5863],[119.9036,52.6535],[120.4231,53.0574],[121.089,53.3271],[121.4329,53.3271],[121.6991,53.5296],[121.5019,53.6],[131.8803,53.6],[131.9462,53.5296],[131.8147,53.3946],[133.019,53.3946],[133.4768,53.5971],[134.0989,53.5296],[134.0319,53.4621],[134.4245,53.5971],[134.7017,53.5296],[134.6344,53.4621],[135.1138,53.5971],[137,53.5971],[137,45.3139],[136.7191,45.1042],[136.1484,44.4507]]]}},{"type":"Feature","properties":{"id":"cap-hanyang","layer":"site","nameEn":"Hanyang / Seoul","nameKo":"한양/서울","category":"도읍","role":"korean","startYear":1394,"endYear":2026,"confidence":"high","license":"original (authored)","wikipedia":null,"wikidata":null,"sources":["GK"],"uiDefault":false,"label":null,"note":"조선 도읍(1394)~현재 대한민국 수도. 일제강점기(1910~1945)에는 경성으로 불림.","source":"korea"},"geometry":{"type":"Point","coordinates":[126.98,37.57]}},{"type":"Feature","properties":{"id":"stele-bukhansan","layer":"site","nameEn":"Bukhansan Monument (Jinheung)","nameKo":"북한산 순수비","category":"영역 증거(순수비)","role":"korean","startYear":555,"endYear":2026,"confidence":"medium","license":"original (authored)","wikipedia":null,"wikidata":null,"sources":["KOWIKI_SILLA","GK"],"uiDefault":false,"label":null,"note":"진흥왕 한강 유역 진출(553) 이후의 순수비로 알려짐(연도 근사).","source":"korea"},"geometry":{"type":"Point","coordinates":[126.96,37.62]}},{"type":"Feature","properties":{"id":"stele-changnyeong","layer":"site","nameEn":"Changnyeong Monument (Jinheung)","nameKo":"창녕 순수비","category":"영역 증거(순수비)","role":"korean","startYear":561,"endYear":2026,"confidence":"medium","license":"original (authored)","wikipedia":null,"wikidata":null,"sources":["KOWIKI_SILLA","GK"],"uiDefault":false,"label":null,"note":"가야 방면 진출 관련 순수비로 알려짐(연도 근사).","source":"korea"},"geometry":{"type":"Point","coordinates":[128.49,35.54]}},{"type":"Feature","properties":{"id":"stele-hwangchoryeong","layer":"site","nameEn":"Hwangchoryeong Monument (Jinheung)","nameKo":"황초령 순수비","category":"영역 증거(순수비)","role":"korean","startYear":568,"endYear":2026,"confidence":"low","license":"original (authored)","wikipedia":null,"wikidata":null,"sources":["KOWIKI_SILLA","GK"],"uiDefault":false,"label":null,"note":"함경도 방면 진출을 보여 주는 순수비로 알려짐. 좌표는 지명 기준 개략.","source":"korea"},"geometry":{"type":"Point","coordinates":[127.45,40.25]}},{"type":"Feature","properties":{"id":"stele-maunryeong","layer":"site","nameEn":"Maunryeong Monument (Jinheung)","nameKo":"마운령 순수비","category":"영역 증거(순수비)","role":"korean","startYear":568,"endYear":2026,"confidence":"low","license":"original (authored)","wikipedia":null,"wikidata":null,"sources":["KOWIKI_SILLA","GK"],"uiDefault":false,"label":null,"note":"함경도 방면 진출을 보여 주는 순수비로 알려짐. 좌표는 지명 기준 개략.","source":"korea"},"geometry":{"type":"Point","coordinates":[128.4,40.35]}},{"type":"Feature","properties":{"id":"jo-jeonggyebi","layer":"site","nameEn":"Baekdusan Boundary Monument site","nameKo":"백두산정계비 자리","category":"국경·경계","role":"korean","startYear":1712,"endYear":1909,"confidence":"medium","license":"original (authored)","wikipedia":null,"wikidata":null,"sources":["KOWIKI_JEONGGYEBI","GK"],"uiDefault":false,"label":null,"note":"1712년 청 사신 목극등과 조선 관리들이 세움. 비문의 '서위압록 동위토문' 중 토문강을 두만강으로 볼지 송화강 상류로 볼지가 간도 분쟁의 핵심(현대 학설은 '토문'이 특정 강을 가리키지 않는다는 해석도 있음). 종료(1909)는 간도협약 시점(작성자 일반 지식).","source":"korea"},"geometry":{"type":"Point","coordinates":[128.11,41.97]}},{"type":"Feature","properties":{"id":"jo-gando","layer":"hypothesis","nameEn":"Gando disputed area (schematic)","nameKo":"간도 분쟁 지역(개략)","category":"국경·경계","role":"korean","startYear":1712,"endYear":1909,"confidence":"low","license":"original (authored)","wikipedia":null,"wikidata":null,"sources":["KOWIKI_JEONGGYEBI","GK"],"uiDefault":true,"label":[129.4,43.35],"note":"정계비 해석 논쟁(1880년대 조선의 송화강 상류설 제기)에서 비롯된 분쟁 지역을 연변 일대로 도식. 1909 간도협약(작성자 일반 지식). 경계선 자체는 아님.","source":"korea"},"geometry":{"type":"Polygon","coordinates":[[[127.6,44],[131.2,44],[131.2,42.5586],[131.1871,42.5595],[131.1655,42.5763],[131.1799,42.6051],[131.1583,42.6017],[131.1259,42.6169],[131.1187,42.6675],[131.1043,42.6675],[131.0863,42.6405],[131.0359,42.6456],[130.9963,42.6405],[130.9531,42.627],[130.9315,42.6067],[130.8883,42.6],[130.8163,42.6338],[130.8379,42.6422],[130.8883,42.6388],[130.9099,42.6169],[130.9315,42.6186],[130.9459,42.6304],[130.9495,42.6523],[130.8487,42.6608],[130.7875,42.654],[130.8307,42.6743],[130.8379,42.6912],[130.8271,42.6996],[130.7695,42.681],[130.7443,42.681],[130.7191,42.6996],[130.6939,42.6861],[130.6579,42.6642],[130.6615,42.6439],[130.6831,42.6439],[130.7335,42.6152],[130.7299,42.5797],[130.7623,42.6],[130.7731,42.5966],[130.7839,42.5797],[130.8415,42.5578],[130.8739,42.5274],[130.8703,42.5172],[130.8595,42.524],[130.8415,42.5189],[130.8451,42.4868],[130.8379,42.4717],[130.7875,42.4615],[130.7803,42.4531],[130.7443,42.3535],[130.7047,42.296],[130.5967,42.2623],[130.5967,42.2977],[130.5679,42.3146],[130.5391,42.318],[130.5103,42.3366],[130.4671,42.3349],[130.4707,42.3214],[130.4563,42.3112],[130.4383,42.3095],[130.4203,42.3247],[130.4059,42.3247],[130.4059,42.3079],[130.3843,42.291],[130.3915,42.264],[130.4059,42.2606],[130.4023,42.242],[130.3771,42.2572],[130.3663,42.2555],[130.3591,42.2437],[130.3699,42.2319],[130.3519,42.2167],[130.3339,42.2133],[130.3303,42.1913],[130.3087,42.1829],[130.3159,42.2184],[130.3087,42.2369],[130.2943,42.2369],[130.2295,42.1829],[130.2007,42.1728],[130.2007,42.1019],[130.1755,42.0985],[130.1611,42.085],[130.1683,42.0765],[130.1503,42.0748],[130.1215,42.09],[130.0927,42.09],[130.0747,42.0782],[130.0675,42.0512],[130.0531,42.0512],[130.0351,42.0124],[130.0351,41.9955],[130.0279,41.9921],[130.0135,42.014],[130.0027,42.0107],[130.0027,41.9904],[129.9811,41.982],[130.0027,41.9617],[129.9739,41.9414],[129.9631,41.8992],[129.9451,41.8942],[129.9379,41.9043],[129.9127,41.911],[129.8983,41.9043],[129.8839,41.857],[129.8839,41.8249],[129.8515,41.7641],[129.8443,41.7591],[129.8263,41.7776],[129.8119,41.7776],[129.7759,41.7591],[129.7518,41.7],[127.6,41.7],[127.6,44]]]}},{"type":"Feature","properties":{"id":"isl-ulleung","layer":"site","nameEn":"Ulleungdo","nameKo":"울릉도","category":"국경·경계","role":"korean","startYear":512,"endYear":2026,"confidence":"medium","license":"original (authored)","wikipedia":null,"wikidata":null,"sources":["GK","KOWIKI_DOKDO"],"uiDefault":false,"label":null,"note":"신라 이사부의 우산국 복속(512)은 위키 정리 본문에는 명시가 없어 작성자 일반 지식으로 표기. 재검증 필요.","source":"korea"},"geometry":{"type":"Point","coordinates":[130.87,37.5]}},{"type":"Feature","properties":{"id":"gr-gwanggaeto-stele","layer":"site","nameEn":"Gwanggaeto Stele (Ji'an)","nameKo":"광개토왕릉비(집안)","category":"고구려 성·유적","role":"korean","startYear":414,"endYear":2026,"confidence":"high","license":"original (authored)","wikipedia":null,"wikidata":null,"sources":["RESEARCH_V02"],"uiDefault":false,"label":null,"note":"414년 장수왕이 건립. 395~410년 원정의 동시대 기록. 신묘년 조 해석은 논쟁.","source":"korea"},"geometry":{"type":"Point","coordinates":[126.2142,41.1447]}}]}