{"type":"FeatureCollection","properties":{"year":0,"source":"korea","fillHint":"layer in polity|polity_prehistory|hypothesis; prefer uiDefault"},"features":[{"type":"Feature","properties":{"id":"clio-han-dynasty--36","layer":"polity","nameEn":"Han Dynasty","nameKo":"한(漢)","category":"이웃 정치체(맥락)","role":"context","startYear":-36,"endYear":5,"confidence":"context","license":"CC-BY-4.0 (Cliopatria, Seshat) — 단순화·클리핑 등 변경 있음","wikipedia":"Han dynasty","wikidata":"Q1068371","sources":["CLIO"],"uiDefault":true,"label":[125.616,39.805],"note":null,"source":"korea"},"geometry":{"type":"Polygon","coordinates":[[[118.2364,40.4201],[118.7048,40.5496],[118.778,40.6792],[119.1742,40.6792],[123.167,41.9114],[123.1268,41.8465],[123.4055,41.7816],[123.3654,41.7167],[123.6044,41.7167],[123.5643,41.6518],[124.0417,41.522],[124.0018,41.4571],[124.2802,41.3922],[124.2404,41.3274],[124.4789,41.3274],[124.4392,41.2625],[124.7174,41.1977],[124.6778,41.1328],[125.8307,41.3274],[125.7904,41.2625],[126.1084,41.2625],[126.187,41.1328],[126.9008,41.0032],[126.8608,40.9384],[127.0989,40.9384],[127.0589,40.8736],[126.4251,40.6144],[126.2693,40.3554],[126.4317,40.0964],[126.7095,40.0317],[126.8323,39.8376],[126.7283,39.385],[126.9645,39.385],[126.8541,39.1911],[127.0229,38.9326],[126.9374,38.3515],[126.3477,37.8352],[125.8449,37.7707],[125.8347,37.8998],[125.6783,37.8998],[125.3871,37.6417],[125.231,37.6417],[125.2981,37.7707],[125.2093,37.8998],[124.8967,37.8998],[125.0767,38.0933],[124.7637,38.0933],[124.8664,38.2869],[124.7881,38.2869],[124.9614,38.6097],[125.1533,38.6743],[125.1885,38.7389],[125.0316,38.7389],[125.39,39.385],[125.3057,39.5143],[124.8697,39.5789],[124.8646,39.7083],[124.5124,39.6436],[124.3446,39.9023],[124.034,39.7729],[123.5974,39.8376],[122.936,39.6436],[122.1704,39.2557],[121.9519,38.9972],[121.7162,38.9972],[121.4217,38.7389],[121.0293,38.7389],[121.2007,39.0618],[121.5151,39.0618],[121.6901,39.385],[121.2965,39.385],[121.2096,39.5143],[121.2807,39.6436],[121.4383,39.6436],[121.5033,39.9023],[121.7765,39.967],[122.2306,40.4849],[122.1061,40.6792],[121.827,40.744],[121.8237,40.8736],[121.1098,40.8736],[120.9967,40.6792],[120.6473,40.4849],[120.5003,40.2259],[119.3804,39.7729],[119.2153,39.3203],[118.9894,39.1911],[118.4498,39.0618],[118.0569,39.0618],[118.0457,39.1911],[117.776,39.1265],[117.5764,38.7389],[117.6549,38.7389],[117.6025,38.4806],[117.7592,38.4806],[117.7727,38.3515],[118.0536,38.2869],[118.0674,38.1578],[118.583,38.0933],[118.6476,38.2224],[118.8042,38.2224],[118.7718,38.1578],[119.4571,37.9643],[119.3928,37.8352],[119.2366,37.8352],[118.984,37.3193],[119.14,37.3193],[119.1557,37.1904],[119.7011,37.1904],[119.8266,37.4483],[120.2022,37.5773],[120.1881,37.7062],[120.7538,37.8998],[121.112,37.8352],[121.171,37.6417],[121.4833,37.6417],[121.4969,37.5128],[122.1535,37.5773],[122.1211,37.5128],[122.7129,37.4483],[122.4742,37.126],[122.5664,36.9971],[122.3939,36.8037],[121.9121,36.9326],[121.2121,36.6105],[120.9789,36.6105],[120.9648,36.4172],[120.7318,36.4172],[120.6585,36.0952],[120.3185,36.0308],[119.9865,35.6445],[119.6187,35.5158],[119.2276,34.8079],[119.459,34.8079],[119.4309,34.7436],[119.7113,34.6793],[119.7323,34.5506],[120.3418,34.3577],[120.4894,34.1647],[120.5505,33.5859],[120.9263,33.2002],[120.9192,32.6216],[121.4026,32.4931],[121.5033,32.1717],[121.9112,32],[117,32],[117,40.1549],[117.2945,40.2906],[118.2364,40.4201]]]}},{"type":"Feature","properties":{"id":"clio-byeonhan--91","layer":"polity","nameEn":"Byeonhan","nameKo":"변한(가야 권역)","category":"국가(Cliopatria)","role":"korean","startYear":-91,"endYear":533,"confidence":"medium","license":"CC-BY-4.0 (Cliopatria, Seshat) — 단순화·클리핑 등 변경 있음","wikipedia":"Byeonhan confederacy","wikidata":"Q1378584","sources":["CLIO"],"uiDefault":true,"label":[128.445,35.291],"note":null,"source":"korea"},"geometry":{"type":"Polygon","coordinates":[[[128.8692,35.1297],[128.6375,35.1297],[128.4986,35.001],[128.8074,35.001],[128.6849,34.7436],[128.3297,34.8079],[128.3136,34.9366],[128.0821,34.9366],[128.0679,34.7436],[127.7595,34.7436],[127.6221,34.615],[127.545,34.615],[127.451,34.7436],[127.5723,35.001],[127.4484,35.0653],[127.6331,35.4514],[127.5557,35.4514],[127.93,35.902],[128.2083,35.8377],[128.2225,35.7089],[128.6096,35.7089],[128.6239,35.5802],[129.0108,35.5802],[129.0711,35.3871],[129.349,35.3227],[129.3177,35.2584],[129.1471,35.0653],[128.8846,35.001],[128.9155,35.0653],[128.8383,35.0653],[128.8692,35.1297]]]}},{"type":"Feature","properties":{"id":"clio-dongye--36","layer":"polity","nameEn":"Dongye","nameKo":"동예","category":"국가(Cliopatria)","role":"korean","startYear":-36,"endYear":312,"confidence":"medium","license":"CC-BY-4.0 (Cliopatria, Seshat) — 단순화·클리핑 등 변경 있음","wikipedia":"Dongye","wikidata":"Q105946539","sources":["CLIO"],"uiDefault":true,"label":[128.148,38.093],"note":null,"source":"korea"},"geometry":{"type":"Polygon","coordinates":[[[129.1002,37.5773],[129.2563,37.5773],[129.3872,37.3838],[129.353,37.3193],[129.207,37.1904],[128.6954,37.2549],[127.9944,36.8037],[127.8156,37.0615],[127.8275,37.3838],[127.6172,37.5773],[127.6325,37.8998],[127.4762,37.8998],[127.6071,38.2869],[126.9374,38.3515],[127.0229,38.9326],[126.8541,39.1911],[126.9645,39.385],[127.5901,39.5143],[127.5527,39.4496],[127.4832,39.1911],[127.9182,39.1265],[127.9234,38.9972],[128.3638,38.8034],[128.6181,38.416],[128.5824,38.3515],[129.1002,37.5773]]]}},{"type":"Feature","properties":{"id":"clio-jinhan--91","layer":"polity","nameEn":"Jinhan","nameKo":"진한","category":"국가(Cliopatria)","role":"korean","startYear":-91,"endYear":377,"confidence":"medium","license":"CC-BY-4.0 (Cliopatria, Seshat) — 단순화·클리핑 등 변경 있음","wikipedia":"Jinhan confederacy","wikidata":"Q701273","sources":["CLIO"],"uiDefault":true,"label":[128.733,36.417],"note":null,"source":"korea"},"geometry":{"type":"Polygon","coordinates":[[[129.4434,35.5158],[129.349,35.3227],[129.0711,35.3871],[129.0108,35.5802],[128.6239,35.5802],[128.6096,35.7089],[128.2225,35.7089],[128.2083,35.8377],[127.93,35.902],[127.8526,35.902],[128.0897,36.224],[127.9667,36.2884],[128.0187,36.546],[127.8959,36.6105],[127.9944,36.8037],[128.6954,37.2549],[129.207,37.1904],[129.353,37.3193],[129.431,37.3193],[129.4069,37.126],[129.5393,36.9326],[129.439,36.7393],[129.5167,36.7393],[129.4173,36.546],[129.495,36.546],[129.4214,36.0952],[129.5765,36.0952],[129.6669,35.9664],[129.5524,35.5802],[129.5208,35.5158],[129.4434,35.5158]]]}},{"type":"Feature","properties":{"id":"clio-mahan--91","layer":"polity","nameEn":"Mahan","nameKo":"마한","category":"국가(Cliopatria)","role":"korean","startYear":-91,"endYear":346,"confidence":"medium","license":"CC-BY-4.0 (Cliopatria, Seshat) — 단순화·클리핑 등 변경 있음","wikipedia":"Mahan","wikidata":"Q421372","sources":["CLIO"],"uiDefault":true,"label":[127.216,36.417],"note":null,"source":"korea"},"geometry":{"type":"Polygon","coordinates":[[[127.1297,34.5506],[127.2968,34.7436],[127.2196,34.7436],[127.0229,34.4863],[126.6262,34.2933],[126.4246,34.3577],[126.4837,34.4863],[126.3476,34.3577],[126.1166,34.3577],[126.4784,34.8079],[126.1998,34.8723],[126.3812,35.2584],[126.3039,35.2584],[126.5192,35.7089],[126.7678,35.902],[126.6128,35.902],[126.6757,36.0308],[126.5206,36.0308],[126.4286,36.1596],[126.4516,36.6749],[126.2638,36.6105],[126.0498,36.8037],[126.6805,37.126],[126.6027,37.126],[126.7023,37.3193],[126.5352,37.4483],[126.6025,37.5773],[126.2903,37.5773],[126.3137,37.7707],[126.3477,37.8352],[126.9374,38.3515],[127.6071,38.2869],[127.4762,37.8998],[127.6325,37.8998],[127.6172,37.5773],[127.8275,37.3838],[127.8156,37.0615],[127.9944,36.8037],[127.8959,36.6105],[128.0187,36.546],[127.9667,36.2884],[128.0897,36.224],[127.8526,35.902],[127.93,35.902],[127.5557,35.4514],[127.6331,35.4514],[127.4484,35.0653],[127.5723,35.001],[127.451,34.7436],[127.545,34.615],[127.515,34.5506],[127.2243,34.422],[127.1297,34.5506]]]}},{"type":"Feature","properties":{"id":"clio-goguryeo--36","layer":"polity","nameEn":"Goguryeo","nameKo":"고구려","category":"국가(Cliopatria)","role":"korean","startYear":-36,"endYear":22,"confidence":"medium","license":"CC-BY-4.0 (Cliopatria, Seshat) — 단순화·클리핑 등 변경 있음","wikipedia":"Goguryeo","wikidata":"Q28370","sources":["CLIO"],"uiDefault":true,"label":[127.015,42.041],"note":null,"source":"korea"},"geometry":{"type":"Polygon","coordinates":[[[129.7774,41.6518],[129.6932,41.522],[129.7686,41.3922],[129.7269,41.3274],[129.0876,41.1977],[128.493,41.2625],[128.132,41.068],[127.735,41.068],[127.4565,41.0032],[127.3762,40.8736],[127.0589,40.8736],[127.0989,40.9384],[126.8608,40.9384],[126.9008,41.0032],[126.187,41.1328],[126.1084,41.2625],[125.7904,41.2625],[125.8307,41.3274],[124.6778,41.1328],[124.7174,41.1977],[124.4392,41.2625],[124.4789,41.3274],[124.2404,41.3274],[124.2802,41.3922],[124.0018,41.4571],[124.0417,41.522],[123.5643,41.6518],[123.6044,41.7167],[123.3654,41.7167],[123.4055,41.7816],[123.1268,41.8465],[123.167,41.9114],[123.2468,41.9114],[124.6072,42.1712],[125.4589,42.6262],[126.4678,42.8213],[130.3335,43.0816],[130.6546,43.0816],[130.61,43.0165],[130.7705,43.0165],[130.7615,42.8864],[130.9219,42.8864],[130.7446,42.6262],[130.9048,42.6262],[130.7728,42.4312],[130.3221,42.2362],[129.74,41.7167],[129.6977,41.6518],[129.7774,41.6518]]]}},{"type":"Feature","properties":{"id":"clio-dong-okjeo--36","layer":"polity","nameEn":"Dong-okjeo","nameKo":"동옥저","category":"국가(Cliopatria)","role":"korean","startYear":-36,"endYear":22,"confidence":"medium","license":"CC-BY-4.0 (Cliopatria, Seshat) — 단순화·클리핑 등 변경 있음","wikipedia":"Okjeo","wikidata":"Q713393","sources":["CLIO"],"uiDefault":true,"label":[127.577,40.388],"note":null,"source":"korea"},"geometry":{"type":"Polygon","coordinates":[[[127.5833,39.7729],[127.6276,39.5789],[127.5901,39.5143],[126.9645,39.385],[126.7283,39.385],[126.8323,39.8376],[126.7095,40.0317],[126.4317,40.0964],[126.2693,40.3554],[126.4251,40.6144],[127.0589,40.8736],[127.3762,40.8736],[127.4565,41.0032],[127.735,41.068],[128.132,41.068],[128.493,41.2625],[129.0876,41.1977],[129.7269,41.3274],[129.8064,41.3274],[129.8822,41.1977],[129.7558,40.8736],[129.2378,40.6792],[129.0777,40.4201],[128.9194,40.4201],[128.1714,39.967],[128.0925,39.967],[127.5833,39.7729]]]}},{"type":"Feature","properties":{"id":"hs-nakrang","layer":"hypothesis","nameEn":"Lelang Commandery (Pyongyang view)","nameKo":"낙랑군(평양 일대설)","category":"한사군(학설)","role":"korean","startYear":-108,"endYear":313,"confidence":"medium","license":"original (authored)","wikipedia":null,"wikidata":null,"sources":["KOWIKI_HANSAGUN","KOWIKI_GOGURYEO"],"uiDefault":true,"label":[126.006,38.916],"note":"낙랑토성(평양 대동강 남안) 일대가 낙랑군 치소라는 견해가 통설. 봉니·한식 무덤 대량 발굴, 2005년 목간 출토가 근거로 언급됨. 313년 고구려 미천왕이 낙랑군을 공격해 축출. 범위는 도식.","source":"korea"},"geometry":{"type":"MultiPolygon","coordinates":[[[[124.6134,39.4575],[124.6206,39.4322],[124.6,39.4284],[124.6,39.4487],[124.6134,39.4575]]],[[[124.6314,39.5656],[124.6746,39.5707],[124.6998,39.5622],[124.6746,39.5386],[124.6458,39.547],[124.6,39.5374],[124.6,39.5458],[124.6314,39.5656]]],[[[124.6386,39.5909],[124.6242,39.5977],[124.6242,39.6],[124.6444,39.6],[124.6386,39.5909]]],[[[124.9086,39.5943],[124.9338,39.5504],[124.8834,39.5268],[124.8618,39.5082],[124.8186,39.4947],[124.8366,39.5217],[124.851,39.5166],[124.8582,39.5285],[124.8438,39.5437],[124.8582,39.5437],[124.8546,39.5741],[124.869,39.5808],[124.869,39.596],[124.9243,39.6],[124.9086,39.5943]]],[[[127,38.5],[126,38.2],[124.869,38.2808],[124.8834,38.3549],[124.9266,38.4089],[124.9482,38.4512],[124.9734,38.463],[124.9734,38.441],[125.0167,38.4984],[125.0203,38.5153],[124.995,38.5356],[124.9986,38.566],[124.9806,38.5845],[124.9842,38.5913],[124.9986,38.593],[125.0167,38.5829],[125.0383,38.5913],[125.0599,38.5677],[125.1031,38.593],[125.1283,38.5795],[125.1355,38.5913],[125.1355,38.6251],[125.1175,38.6453],[125.1247,38.6656],[125.1391,38.6622],[125.1571,38.6318],[125.1787,38.6352],[125.1787,38.6707],[125.2039,38.6521],[125.2687,38.6707],[125.3011,38.6572],[125.3443,38.6876],[125.3983,38.6943],[125.4415,38.6859],[125.4523,38.7044],[125.4631,38.7078],[125.5063,38.6859],[125.5207,38.6521],[125.5315,38.6538],[125.5459,38.6791],[125.5567,38.6774],[125.5855,38.642],[125.6395,38.6268],[125.6575,38.6318],[125.6323,38.6588],[125.5891,38.6656],[125.5279,38.7213],[125.4775,38.7281],[125.4487,38.777],[125.4379,38.7754],[125.4235,38.7551],[125.4127,38.7551],[125.4343,38.7365],[125.3875,38.7179],[125.3731,38.7213],[125.3623,38.7348],[125.3407,38.7179],[125.3155,38.7213],[125.3011,38.7348],[125.2975,38.7213],[125.3083,38.7078],[125.2939,38.7027],[125.2615,38.7078],[125.2435,38.7281],[125.2687,38.7551],[125.2543,38.7618],[125.2543,38.7838],[125.2399,38.7939],[125.2255,38.7956],[125.2291,38.772],[125.2183,38.7399],[125.1895,38.7382],[125.1715,38.7635],[125.1463,38.777],[125.1355,38.8041],[125.1535,38.8919],[125.1715,38.9391],[125.2003,38.9746],[125.2003,38.9864],[125.2723,39.081],[125.3335,39.0827],[125.2831,39.0894],[125.2939,39.1435],[125.2867,39.1519],[125.3083,39.1654],[125.3443,39.1688],[125.3299,39.1941],[125.3443,39.2127],[125.3659,39.2211],[125.4127,39.2144],[125.3947,39.2465],[125.4307,39.3005],[125.4451,39.3106],[125.4163,39.3208],[125.4127,39.3343],[125.4199,39.3512],[125.4055,39.3647],[125.4235,39.3579],[125.4451,39.3664],[125.4595,39.3849],[125.3587,39.3984],[125.3587,39.4136],[125.3839,39.4407],[125.3443,39.4339],[125.3443,39.4592],[125.3983,39.5014],[125.4127,39.5386],[125.4415,39.547],[125.4523,39.5707],[125.4451,39.5842],[125.2867,39.5217],[125.2363,39.5622],[125.2111,39.5724],[125.2255,39.5909],[125.1571,39.5909],[125.1715,39.5639],[125.1283,39.5639],[125.1175,39.5656],[125.1017,39.6],[126.6,39.6],[127,38.5]]],[[[124.8834,38.5288],[124.905,38.4951],[124.8402,38.5103],[124.8222,38.5221],[124.8006,38.5086],[124.7898,38.517],[124.7934,38.5339],[124.8438,38.5558],[124.8834,38.5288]]],[[[124.6926,39.5352],[124.7034,39.5369],[124.707,39.5302],[124.6962,39.5031],[124.6854,39.5031],[124.6818,39.5217],[124.6926,39.5352]]]]}},{"type":"Feature","properties":{"id":"hs-nakrang-liaodong","layer":"hypothesis","nameEn":"Lelang – Liaodong view (minority)","nameKo":"낙랑군 – 요동설(소수설)","category":"한사군(학설)","role":"korean","startYear":-108,"endYear":313,"confidence":"speculative","license":"original (authored)","wikipedia":null,"wikidata":null,"sources":["KOWIKI_HANSAGUN"],"uiDefault":true,"label":[123.35,41.4],"note":"박지원 등 실학자들이 제기한 요동설(위키 정리) — 역사학사(史學史)적으로 중요한 견해이나 현재 학계 지지는 미확인. 범위는 도식이며 위치는 요동 일대를 대략 표시.","source":"korea"},"geometry":{"type":"Polygon","coordinates":[[[124.2,42.2],[124.2,40.6],[122.5,40.6],[122.5,42.2],[124.2,42.2]]]}},{"type":"Feature","properties":{"id":"hs-xuantu2","layer":"hypothesis","nameEn":"Xuantu Commandery (after move: Fushun area)","nameKo":"현도군(이동 후: 무순 방면)","category":"한사군(학설)","role":"korean","startYear":-75,"endYear":313,"confidence":"low","license":"original (authored)","wikipedia":null,"wikidata":null,"sources":["KOWIKI_HANSAGUN"],"uiDefault":true,"label":[124.1,41.85],"note":"기원전 75년 현도군이 요동 무순 방면으로 이동. 종료 연도(313)는 화면용 근사이며 실제 소멸 시기는 불분명.","source":"korea"},"geometry":{"type":"Polygon","coordinates":[[[125,42.4],[125,41.3],[123.2,41.3],[123.2,42.4],[125,42.4]]]}},{"type":"Feature","properties":{"id":"cap-jolbon","layer":"site","nameEn":"Jolbon (Wunü Mountain City)","nameKo":"졸본(오녀산성, 환런)","category":"도읍","role":"korean","startYear":-37,"endYear":3,"confidence":"medium","license":"original (authored)","wikipedia":null,"wikidata":null,"sources":["KOWIKI_GOGURYEO"],"uiDefault":false,"label":null,"note":"고구려 건국 초기 도읍(삼국사기 기준 건국 기원전 37). 좌표는 오녀산성 일대 근사.","source":"korea"},"geometry":{"type":"Point","coordinates":[125.4,41.32]}},{"type":"Feature","properties":{"id":"cap-wirye","layer":"site","nameEn":"Wiryeseong (Pungnap Fortress)","nameKo":"하남위례성(풍납토성)","category":"도읍","role":"korean","startYear":-18,"endYear":475,"confidence":"medium","license":"original (authored)","wikipedia":null,"wikidata":null,"sources":["KOWIKI_BAEKJE"],"uiDefault":false,"label":null,"note":"백제 건국 도읍 위례성을 풍납토성 일대로 보는 견해에 따른 좌표(위치 비정에 이견이 있음). 475년 장수왕에게 함락.","source":"korea"},"geometry":{"type":"Point","coordinates":[127.1155,37.5255]}},{"type":"Feature","properties":{"id":"cap-gyeongju","layer":"site","nameEn":"Geumseong (Gyeongju)","nameKo":"금성(경주)","category":"도읍","role":"korean","startYear":-57,"endYear":935,"confidence":"high","license":"original (authored)","wikipedia":null,"wikidata":null,"sources":["KOWIKI_SILLA"],"uiDefault":false,"label":null,"note":"사로국~신라~통일신라 도읍(건국 -57은 삼국사기 기준). 935년 고려에 항복.","source":"korea"},"geometry":{"type":"Point","coordinates":[129.22,35.835]}},{"type":"Feature","properties":{"id":"by-buyeo-peak","layer":"hypothesis","nameEn":"Buyeo – peak (schematic)","nameKo":"부여(2~3세기 전성기, 개략)","category":"부여 계열(작성)","role":"korean","startYear":-108,"endYear":345,"confidence":"low","license":"original (authored)","wikipedia":null,"wikidata":null,"sources":["RESEARCH_V02"],"uiDefault":true,"label":[126.364,45.6],"note":"핵심은 길림시(동단산·남성자·모아산 묘지)와 제2송화강 유역, 농안·장춘 일대가 후반 중심이라는 견해. 삼국지: 부여는 현도 북쪽 천 리, 남 고구려·동 읍루·서 선비·북 약수, 방 이천 리(과장 가능). 약수의 비정은 확정되지 않아 북쪽 경계는 흐림. 285 모용외 침공, 346 전연 침공으로 크게 약화. 시작 연도(-108)는 '사료 첫 등장(기원전 2세기)'의 자리표시자. 폴리곤은 도식.","source":"korea"},"geometry":{"type":"Polygon","coordinates":[[[125.8,47.4],[128.4,46.9],[129.4,44.6],[128.6,43.2],[126.3,42.9],[124.6,43],[123.6,44.4],[123.9,46.6],[125.8,47.4]]]}},{"type":"Feature","properties":{"id":"by-dongtuanshan","layer":"site","nameEn":"Dongtuanshan (Jilin; Buyeo royal-city candidate)","nameKo":"동단산성·남성자(길림, 부여 왕성 후보)","category":"부여 유적","role":"korean","startYear":-108,"endYear":494,"confidence":"medium","license":"original (authored)","wikipedia":null,"wikidata":null,"sources":["RESEARCH_V02"],"uiDefault":false,"label":null,"note":"길림시 쑹화강 동안. 부여 초·중기 도성 후보. 왕성/위성 산성/'북부여' 거점 논쟁이 남아 있음. 청동기~고구려·발해·요금 유물 중첩.","source":"korea"},"geometry":{"type":"Point","coordinates":[126.5976,43.852]}}]}