{"type":"FeatureCollection","properties":{"year":600,"source":"korea","fillHint":"layer in polity|polity_prehistory|hypothesis; prefer uiDefault"},"features":[{"type":"Feature","properties":{"id":"clio-goguryeo-555","layer":"polity","nameEn":"Goguryeo","nameKo":"고구려","category":"국가(Cliopatria)","role":"korean","startYear":555,"endYear":611,"confidence":"medium","license":"CC-BY-4.0 (Cliopatria, Seshat) — 단순화·클리핑 등 변경 있음","wikipedia":"Goguryeo","wikidata":"Q28370","sources":["CLIO"],"uiDefault":true,"label":[126.01,41.327],"note":null,"source":"korea"},"geometry":{"type":"Polygon","coordinates":[[[131.0602,44.1243],[131.014,44.0591],[131.3025,44.1243],[131.2563,44.0591],[132.0981,43.9938],[132.0517,43.9286],[132.6042,43.7982],[132.0999,43.0816],[131.7787,43.0816],[131.9147,43.2769],[131.7539,43.2769],[131.2251,42.6262],[130.9048,42.6262],[130.6054,42.3012],[130.3221,42.2362],[129.7823,41.7816],[129.6932,41.522],[129.8822,41.1977],[129.7558,40.8736],[129.2378,40.6792],[129.0777,40.4201],[128.289,40.0317],[128.21,40.0317],[128.2877,40.1612],[127.8135,40.1612],[126.8323,39.8376],[126.6865,39.4496],[127.0432,39.385],[126.8597,39.0618],[126.9383,39.0618],[126.8658,38.9326],[126.9868,38.868],[126.8792,38.6743],[126.9577,38.6743],[126.7024,38.3515],[126.8591,38.3515],[126.9457,38.2224],[126.6603,37.8352],[126.2695,37.8352],[125.8449,37.7707],[125.8347,37.8998],[125.6783,37.8998],[125.3871,37.6417],[125.231,37.6417],[125.2981,37.7707],[125.2093,37.8998],[124.8967,37.8998],[125.0767,38.0933],[124.7637,38.0933],[124.8664,38.2869],[124.7881,38.2869],[124.9614,38.6097],[125.1533,38.6743],[125.1885,38.7389],[125.0316,38.7389],[125.39,39.385],[125.3057,39.5143],[124.8697,39.5789],[124.8646,39.7083],[124.5124,39.6436],[124.3446,39.9023],[124.034,39.7729],[123.5974,39.8376],[122.936,39.6436],[122.1704,39.2557],[121.9519,38.9972],[121.7162,38.9972],[121.4217,38.7389],[121.0293,38.7389],[121.2007,39.0618],[121.5151,39.0618],[121.6901,39.385],[121.2965,39.385],[121.2096,39.5143],[121.2807,39.6436],[121.4383,39.6436],[121.5033,39.9023],[121.7765,39.967],[122.2306,40.4849],[122.1061,40.6792],[121.7856,40.8088],[121.8237,40.8736],[121.9363,41.1977],[122.49,41.4571],[122.6084,41.7816],[122.6483,41.8465],[123.1301,42.2362],[123.8156,42.5612],[123.9442,42.8864],[123.864,42.8864],[124.2455,43.4723],[125.0527,44.3201],[126.9667,44.516],[127.3357,44.5813],[127.4264,44.7119],[127.7051,44.6466],[128.6882,44.7773],[129.1627,45.1042],[129.4064,45.1042],[129.36,45.0388],[129.9976,44.908],[129.9857,44.7773],[130.2635,44.7119],[130.2517,44.5813],[130.4137,44.5813],[130.4713,44.3201],[130.7485,44.2548],[130.7024,44.1896],[130.7832,44.1896],[131.0602,44.1243]]]}},{"type":"Feature","properties":{"id":"clio-tamna-263","layer":"polity","nameEn":"Tamna","nameKo":"탐라","category":"국가(Cliopatria)","role":"korean","startYear":263,"endYear":681,"confidence":"medium","license":"CC-BY-4.0 (Cliopatria, Seshat) — 단순화·클리핑 등 변경 있음","wikipedia":"Tamna","wikidata":"Q28057","sources":["CLIO"],"uiDefault":true,"label":[126.568,33.393],"note":null,"source":"korea"},"geometry":{"type":"Polygon","coordinates":[[[126.1388,33.2002],[126.3563,33.5217],[126.9988,33.5859],[126.7801,33.2645],[126.7035,33.2645],[126.1388,33.2002]]]}},{"type":"Feature","properties":{"id":"clio-baekje-567","layer":"polity","nameEn":"Baekje","nameKo":"백제","category":"국가(Cliopatria)","role":"korean","startYear":567,"endYear":660,"confidence":"medium","license":"CC-BY-4.0 (Cliopatria, Seshat) — 단순화·클리핑 등 변경 있음","wikipedia":"Baekje","wikidata":"Q28428","sources":["CLIO"],"uiDefault":true,"label":[127.051,35.58],"note":null,"source":"korea"},"geometry":{"type":"Polygon","coordinates":[[[127.1297,34.5506],[127.2968,34.7436],[127.2196,34.7436],[127.0229,34.4863],[126.6262,34.2933],[126.4246,34.3577],[126.4837,34.4863],[126.3476,34.3577],[126.1166,34.3577],[126.4784,34.8079],[126.1998,34.8723],[126.3812,35.2584],[126.3039,35.2584],[126.5192,35.7089],[126.7678,35.902],[126.6128,35.902],[126.6757,36.0308],[126.5206,36.0308],[126.4286,36.1596],[126.4516,36.6749],[126.2638,36.6105],[126.0498,36.8037],[126.4918,37.0615],[126.6925,36.9971],[126.7703,36.9971],[126.7374,36.9326],[127.7045,36.9971],[127.6714,36.9326],[127.9944,36.8037],[127.8959,36.6105],[128.0187,36.546],[127.9667,36.2884],[128.0897,36.224],[127.5557,35.4514],[127.6331,35.4514],[127.4484,35.0653],[127.5723,35.001],[127.451,34.7436],[127.545,34.615],[127.515,34.5506],[127.2243,34.422],[127.1297,34.5506]]]}},{"type":"Feature","properties":{"id":"clio-silla-567","layer":"polity","nameEn":"Silla","nameKo":"신라","category":"국가(Cliopatria)","role":"korean","startYear":567,"endYear":660,"confidence":"medium","license":"CC-BY-4.0 (Cliopatria, Seshat) — 단순화·클리핑 등 변경 있음","wikipedia":"Silla","wikidata":"Q28456","sources":["CLIO"],"uiDefault":true,"label":[128.003,37.384],"note":null,"source":"korea"},"geometry":{"type":"Polygon","coordinates":[[[128.2068,38.8034],[128.3638,38.8034],[129.1002,37.5773],[129.2563,37.5773],[129.4748,37.2549],[129.4069,37.126],[129.5393,36.9326],[129.439,36.7393],[129.5167,36.7393],[129.4173,36.546],[129.495,36.546],[129.4214,36.0952],[129.5765,36.0952],[129.6669,35.9664],[129.5208,35.5158],[129.1471,35.0653],[128.5294,35.0653],[128.5451,34.9366],[128.8074,35.001],[128.6849,34.7436],[128.3297,34.8079],[128.3136,34.9366],[128.0821,34.9366],[128.0679,34.7436],[127.7595,34.7436],[127.6221,34.615],[127.545,34.615],[127.451,34.7436],[127.5723,35.001],[127.4484,35.0653],[127.6331,35.4514],[127.5557,35.4514],[128.0897,36.224],[127.9667,36.2884],[128.0187,36.546],[127.8959,36.6105],[127.9944,36.8037],[127.6714,36.9326],[127.7045,36.9971],[126.7374,36.9326],[126.8033,37.0615],[126.6027,37.126],[126.7023,37.3193],[126.5352,37.4483],[126.6025,37.5773],[126.2903,37.5773],[126.3137,37.7707],[126.3477,37.8352],[126.6603,37.8352],[126.9457,38.2224],[126.8591,38.3515],[126.7024,38.3515],[126.9577,38.6743],[126.8792,38.6743],[126.9868,38.868],[126.8658,38.9326],[126.9383,39.0618],[126.8597,39.0618],[127.0432,39.385],[126.6865,39.4496],[126.8323,39.8376],[127.8135,40.1612],[128.2877,40.1612],[128.1714,39.967],[127.9346,39.967],[127.5833,39.7729],[127.6653,39.6436],[127.4414,39.2557],[127.7978,39.1911],[127.761,39.1265],[127.9182,39.1265],[128.002,38.9972],[128.0806,38.9972],[128.2068,38.8034]]]}},{"type":"Feature","properties":{"id":"clio-asuka-japan-540","layer":"polity","nameEn":"Asuka Japan","nameKo":"아스카 일본","category":"이웃 정치체(맥락)","role":"context","startYear":540,"endYear":709,"confidence":"context","license":"CC-BY-4.0 (Cliopatria, Seshat) — 단순화·클리핑 등 변경 있음","wikipedia":"Asuka period","wikidata":"Q210688","sources":["CLIO"],"uiDefault":false,"label":[130.742,33.779],"note":null,"source":"korea"},"geometry":{"type":"Polygon","coordinates":[[[136.7258,34.9366],[136.5954,34.6793],[136.7942,34.615],[136.9733,34.3577],[136.9093,34.229],[136.4475,34.229],[135.8117,33.3931],[135.4125,33.5217],[135.3511,33.7146],[135.0288,33.8432],[135.1534,34.1004],[135.0168,34.2933],[135.3429,34.4863],[135.4389,34.6793],[134.9125,34.5506],[134.6999,34.7436],[134.4686,34.7436],[133.2463,34.2933],[132.3226,34.2933],[132.1856,33.8432],[131.9085,33.9075],[131.9388,33.9718],[131.0931,33.9718],[131.0971,33.6502],[131.8181,33.7146],[131.6399,33.3288],[132.0885,33.1359],[132.001,32.943],[132.0776,32.943],[131.7807,32.6216],[131.5504,32],[130.1358,32],[130.2089,32.1717],[130.5211,32.3645],[130.5654,32.8145],[130.3736,33.0716],[130.1062,32.8145],[129.8765,32.8145],[129.9333,32.943],[129.6752,32.8788],[129.6841,33.0716],[129.5595,33.1359],[129.617,33.2645],[129.5403,33.2645],[129.5982,33.3931],[129.8283,33.3931],[129.916,33.5859],[130.3293,33.6502],[130.4183,33.8432],[130.8624,33.9718],[130.8761,34.1647],[130.7992,34.1647],[130.9211,34.422],[131.414,34.4863],[131.4759,34.615],[132.5634,35.2584],[132.6925,35.5158],[132.9572,35.5802],[133.4661,35.5158],[135.3788,35.7733],[135.2786,35.5802],[135.7095,35.5158],[135.7763,35.6445],[136.0421,35.7089],[135.9109,35.902],[135.9789,36.0308],[135.9013,36.0308],[136.0039,36.224],[136.6357,36.6749],[136.6995,36.9326],[136.5732,37.126],[136.7178,37.3838],[137,37.5208],[137,37.1385],[136.9627,37.126],[137,37.0962],[137,34.7436],[136.9363,34.7436],[136.7258,34.9366]]]}},{"type":"Feature","properties":{"id":"clio-sui-dynasty-592","layer":"polity","nameEn":"Sui Dynasty","nameKo":"수","category":"이웃 정치체(맥락)","role":"context","startYear":592,"endYear":601,"confidence":"context","license":"CC-BY-4.0 (Cliopatria, Seshat) — 단순화·클리핑 등 변경 있음","wikipedia":"Sui dynasty","wikidata":"Q7405","sources":["CLIO"],"uiDefault":false,"label":[120.3,40.582],"note":null,"source":"korea"},"geometry":{"type":"Polygon","coordinates":[[[120.5003,40.2259],[119.3804,39.7729],[119.2153,39.3203],[118.4498,39.0618],[118.0569,39.0618],[118.0457,39.1911],[117.8884,39.1911],[117.5764,38.7389],[117.6549,38.7389],[117.6025,38.4806],[118.0536,38.2869],[118.0674,38.1578],[118.583,38.0933],[118.6476,38.2224],[118.8042,38.2224],[118.7718,38.1578],[119.4571,37.9643],[119.3928,37.8352],[119.2366,37.8352],[118.984,37.3193],[119.14,37.3193],[119.1557,37.1904],[119.7011,37.1904],[119.8266,37.4483],[120.2022,37.5773],[120.1881,37.7062],[120.7538,37.8998],[121.112,37.8352],[121.171,37.6417],[121.4833,37.6417],[121.4969,37.5128],[122.1535,37.5773],[122.1211,37.5128],[122.7129,37.4483],[122.4742,37.126],[122.5664,36.9971],[122.3939,36.8037],[121.9121,36.9326],[121.2121,36.6105],[120.9789,36.6105],[120.9648,36.4172],[120.7318,36.4172],[120.6585,36.0952],[120.3185,36.0308],[119.9865,35.6445],[119.6187,35.5158],[119.2276,34.8079],[119.459,34.8079],[119.4309,34.7436],[119.7113,34.6793],[119.7323,34.5506],[120.3418,34.3577],[120.4894,34.1647],[120.5505,33.5859],[120.9263,33.2002],[120.9192,32.6216],[121.4026,32.4931],[121.5033,32.1717],[121.7832,32.1074],[121.8684,32],[117,32],[117,41.4729],[117.3975,41.4571],[117.36,41.3922],[117.5986,41.3922],[117.6033,41.2625],[117.7623,41.2625],[117.8467,41.1328],[117.7782,40.8736],[117.9002,40.8088],[117.8271,40.6792],[117.9129,40.5496],[118.0713,40.5496],[118.0781,40.4201],[118.6389,40.2906],[118.603,40.2259],[118.9983,40.2259],[119.5452,40.3554],[120.0786,40.8736],[120.3542,40.9384],[120.7803,41.3922],[121.3733,41.7167],[121.9705,41.9114],[122.3693,41.9114],[122.3294,41.8465],[122.5686,41.8465],[122.5287,41.7816],[122.6084,41.7816],[122.49,41.4571],[121.9363,41.1977],[121.8237,40.8736],[121.1098,40.8736],[120.9967,40.6792],[120.6473,40.4849],[120.5003,40.2259]]]}},{"type":"Feature","properties":{"id":"cap-pyongyang-gg","layer":"site","nameEn":"Pyongyang (Goguryeo capital)","nameKo":"평양성(고구려)","category":"도읍","role":"korean","startYear":427,"endYear":668,"confidence":"high","license":"original (authored)","wikipedia":null,"wikidata":null,"sources":["KOWIKI_GOGURYEO"],"uiDefault":false,"label":null,"note":"장수왕 427년 평양 천도, 668년 멸망. 이후 도성 이전(장안성 등) 세부는 미반영.","source":"korea"},"geometry":{"type":"Point","coordinates":[125.75,39.02]}},{"type":"Feature","properties":{"id":"cap-sabi","layer":"site","nameEn":"Sabi (Buyeo)","nameKo":"사비(부여)","category":"도읍","role":"korean","startYear":538,"endYear":660,"confidence":"high","license":"original (authored)","wikipedia":null,"wikidata":null,"sources":["KOWIKI_BAEKJE"],"uiDefault":false,"label":null,"note":"538년 사비 천도, 660년 함락.","source":"korea"},"geometry":{"type":"Point","coordinates":[126.9,36.28]}},{"type":"Feature","properties":{"id":"cap-gyeongju","layer":"site","nameEn":"Geumseong (Gyeongju)","nameKo":"금성(경주)","category":"도읍","role":"korean","startYear":-57,"endYear":935,"confidence":"high","license":"original (authored)","wikipedia":null,"wikidata":null,"sources":["KOWIKI_SILLA"],"uiDefault":false,"label":null,"note":"사로국~신라~통일신라 도읍(건국 -57은 삼국사기 기준). 935년 고려에 항복.","source":"korea"},"geometry":{"type":"Point","coordinates":[129.22,35.835]}},{"type":"Feature","properties":{"id":"stele-bukhansan","layer":"site","nameEn":"Bukhansan Monument (Jinheung)","nameKo":"북한산 순수비","category":"영역 증거(순수비)","role":"korean","startYear":555,"endYear":2026,"confidence":"medium","license":"original (authored)","wikipedia":null,"wikidata":null,"sources":["KOWIKI_SILLA","GK"],"uiDefault":false,"label":null,"note":"진흥왕 한강 유역 진출(553) 이후의 순수비로 알려짐(연도 근사).","source":"korea"},"geometry":{"type":"Point","coordinates":[126.96,37.62]}},{"type":"Feature","properties":{"id":"stele-changnyeong","layer":"site","nameEn":"Changnyeong Monument (Jinheung)","nameKo":"창녕 순수비","category":"영역 증거(순수비)","role":"korean","startYear":561,"endYear":2026,"confidence":"medium","license":"original (authored)","wikipedia":null,"wikidata":null,"sources":["KOWIKI_SILLA","GK"],"uiDefault":false,"label":null,"note":"가야 방면 진출 관련 순수비로 알려짐(연도 근사).","source":"korea"},"geometry":{"type":"Point","coordinates":[128.49,35.54]}},{"type":"Feature","properties":{"id":"stele-hwangchoryeong","layer":"site","nameEn":"Hwangchoryeong Monument (Jinheung)","nameKo":"황초령 순수비","category":"영역 증거(순수비)","role":"korean","startYear":568,"endYear":2026,"confidence":"low","license":"original (authored)","wikipedia":null,"wikidata":null,"sources":["KOWIKI_SILLA","GK"],"uiDefault":false,"label":null,"note":"함경도 방면 진출을 보여 주는 순수비로 알려짐. 좌표는 지명 기준 개략.","source":"korea"},"geometry":{"type":"Point","coordinates":[127.45,40.25]}},{"type":"Feature","properties":{"id":"stele-maunryeong","layer":"site","nameEn":"Maunryeong Monument (Jinheung)","nameKo":"마운령 순수비","category":"영역 증거(순수비)","role":"korean","startYear":568,"endYear":2026,"confidence":"low","license":"original (authored)","wikipedia":null,"wikidata":null,"sources":["KOWIKI_SILLA","GK"],"uiDefault":false,"label":null,"note":"함경도 방면 진출을 보여 주는 순수비로 알려짐. 좌표는 지명 기준 개략.","source":"korea"},"geometry":{"type":"Point","coordinates":[128.4,40.35]}},{"type":"Feature","properties":{"id":"isl-ulleung","layer":"site","nameEn":"Ulleungdo","nameKo":"울릉도","category":"국경·경계","role":"korean","startYear":512,"endYear":2026,"confidence":"medium","license":"original (authored)","wikipedia":null,"wikidata":null,"sources":["GK","KOWIKI_DOKDO"],"uiDefault":false,"label":null,"note":"신라 이사부의 우산국 복속(512)은 위키 정리 본문에는 명시가 없어 작성자 일반 지식으로 표기. 재검증 필요.","source":"korea"},"geometry":{"type":"Point","coordinates":[130.87,37.5]}},{"type":"Feature","properties":{"id":"gr-ext-6c-7c","layer":"hypothesis","nameEn":"Goguryeo – after Han River loss to fall (schematic)","nameKo":"고구려 – 한강 상실 이후~멸망(551~668) 통제 범위(개략)","category":"고구려 영역(작성)","role":"korean","startYear":551,"endYear":668,"confidence":"low","license":"original (authored)","wikipedia":null,"wikidata":null,"sources":["RESEARCH_V02"],"uiDefault":true,"label":[125.948,41.136],"note":"551~553 나제동맹에 한강 유역 상실, 남쪽 경계는 임진강·한탄강 일대(호로고루 등)로 후퇴. 612~614 수 침공 격퇴(살수), 631~647 천리장성(북단 부여성), 645 당 침공(안시성), 668 평양성 함락(당이 부여성 등 약 40성 점령, 안동도호부 설치). 동쪽 한계와 동해안 남쪽 경계는 열람한 자료에서 확정하지 못해 매우 개략. 직접 통제(성곽·무덤·관직·비문 등 근거가 있는 범위)를 개략 도식화한 것이며 영향권·조공권은 포함하지 않음. 정밀한 경계선이 아니라 수십 km 이상 오차. Cliopatria의 고구려 폴리곤과 어긋날 수 있음(Cliopatria 410~494 폴리곤은 북만주까지 덮어 통설보다 넓게 보임). [v0.3] 북쪽 구간(제2송화강 중류·길림 일대)은 속말말갈이 살던 권역과 겹쳐서 실제로는 직접 통제가 아니라 영향권일 수 있음 — '고구려–말갈 영향권' 폴리곤과 함께 볼 것. [v0.7] 동단·농안 구간에 대한 주의는 '5세기 전기' 폴리곤 노트와 같다.","source":"korea"},"geometry":{"type":"MultiPolygon","coordinates":[[[[121.3338,38.9679],[121.341,38.978],[121.3266,39.0118],[121.3338,39.027],[121.3518,39.0388],[121.395,39.0422],[121.4274,39.0151],[121.467,39.0151],[121.5462,39.0489],[121.6326,39.0692],[121.6758,39.0877],[121.6902,39.1181],[121.6794,39.1367],[121.6506,39.1587],[121.6434,39.1755],[121.6074,39.1806],[121.593,39.1924],[121.6074,39.2009],[121.6002,39.2211],[121.6254,39.2245],[121.6326,39.2363],[121.5894,39.2634],[121.611,39.2752],[121.6578,39.2667],[121.719,39.2971],[121.737,39.3123],[121.7298,39.3309],[121.7802,39.3714],[121.8378,39.3647],[121.8666,39.3697],[121.9134,39.3951],[121.9422,39.4001],[121.9314,39.417],[121.8486,39.3866],[121.7442,39.3984],[121.7082,39.3951],[121.719,39.3714],[121.5246,39.3647],[121.4922,39.3883],[121.4598,39.4744],[121.4346,39.5082],[121.4202,39.5166],[121.3554,39.5217],[121.3,39.5038],[121.3,39.5936],[121.3266,39.6028],[121.3806,39.6011],[121.449,39.6146],[121.4706,39.6315],[121.4634,39.6467],[121.4994,39.6534],[121.5246,39.618],[121.5318,39.623],[121.539,39.6416],[121.5246,39.6534],[121.5498,39.6787],[121.539,39.6923],[121.5174,39.6872],[121.5066,39.6939],[121.4922,39.721],[121.4562,39.748],[121.485,39.7632],[121.4886,39.7784],[121.4778,39.7868],[121.4706,39.8105],[121.5102,39.824],[121.5354,39.8611],[121.5678,39.8594],[121.6146,39.8712],[121.6362,39.8966],[121.6866,39.9219],[121.7082,39.927],[121.773,39.9202],[121.8054,39.9489],[121.809,39.9658],[121.8378,39.9709],[121.8738,39.9911],[121.881,39.9979],[121.8738,40.0165],[121.827,40.0232],[121.881,40.0418],[121.9278,40.0772],[121.9314,40.1009],[121.9962,40.1245],[122.007,40.1566],[121.9926,40.187],[122.0394,40.1971],[122.0934,40.2275],[122.1078,40.263],[122.1078,40.3103],[122.1798,40.3525],[122.2122,40.3812],[122.205,40.4268],[122.2518,40.4302],[122.2518,40.4538],[122.2878,40.4724],[122.2878,40.4893],[122.3022,40.5028],[122.277,40.5433],[122.2266,40.5788],[122.1762,40.5872],[122.1366,40.6243],[122.169,40.6531],[122.169,40.6868],[122.1582,40.702],[122.1222,40.6801],[122.0682,40.7358],[122.0217,40.7574],[122.15,40.9],[122.5,41.6],[122.9,42.2],[123.5,42.9],[124.1,43.4],[124.5,44.3],[124.8,44.9],[126.6,45],[127.6,44.6],[128.5,44.1],[130.7,43.3],[130.8203,42.6987],[130.7695,42.681],[130.7443,42.681],[130.7191,42.6996],[130.6579,42.6642],[130.6615,42.6439],[130.6831,42.6439],[130.7335,42.6152],[130.7299,42.5797],[130.7623,42.6],[130.7839,42.5797],[130.85,42.5498],[130.8556,42.5222],[130.8415,42.5189],[130.8379,42.5105],[130.8451,42.4936],[130.8379,42.4717],[130.7875,42.4615],[130.7803,42.4531],[130.7443,42.3535],[130.6939,42.2893],[130.5967,42.2623],[130.5967,42.2977],[130.5679,42.3146],[130.5391,42.318],[130.5103,42.3366],[130.4671,42.3349],[130.4707,42.3214],[130.4563,42.3112],[130.4383,42.3095],[130.4203,42.3247],[130.4059,42.3247],[130.4059,42.3079],[130.3843,42.291],[130.3915,42.264],[130.4059,42.2606],[130.4023,42.242],[130.3771,42.2572],[130.3663,42.2555],[130.3591,42.2437],[130.3699,42.2319],[130.3519,42.2167],[130.3339,42.2133],[130.3303,42.1913],[130.3087,42.1829],[130.3159,42.2184],[130.3087,42.2369],[130.2943,42.2369],[130.2295,42.1829],[130.2007,42.1728],[130.2007,42.1019],[130.1755,42.0985],[130.1611,42.085],[130.1683,42.0765],[130.1503,42.0748],[130.1215,42.09],[130.0927,42.09],[130.0747,42.0782],[130.0675,42.0512],[130.0531,42.0512],[130.0351,42.0124],[130.0351,41.9955],[130.0279,41.9921],[130.0135,42.014],[130.0027,42.0107],[130.0027,41.9904],[129.9811,41.982],[130.0027,41.9617],[129.9739,41.9414],[129.9559,41.8925],[129.9127,41.911],[129.8983,41.9043],[129.8839,41.857],[129.8839,41.8249],[129.8515,41.7641],[129.8443,41.7591],[129.8263,41.7776],[129.8119,41.7776],[129.7759,41.7591],[129.7507,41.6966],[129.6895,41.6493],[129.6679,41.5767],[129.6499,41.5497],[129.6607,41.526],[129.6535,41.494],[129.6607,41.4653],[129.7003,41.4281],[129.7147,41.4197],[129.7363,41.4214],[129.7579,41.3927],[129.7975,41.3859],[129.8047,41.3729],[129.2872,40.6829],[129.2719,40.7088],[129.2323,40.7054],[129.2179,40.697],[129.1963,40.6379],[129.1747,40.6041],[129.1711,40.5686],[129.1603,40.5652],[129.0775,40.4724],[129.0307,40.4741],[128.9767,40.4606],[128.8615,40.3711],[128.8291,40.3677],[128.8147,40.3542],[128.7643,40.3457],[128.7535,40.3356],[128.7211,40.339],[128.6887,40.3305],[128.6707,40.3103],[128.6563,40.3103],[128.6563,40.3204],[128.6383,40.3137],[128.6203,40.2968],[128.6167,40.2714],[128.6563,40.2579],[128.6671,40.241],[128.6635,40.2005],[128.6347,40.1836],[128.5879,40.187],[128.5447,40.1667],[128.5267,40.1431],[128.5087,40.1347],[128.4799,40.1347],[128.4367,40.1043],[128.4115,40.0958],[128.3647,40.0975],[128.3395,40.0671],[128.3287,40.0283],[128.3035,40.0333],[128.2819,40.0654],[128.2639,40.0772],[128.2351,40.0671],[128.2279,40.057],[128.2351,40.03],[128.1919,40.03],[128.1559,40.0165],[128.1379,40.0266],[128.0083,40.0452],[127.9975,40.0198],[127.9651,40.0046],[127.9399,39.9742],[127.9075,39.9844],[127.8895,39.9607],[127.8823,39.9016],[127.8751,39.8932],[127.7815,39.8848],[127.7959,39.8763],[127.7923,39.8662],[127.7635,39.8544],[127.7275,39.8577],[127.6951,39.8476],[127.6807,39.8172],[127.6627,39.8071],[127.6231,39.8307],[127.6087,39.8105],[127.5619,39.7834],[127.5511,39.7615],[127.5223,39.7463],[127.5043,39.7159],[127.5007,39.699],[127.5115,39.65],[127.5511,39.6365],[127.5691,39.618],[127.5763,39.5943],[127.5367,39.5521],[127.5187,39.5099],[127.5619,39.3444],[127.5619,39.3157],[127.5439,39.3022],[127.5223,39.3157],[127.5259,39.3444],[127.5439,39.3714],[127.4935,39.4339],[127.4683,39.4305],[127.4251,39.3917],[127.3783,39.3782],[127.3891,39.3664],[127.4251,39.3579],[127.4539,39.368],[127.4683,39.3647],[127.4719,39.3478],[127.4683,39.3393],[127.4251,39.3309],[127.4143,39.341],[127.3927,39.341],[127.3999,39.3241],[127.3711,39.2397],[127.3927,39.2026],[127.4539,39.1654],[127.4719,39.1688],[127.4719,39.1941],[127.4899,39.1941],[127.5115,39.157],[127.5331,39.1468],[127.6087,39.1519],[127.6303,39.1468],[127.6627,39.1215],[127.7599,39.1164],[127.8247,39.0438],[127.8499,39.0016],[127.8859,38.9746],[127.8895,38.9611],[127.9147,38.9645],[127.9255,38.9341],[127.9615,38.9172],[128.0155,38.8581],[128.0911,38.8429],[128.2099,38.7281],[128.2819,38.7551],[128.3611,38.6791],[128.3647,38.6251],[128.4302,38.5208],[128.4,38.4],[127.6,38.1],[126.8,37.95],[126.4256,37.8564],[126.3991,37.8922],[126.3775,37.8889],[126.2587,37.845],[126.2011,37.845],[126.1579,37.8298],[126.1471,37.8196],[126.1626,37.7758],[126.1048,37.7578],[126.0859,37.801],[126.0643,37.8027],[126.0571,37.8703],[126.0247,37.8534],[126.0139,37.8551],[125.9995,37.8855],[125.9599,37.9125],[125.9455,37.9024],[125.9491,37.8889],[125.9743,37.8737],[125.9851,37.823],[125.9563,37.8399],[125.9203,37.845],[125.8951,37.8652],[125.8339,37.9429],[125.8051,37.9513],[125.8051,37.9885],[125.7979,37.9935],[125.5963,38.0324],[125.5783,38.0256],[125.5783,38.0087],[125.5963,37.9919],[125.6395,37.9733],[125.6755,37.9783],[125.6863,37.9716],[125.6791,37.953],[125.7007,37.9581],[125.7187,37.953],[125.6971,37.926],[125.7331,37.9328],[125.7403,37.926],[125.7151,37.9074],[125.6863,37.899],[125.6683,37.899],[125.6323,37.926],[125.6287,37.9024],[125.6395,37.8568],[125.6215,37.8365],[125.6431,37.823],[125.6395,37.8129],[125.6107,37.8061],[125.6215,37.7656],[125.5927,37.7639],[125.5747,37.774],[125.5819,37.7825],[125.5711,37.7875],[125.5531,37.7825],[125.5495,37.7707],[125.5279,37.7723],[125.5207,37.7808],[125.5279,37.796],[125.5027,37.7791],[125.4739,37.7318],[125.4292,37.7195],[125.3749,37.7575],[125.3911,37.7538],[125.4451,37.774],[125.3767,37.7825],[125.4343,37.8196],[125.4559,37.823],[125.5063,37.8129],[125.5243,37.8179],[125.5279,37.8433],[125.4991,37.8399],[125.4775,37.8568],[125.5099,37.8838],[125.5099,37.8939],[125.4631,37.9041],[125.4451,37.9209],[125.4235,37.9125],[125.4307,37.899],[125.3839,37.8922],[125.4451,37.8601],[125.4451,37.8433],[125.3983,37.8652],[125.3479,37.8652],[125.3767,37.8433],[125.3083,37.8095],[125.3011,37.823],[125.2814,37.823],[125.2559,37.8409],[125.2939,37.8601],[125.3083,37.8787],[125.3011,37.8956],[125.2579,37.9142],[125.2615,37.9328],[125.2399,37.9294],[125.2031,37.8778],[125.0613,37.9771],[125.0743,37.98],[125.1355,37.9598],[125.1643,37.9632],[125.1859,37.98],[125.1787,37.9885],[125.1571,37.98],[125.1427,37.9834],[125.1139,38.002],[125.1067,38.0341],[125.1175,38.0425],[125.2003,38.0493],[125.2147,38.0459],[125.2255,38.0223],[125.2471,38.0206],[125.2543,38.0543],[125.2723,38.0628],[125.2651,38.078],[125.1391,38.0982],[125.0131,38.0628],[124.9374,38.0982],[124.887,38.132],[124.8711,38.1102],[124.7751,38.1774],[124.8222,38.186],[124.8546,38.2266],[124.8798,38.2299],[124.9194,38.1894],[124.9914,38.2266],[124.9662,38.235],[124.9158,38.2283],[124.8726,38.257],[124.869,38.2823],[124.8798,38.3448],[124.9482,38.4512],[124.9734,38.463],[124.9734,38.441],[125.0167,38.4984],[125.0203,38.5153],[124.995,38.5356],[124.9986,38.566],[124.9806,38.5845],[124.9842,38.5913],[124.9986,38.593],[125.0167,38.5829],[125.0383,38.5913],[125.0599,38.5677],[125.1031,38.593],[125.1283,38.5795],[125.1355,38.5913],[125.1355,38.6251],[125.1175,38.6453],[125.1247,38.6656],[125.1391,38.6622],[125.1571,38.6318],[125.1787,38.6352],[125.1787,38.6707],[125.2039,38.6521],[125.2687,38.6707],[125.3011,38.6572],[125.3443,38.6876],[125.3983,38.6943],[125.4415,38.6859],[125.4523,38.7044],[125.4631,38.7078],[125.5063,38.6859],[125.5207,38.6521],[125.5315,38.6538],[125.5459,38.6791],[125.5567,38.6774],[125.5855,38.642],[125.6395,38.6268],[125.6575,38.6318],[125.6323,38.6588],[125.5891,38.6656],[125.5279,38.7213],[125.4775,38.7281],[125.4487,38.777],[125.4379,38.7754],[125.4235,38.7551],[125.4127,38.7551],[125.4343,38.7365],[125.4199,38.7298],[125.3875,38.7179],[125.3551,38.7348],[125.3515,38.7213],[125.3407,38.7179],[125.3155,38.7213],[125.3011,38.7348],[125.2975,38.7213],[125.3083,38.7078],[125.2795,38.7027],[125.2615,38.7078],[125.2435,38.7281],[125.2687,38.7551],[125.2543,38.7618],[125.2543,38.7838],[125.2399,38.7939],[125.2255,38.7956],[125.2291,38.772],[125.2183,38.7399],[125.1895,38.7382],[125.1715,38.7635],[125.1463,38.777],[125.1355,38.8041],[125.1535,38.8919],[125.1715,38.9391],[125.2003,38.9746],[125.2003,38.9864],[125.2723,39.081],[125.3335,39.0827],[125.2831,39.0894],[125.2939,39.1435],[125.2867,39.1519],[125.3083,39.1654],[125.3443,39.1688],[125.3299,39.1941],[125.3443,39.2127],[125.3659,39.2211],[125.4127,39.2144],[125.3947,39.2465],[125.4307,39.3005],[125.4451,39.3106],[125.4163,39.3208],[125.4127,39.3343],[125.4199,39.3512],[125.4055,39.3647],[125.4235,39.3579],[125.4451,39.3664],[125.4595,39.3849],[125.3587,39.3984],[125.3587,39.4136],[125.3839,39.4407],[125.3443,39.4339],[125.3443,39.4592],[125.3983,39.5014],[125.4127,39.5386],[125.4415,39.547],[125.4523,39.5707],[125.4451,39.5842],[125.2867,39.5217],[125.2363,39.5622],[125.2111,39.5724],[125.2255,39.5909],[125.1571,39.5909],[125.1715,39.5639],[125.1175,39.5656],[125.0959,39.6028],[125.0383,39.6078],[125.0095,39.6348],[124.9878,39.6382],[124.959,39.6619],[124.9482,39.6635],[124.9374,39.6467],[124.9014,39.6619],[124.8942,39.6923],[124.8798,39.7041],[124.833,39.726],[124.8114,39.7277],[124.8006,39.7395],[124.7718,39.7412],[124.761,39.748],[124.7466,39.7834],[124.7394,39.7615],[124.7538,39.7345],[124.743,39.6906],[124.7574,39.6872],[124.7538,39.672],[124.7286,39.6652],[124.743,39.645],[124.7178,39.6467],[124.6962,39.6382],[124.6494,39.6129],[124.6386,39.5909],[124.6242,39.5977],[124.6278,39.6112],[124.6098,39.6281],[124.6278,39.645],[124.6314,39.6635],[124.6458,39.6703],[124.6458,39.6973],[124.6242,39.6939],[124.6098,39.7142],[124.5846,39.7243],[124.5882,39.7666],[124.5666,39.7784],[124.563,39.8138],[124.4334,39.8307],[124.419,39.824],[124.4046,39.8408],[124.3974,39.8662],[124.3614,39.8712],[124.3506,39.8932],[124.3218,39.9135],[124.3686,39.9405],[124.383,40.003],[124.4046,40.0283],[124.4658,40.0148],[124.4982,40.0232],[124.4118,40.0367],[124.3902,40.0485],[124.3686,40.0975],[124.3578,40.0891],[124.3614,40.0114],[124.3074,39.9607],[124.3002,39.9405],[124.1166,39.8324],[124.0878,39.8527],[124.041,39.824],[123.987,39.8105],[123.9438,39.8408],[123.9114,39.824],[123.8862,39.8223],[123.807,39.8375],[123.7746,39.8189],[123.7206,39.8307],[123.6414,39.878],[123.6558,39.9202],[123.6306,39.9033],[123.591,39.7851],[123.5622,39.7699],[123.5334,39.7969],[123.5118,39.7986],[123.4938,39.7902],[123.429,39.726],[123.411,39.7345],[123.4074,39.7463],[123.4182,39.824],[123.3966,39.8189],[123.4038,39.8105],[123.3858,39.7902],[123.3138,39.7767],[123.2742,39.8105],[123.2634,39.7969],[123.2562,39.8003],[123.2526,39.8172],[123.2346,39.802],[123.267,39.7547],[123.249,39.748],[123.2094,39.7547],[123.2058,39.7345],[123.2562,39.7243],[123.2706,39.7075],[123.267,39.7007],[123.1734,39.6652],[123.1266,39.6652],[123.1086,39.6906],[123.0582,39.6754],[123.0078,39.6804],[122.9934,39.6652],[122.979,39.6669],[122.979,39.6585],[122.997,39.65],[122.9934,39.6365],[122.9646,39.6112],[122.9466,39.6196],[122.871,39.6061],[122.8494,39.618],[122.781,39.5605],[122.709,39.5352],[122.6766,39.515],[122.6478,39.5318],[122.637,39.5082],[122.5866,39.4677],[122.5614,39.4862],[122.5542,39.4812],[122.5614,39.4609],[122.5542,39.4559],[122.4714,39.417],[122.3958,39.4103],[122.385,39.3951],[122.3562,39.3883],[122.3202,39.3613],[122.2914,39.3512],[122.2662,39.3174],[122.2518,39.3241],[122.241,39.2853],[122.115,39.2009],[122.1042,39.1587],[122.1366,39.1587],[122.1618,39.1468],[122.1258,39.1418],[122.0718,39.1046],[122.0466,39.0996],[122.0394,39.0911],[122.0502,39.0675],[122.043,39.059],[121.989,39.0624],[121.9602,39.0405],[121.9422,39.0371],[121.9026,39.0489],[121.8882,39.0422],[121.9134,39.0303],[121.9242,39.0084],[121.881,39.027],[121.827,39.0371],[121.8378,39.0151],[121.881,38.9966],[121.8954,38.9814],[121.8882,38.9628],[121.8594,38.9442],[121.8126,38.9729],[121.773,39.0219],[121.7442,39.0337],[121.7262,39.0303],[121.719,39.0202],[121.737,39.0016],[121.6722,39.0084],[121.6362,38.9949],[121.6542,38.9898],[121.6542,38.9628],[121.593,38.9493],[121.5858,38.9408],[121.6182,38.9256],[121.6758,38.9223],[121.6938,38.9104],[121.7046,38.8919],[121.6974,38.8632],[121.6758,38.8716],[121.6542,38.8581],[121.5822,38.8632],[121.5534,38.8581],[121.485,38.8091],[121.3446,38.8142],[121.3,38.7946],[121.3,38.9673],[121.3338,38.9679]]],[[[121.3194,39.4542],[121.3302,39.4761],[121.3518,39.4829],[121.4238,39.4744],[121.449,39.4508],[121.4418,39.4407],[121.4166,39.4407],[121.4346,39.417],[121.4346,39.3866],[121.4202,39.3731],[121.4022,39.3714],[121.3374,39.3782],[121.3554,39.4069],[121.3806,39.4255],[121.377,39.4423],[121.341,39.4407],[121.3,39.3943],[121.3,39.4454],[121.3194,39.4542]]],[[[130.8019,42.6506],[130.7875,42.654],[130.8255,42.6726],[130.8287,42.6564],[130.8019,42.6506]]],[[[130.8307,42.6253],[130.8163,42.6338],[130.832,42.6399],[130.8354,42.6229],[130.8307,42.6253]]],[[[126.2479,37.8112],[126.2762,37.8113],[126.2314,37.7973],[126.2479,37.8112]]],[[[125.7079,37.6727],[125.7043,37.6609],[125.6863,37.6525],[125.6791,37.6778],[125.7079,37.6727]]],[[[124.851,39.5166],[124.8582,39.5285],[124.8438,39.5437],[124.8582,39.5437],[124.8546,39.5741],[124.869,39.5808],[124.869,39.596],[124.8834,39.6044],[124.8798,39.6129],[124.9266,39.6044],[124.9086,39.5943],[124.9338,39.5504],[124.8834,39.5268],[124.8618,39.5082],[124.8186,39.4947],[124.8366,39.5217],[124.851,39.5166]]],[[[124.8834,38.5288],[124.905,38.4951],[124.8402,38.5103],[124.8222,38.5221],[124.8006,38.5086],[124.7898,38.517],[124.7934,38.5339],[124.8438,38.5558],[124.8834,38.5288]]],[[[124.6926,39.5352],[124.7034,39.5369],[124.707,39.5302],[124.6962,39.5031],[124.6854,39.5031],[124.6818,39.5217],[124.6926,39.5352]]],[[[124.6746,39.5707],[124.6998,39.5622],[124.6746,39.5386],[124.6458,39.547],[124.5954,39.5386],[124.6314,39.5656],[124.6746,39.5707]]],[[[124.5918,39.4474],[124.6134,39.4575],[124.6206,39.4322],[124.6026,39.4271],[124.5918,39.4474]]],[[[124.2426,39.802],[124.2246,39.7919],[124.2102,39.7953],[124.221,39.8189],[124.2354,39.8172],[124.2426,39.802]]],[[[123.1662,39.0658],[123.1446,39.081],[123.1806,39.0911],[123.195,39.0523],[123.159,39.0286],[123.1446,39.0438],[123.1518,39.0624],[123.1662,39.0658]]],[[[123.0186,39.5437],[123.0402,39.5302],[123.0294,39.5082],[123.0042,39.4981],[122.979,39.4998],[122.9646,39.515],[122.9682,39.5403],[122.9898,39.5487],[123.0186,39.5437]]],[[[122.637,39.2279],[122.637,39.2346],[122.7198,39.2414],[122.7414,39.2363],[122.727,39.2093],[122.691,39.1941],[122.6982,39.2211],[122.637,39.2279]]],[[[122.6442,39.2549],[122.5866,39.2583],[122.5326,39.2718],[122.5038,39.2971],[122.5362,39.2988],[122.583,39.2836],[122.6442,39.2786],[122.6838,39.2617],[122.6442,39.2549]]],[[[122.3778,39.1604],[122.3346,39.1468],[122.3202,39.1654],[122.3562,39.1958],[122.403,39.2144],[122.3886,39.1941],[122.403,39.1587],[122.3886,39.1519],[122.3778,39.1604]]]]}},{"type":"Feature","properties":{"id":"gr-h-songhua-north","layer":"hypothesis","nameEn":"Hypothesis – Goguryeo north of the Songhua main stem","nameKo":"[검증 대상] 고구려가 쑹화강(송화강) 본류 북쪽까지 지배했다는 가설","category":"고구려 가설(검증 대상)","role":"korean","startYear":494,"endYear":668,"confidence":"speculative","license":"original (authored)","wikipedia":null,"wikidata":null,"sources":["RESEARCH_V02"],"uiDefault":true,"label":[126.703,46.25],"note":"이 폴리곤은 '쑹화강(넌강 합류 이후 본류, 하얼빈·다칭·자오위안 쪽) 북안까지 통제했다'는 가설이 성립할 때의 개략 범위를 시각화한 것일 뿐 증거가 있는 범위가 아님. 열람 범위에서 근거를 못 찾음: ① 통설상 부여성(=천리장성 북단)은 농안(길림성)으로 쑹화강 본류 남서쪽 가장자리이며 국경 초소로 읽힘, ② 후한~위진기 북한계는 휘발하·제2송화강 상류(북경대 강의 요약), ③ 435년 북위 사신 보고 '옛 부여에 이름', 494 부여 항복, ④ 본류 북안에서 확인된 고구려 진단적 유적을 찾지 못했고 그 지역은 부여문화·물길(말갈)·두막루 유적권. '못 찾음'이 '없음'의 증명은 아님 — 새 발굴이 나오면 바뀔 수 있음.","source":"korea"},"geometry":{"type":"Polygon","coordinates":[[[126,47.5],[128.4,46.9],[129.4,45.7],[128.2,45.1],[124.6,45.1],[124.4,46.8],[126,47.5]]]}},{"type":"Feature","properties":{"id":"by-doumolou","layer":"hypothesis","nameEn":"Doumolou ('former Northern Buyeo', schematic)","nameKo":"두막루(豆莫婁, 위서 '옛 북부여')","category":"부여 계열(작성)","role":"korean","startYear":480,"endYear":700,"confidence":"low","license":"original (authored)","wikipedia":null,"wikidata":null,"sources":["RESEARCH_V02"],"uiDefault":true,"label":[125.92,47.15],"note":"위서: '두막루국은 물길 북쪽 천 리, 옛 북부여'. 넌강~쑹화강 북쪽 평원(하얼빈·치치하얼 일대)에 있던 부여 잔존 세력으로 보는 견해가 다수. 존속 하한(700)은 화면용 근사.","source":"korea"},"geometry":{"type":"Polygon","coordinates":[[[126.5,49],[128.5,47.8],[127.8,46],[125.5,45.6],[123.5,46.5],[123.8,48.6],[126.5,49]]]}},{"type":"Feature","properties":{"id":"by-nongan","layer":"site","nameEn":"Nong'an (late Buyeo centre / Buyeoseong standard identification)","nameKo":"농안(부여 후기 중심·부여성 통설지)","category":"부여 유적","role":"korean","startYear":346,"endYear":668,"confidence":"medium","license":"original (authored)","wikipedia":null,"wikidata":null,"sources":["RESEARCH_V02"],"uiDefault":false,"label":null,"note":"346년 이후 부여 중심 서천설, 고구려 천리장성 북단 부여성의 통설 비정지, 발해 부여부 유력지. 요·금 황룡부/부여부 옛 성이 겹쳐 있어 부여·고구려 시기 층위는 확정 못 함.","source":"korea"},"geometry":{"type":"Point","coordinates":[125.175,44.435]}},{"type":"Feature","properties":{"id":"gr-gwanggaeto-stele","layer":"site","nameEn":"Gwanggaeto Stele (Ji'an)","nameKo":"광개토왕릉비(집안)","category":"고구려 성·유적","role":"korean","startYear":414,"endYear":2026,"confidence":"high","license":"original (authored)","wikipedia":null,"wikidata":null,"sources":["RESEARCH_V02"],"uiDefault":false,"label":null,"note":"414년 장수왕이 건립. 395~410년 원정의 동시대 기록. 신묘년 조 해석은 논쟁.","source":"korea"},"geometry":{"type":"Point","coordinates":[126.2142,41.1447]}},{"type":"Feature","properties":{"id":"gr-daeseongsan","layer":"site","nameEn":"Daeseongsan Fortress (Pyongyang)","nameKo":"대성산성(평양)","category":"고구려 성·유적","role":"korean","startYear":400,"endYear":668,"confidence":"medium","license":"original (authored)","wikipedia":null,"wikidata":null,"sources":["RESEARCH_V02"],"uiDefault":false,"label":null,"note":"안학궁과 짝을 이루는 평양 도읍기 산성. 둘레 약 7.2km.","source":"korea"},"geometry":{"type":"Point","coordinates":[125.8283,39.0739]}},{"type":"Feature","properties":{"id":"gr-yodong","layer":"site","nameEn":"Yodong Fortress (Liaoyang)","nameKo":"요동성(랴오양)","category":"고구려 성·유적","role":"korean","startYear":400,"endYear":668,"confidence":"medium","license":"original (authored)","wikipedia":null,"wikidata":null,"sources":["RESEARCH_V02"],"uiDefault":false,"label":null,"note":"645 당군이 함락한 요동 방어 중심. 한대 양평. 요동 확보는 광개토왕기 후연 전쟁의 결과.","source":"korea"},"geometry":{"type":"Point","coordinates":[123.176,41.279]}},{"type":"Feature","properties":{"id":"gr-sinseong","layer":"site","nameEn":"Sinseong / Gaoershan (Fushun)","nameKo":"신성(무순 고이산성)","category":"고구려 성·유적","role":"korean","startYear":300,"endYear":668,"confidence":"medium","license":"original (authored)","wikipedia":null,"wikidata":null,"sources":["RESEARCH_V02"],"uiDefault":false,"label":null,"note":"훈허가 요동평야로 나가는 서쪽 관문. 400년 후연 침공 대상, 668 함락.","source":"korea"},"geometry":{"type":"Point","coordinates":[123.96,41.88]}},{"type":"Feature","properties":{"id":"gr-geonan","layer":"site","nameEn":"Geonan Fortress (Gaizhou)","nameKo":"건안성(가이저우 고려성산)","category":"고구려 성·유적","role":"korean","startYear":500,"endYear":668,"confidence":"medium","license":"original (authored)","wikipedia":null,"wikidata":null,"sources":["RESEARCH_V02"],"uiDefault":false,"label":null,"note":"645~ 당군의 공략 대상.","source":"korea"},"geometry":{"type":"Point","coordinates":[122.4,40.45]}},{"type":"Feature","properties":{"id":"gr-ansi","layer":"site","nameEn":"Ansi Fortress (Yingchengzi, mainstream)","nameKo":"안시성(영성자산성 통설)","category":"고구려 성·유적","role":"korean","startYear":600,"endYear":668,"confidence":"medium","license":"original (authored)","wikipedia":null,"wikidata":null,"sources":["RESEARCH_V02"],"uiDefault":false,"label":null,"note":"645년 당 태종 원정을 막아낸 성. 위치는 영성자산성(해성)이 다수설이나 해룡천산성(대석교)·탕지보(개평)·봉황성 등 다른 비정이 있음(봉황성설은 박지원·안정복이 부정).","source":"korea"},"geometry":{"type":"Point","coordinates":[122.78,40.83]}},{"type":"Feature","properties":{"id":"gr-baegam","layer":"site","nameEn":"Baegam Fortress (Yanzhoucheng)","nameKo":"백암성(연주성, 랴오양)","category":"고구려 성·유적","role":"korean","startYear":500,"endYear":668,"confidence":"low","license":"original (authored)","wikipedia":null,"wikidata":null,"sources":["RESEARCH_V02"],"uiDefault":false,"label":null,"note":"645 당군에 함락. 정확한 성터 좌표는 확인하지 못해 지역 수준으로만 표시.","source":"korea"},"geometry":{"type":"Point","coordinates":[123.35,41.35]}},{"type":"Feature","properties":{"id":"gr-bisa","layer":"site","nameEn":"Bisa Fortress (Daheishan, Dalian)","nameKo":"비사성(대흑산산성, 다롄)","category":"고구려 성·유적","role":"korean","startYear":500,"endYear":668,"confidence":"low","license":"original (authored)","wikipedia":null,"wikidata":null,"sources":["RESEARCH_V02"],"uiDefault":false,"label":null,"note":"645년 5월 당 수군이 함락.","source":"korea"},"geometry":{"type":"Point","coordinates":[121.65,39.05]}},{"type":"Feature","properties":{"id":"gr-ogol","layer":"site","nameEn":"Ogol Fortress (Fenghuangshan)","nameKo":"오골성(봉황산성 통설)","category":"고구려 성·유적","role":"korean","startYear":500,"endYear":668,"confidence":"low","license":"original (authored)","wikipedia":null,"wikidata":null,"sources":["RESEARCH_V02"],"uiDefault":false,"label":null,"note":"북한 학자 일부는 수옌 일대설 제기(우리역사넷 요약).","source":"korea"},"geometry":{"type":"Point","coordinates":[124.07,40.45]}},{"type":"Feature","properties":{"id":"gr-yongdamsan","layer":"site","nameEn":"Longtanshan Fortress (Jilin)","nameKo":"용담산성(길림)","category":"고구려 성·유적","role":"korean","startYear":300,"endYear":668,"confidence":"medium","license":"original (authored)","wikipedia":null,"wikidata":null,"sources":["RESEARCH_V02"],"uiDefault":false,"label":null,"note":"쑹화강 유역 최북단급 고구려 산성으로 소개. 부여기 사용 여부는 자료마다 달라 연대 미확정.","source":"korea"},"geometry":{"type":"Point","coordinates":[126.58,43.85]}},{"type":"Feature","properties":{"id":"gr-namso-mokjeo","layer":"site","nameEn":"Namso / Mokjeo (Xinbin area)","nameKo":"남소성·목저성(신빈 일대)","category":"고구려 성·유적","role":"korean","startYear":300,"endYear":668,"confidence":"low","license":"original (authored)","wikipedia":null,"wikidata":null,"sources":["RESEARCH_V02"],"uiDefault":false,"label":null,"note":"400년(남소성)·406년(목저성) 후연과의 전투 관련. 두 후보 산성이 있어 지역 수준으로만 표시.","source":"korea"},"geometry":{"type":"Point","coordinates":[125.04,41.73]}},{"type":"Feature","properties":{"id":"gr-gaemo","layer":"site","nameEn":"Gaemo Fortress (Shenyang area)","nameKo":"개모성(선양 일대)","category":"고구려 성·유적","role":"korean","startYear":500,"endYear":668,"confidence":"low","license":"original (authored)","wikipedia":null,"wikidata":null,"sources":["RESEARCH_V02"],"uiDefault":false,"label":null,"note":"645 당군에 함락. 위키(선양)·우리역사넷(탑산산성)과 영문 위키 목록(푸순 고성자)이 어긋남.","source":"korea"},"geometry":{"type":"Point","coordinates":[123.43,41.8]}},{"type":"Feature","properties":{"id":"gr-horogoru","layer":"site","nameEn":"Horogoru (Yeoncheon)","nameKo":"호로고루(연천)","category":"고구려 성·유적","role":"korean","startYear":551,"endYear":668,"confidence":"high","license":"original (authored)","wikipedia":null,"wikidata":null,"sources":["RESEARCH_V02"],"uiDefault":false,"label":null,"note":"임진강·한탄강 평지 방어성. 6~7세기 고구려 남쪽 국경 방어망(약 20개)의 대표.","source":"korea"},"geometry":{"type":"Point","coordinates":[126.8598,37.9854]}},{"type":"Feature","properties":{"id":"bh-troitskoe-amur","layer":"site","nameEn":"Troitskoye burial ground (Amur Oblast, Mohe / Troitskaya group)","nameKo":"트로이츠코예 고분군(아무르주, 말갈)","category":"아무르·말갈 유적(발해 관련성 논쟁)","role":"korean","startYear":600,"endYear":1000,"confidence":"medium","license":"original (authored)","wikipedia":null,"wikidata":null,"sources":["RESEARCH_V02"],"uiDefault":false,"label":null,"note":"연해주가 아니라 아무르주 이바노프 구(벨라야 강 좌안). 백두산에서 직선 약 1,000km. 데레뱐코 발굴(1969~74)·알킨과 지린대(2004~05), 약 1,100기 이상 무덤 자리. 러시아 학계는 말갈 문화(트로이츠카야 그룹)로 보며 편년은 6~8세기설부터 8세기~11세기 초설까지 갈림(일부는 926년 이후). 네스테로프·볼코프는 트로이츠카야 그룹을 송화강 유역의 발해(속말)말갈이 8세기에 이주해 형성한 집단으로 해석 — 발해 건국 집단과의 '문화·인구 연결' 가설이며 발해 국가 통치의 증거는 아님. 정석배(2018)는 취락에서 회색 도편 9점이 상경·크라스키노 토기와 비슷하다며 발해 거주·서쪽 아무르 평원(약 북위 50.7°)까지 영역 가능성을 제기(신문 보도만 열람, 논문 미열람). NRICH 2007 목록은 '초기 중세'로만 분류. 아직 이 지역에서 발해 행정 유적(성터·관청·불교 유적)이 확인된 사례는 열람 범위에서 못 찾음.","source":"korea"},"geometry":{"type":"Point","coordinates":[127.933,50.75]}},{"type":"Feature","properties":{"id":"bh-ne-suibin-tongren","layer":"site","nameEn":"Suibin — Tongren culture (Heishui-line Mohe), not a Balhae fort","nameKo":"쑤이빈(绥滨) — 동인문화(흑수계 말갈, 발해 성터 아님)","category":"발해 북동부 조사","role":"korean","startYear":500,"endYear":900,"confidence":"low","license":"original (authored)","wikipedia":null,"wikidata":null,"sources":["RESEARCH_V02"],"uiDefault":false,"label":null,"note":"송화강 하류~삼강평원의 동인문화는 흑수말갈 계열로 보는 요약이 있음(신문·백과 수준). 이곳의 말갈 유물만으로 발해 통치를 증명하지는 못함 — 발해 물질문화 자체가 말갈 기반이기 때문.","source":"korea"},"geometry":{"type":"Point","coordinates":[131.853,47.288]}},{"type":"Feature","properties":{"id":"gr-mohe-min","layer":"hypothesis","nameEn":"Goguryeo–Mohe sphere: minimal (Baeksan Mohe)","nameKo":"고구려–말갈 영향권: 최소형(백산말갈, 6세기 말)","category":"고구려–말갈 영향권(작성)","role":"korean","startYear":500,"endYear":668,"confidence":"low","license":"original (authored)","wikipedia":null,"wikidata":null,"sources":["RESEARCH_V02"],"uiDefault":true,"label":[127.127,42.65],"note":"가장 강한 근거는 신당서 '白山은 본래 고구려에 臣屬(白山本臣高麗)' — 평양 함락 뒤 그 무리 다수가 당으로 들어감. 백두산·압록강 상류·혼강·두만강 상류. 폴리곤은 방향·산 이름에서 만든 추론(오차 ±100km).","source":"korea"},"geometry":{"type":"Polygon","coordinates":[[[128.5,42.3],[128.2,41.5],[126.5,41.6],[126,42.2],[126,43],[127.8,43.3],[128.5,42.3]]]}},{"type":"Feature","properties":{"id":"gr-mohe-main","layer":"hypothesis","nameEn":"Goguryeo–Mohe sphere: mainstream reading","nameKo":"고구려–말갈 영향권: 통설 해석(백산 + 속말 남·중부)","category":"고구려–말갈 영향권(작성)","role":"korean","startYear":550,"endYear":668,"confidence":"low","license":"original (authored)","wikipedia":null,"wikidata":null,"sources":["RESEARCH_V02"],"uiDefault":true,"label":[126.836,43.1],"note":"대백과는 고구려가 중·동부 만주 말갈 다수를 복속시켜 지방제도 바깥에서 족장을 통해 간접 지배(공납·군사 협조)했다고 서술. 속말말갈은 수서에 '고구려와 접해 늘 고구려 안을 침구'(每寇高麗中)라고 나오는 이웃 겸 약탈자이면서, 신당서에는 발해 건국 집단이 '고구려에 부속한 속말말갈'로 나와 부분적·유동적 영향권으로 해석. 598년 말갈 기병 1만여, 645년 고구려·말갈 15만(합계) 동원이 근거. 속말 일부(돌지계 집단)는 대업 초 고구려에 패해 수에 귀부.","source":"korea"},"geometry":{"type":"Polygon","coordinates":[[[128.8,43.8],[128.6,42],[126.3,41.6],[125.3,42.6],[124.6,43.6],[124.6,45],[127.6,45],[128.8,43.8]]]}},{"type":"Feature","properties":{"id":"gr-mohe-max","layer":"hypothesis","nameEn":"Goguryeo–Mohe sphere: maximal (speculative)","nameKo":"[상한 추론] 고구려–말갈 영향권: 최대형(백돌·안차골 송화강 중하류 포함)","category":"고구려–말갈 영향권(작성)","role":"korean","startYear":550,"endYear":668,"confidence":"speculative","license":"original (authored)","wikipedia":null,"wikidata":null,"sources":["RESEARCH_V02"],"uiDefault":true,"label":[127.316,43.8],"note":"'중·동부 만주 말갈 다수 복속'이라는 총괄 서술을 부별 근거 없이 넓게 그린 상한. 백돌·안차골·불열은 고구려와의 직접 관계 사료를 못 찾았고(신당서는 668년 이후 '흩어져 소식이 끊겼다'고만), 흑수·호실은 제외. 근거 약함.","source":"korea"},"geometry":{"type":"Polygon","coordinates":[[[130,45.2],[130.6,43.6],[129.5,42],[126.3,41.4],[124.8,42.5],[124,44],[124,46.2],[127.8,46.4],[130,45.2]]]}},{"type":"Feature","properties":{"id":"mh-baeksan","layer":"site","nameEn":"Baeksan Mohe — within sphere (supported)","nameKo":"백산말갈(白山) — 고구려 영향권 '맞음'","category":"말갈 부(개략 위치)","role":"korean","startYear":500,"endYear":698,"confidence":"medium","license":"original (authored)","wikipedia":null,"wikidata":null,"sources":["RESEARCH_V02"],"uiDefault":false,"label":null,"note":"신당서: '白山本臣高麗'. 대백과도 백산부는 본래 고구려에 부용. 자치를 유지한 간접 지배로 읽힘. 위치는 백두산·압록강-훈강-두만강 상류 권역(±100km, 등급 D).","source":"korea"},"geometry":{"type":"Point","coordinates":[127.3,42.3]}},{"type":"Feature","properties":{"id":"mh-sumo","layer":"site","nameEn":"Sumo Mohe — partly","nameKo":"속말말갈(粟末) — 일부 맞음(부분적·유동적)","category":"말갈 부(개략 위치)","role":"korean","startYear":500,"endYear":698,"confidence":"medium","license":"original (authored)","wikipedia":null,"wikidata":null,"sources":["RESEARCH_V02"],"uiDefault":false,"label":null,"note":"수서: 고구려와 접해 늘 침구. 신당서: 발해 건국 집단은 '고구려에 부속한 속말말갈'. 돌지계 집단은 고구려에 패해 수에 귀부. 제2송화강 중류(농안~길림) 권역(±100~150km, 등급 D).","source":"korea"},"geometry":{"type":"Point","coordinates":[125.8,44]}},{"type":"Feature","properties":{"id":"mh-baekdol","layer":"site","nameEn":"Baekdol Mohe — unresolved","nameKo":"백돌말갈(伯咄) — 확정 불가","category":"말갈 부(개략 위치)","role":"korean","startYear":500,"endYear":698,"confidence":"low","license":"original (authored)","wikipedia":null,"wikidata":null,"sources":["RESEARCH_V02"],"uiDefault":false,"label":null,"note":"수서·신당서에 고구려와의 직접 관계 언급 없음. 위치는 '속말 북쪽' 추론(±150~200km, 등급 E).","source":"korea"},"geometry":{"type":"Point","coordinates":[126.3,45.2]}},{"type":"Feature","properties":{"id":"mh-anchegol","layer":"site","nameEn":"Anchegol Mohe — no evidence found","nameKo":"안차골말갈(安車骨) — 근거 못 찾음","category":"말갈 부(개략 위치)","role":"korean","startYear":500,"endYear":698,"confidence":"low","license":"original (authored)","wikipedia":null,"wikidata":null,"sources":["RESEARCH_V02"],"uiDefault":false,"label":null,"note":"고구려와의 직접 접촉 기록을 못 찾음. 위치 개략(등급 E).","source":"korea"},"geometry":{"type":"Point","coordinates":[127.3,45.6]}},{"type":"Feature","properties":{"id":"mh-bulyeol","layer":"site","nameEn":"Bulyeol (Funie) Mohe — no evidence found","nameKo":"불열말갈(拂涅) — 근거 못 찾음","category":"말갈 부(개략 위치)","role":"korean","startYear":500,"endYear":698,"confidence":"low","license":"original (authored)","wikipedia":null,"wikidata":null,"sources":["RESEARCH_V02"],"uiDefault":false,"label":null,"note":"고구려 관련 사료 없음. 목단강 유역(등급 E). 당에는 718년 이후 독자 조공(류·먀오 요약).","source":"korea"},"geometry":{"type":"Point","coordinates":[129.6,44.6]}},{"type":"Feature","properties":{"id":"mh-hosil","layer":"site","nameEn":"Hosil Mohe — no evidence found","nameKo":"호실말갈(號室) — 근거 못 찾음","category":"말갈 부(개략 위치)","role":"korean","startYear":500,"endYear":698,"confidence":"low","license":"original (authored)","wikipedia":null,"wikidata":null,"sources":["RESEARCH_V02"],"uiDefault":false,"label":null,"note":"고구려와 직접 관계 사료 없음. 지리상 가장 먼 쪽(등급 E).","source":"korea"},"geometry":{"type":"Point","coordinates":[132,44.7]}},{"type":"Feature","properties":{"id":"mh-heuksu","layer":"site","nameEn":"Heishui Mohe — no subordination evidence","nameKo":"흑수말갈(黑水) — 복속 근거 못 찾음","category":"말갈 부(개략 위치)","role":"korean","startYear":500,"endYear":698,"confidence":"low","license":"original (authored)","wikipedia":null,"wikidata":null,"sources":["RESEARCH_V02"],"uiDefault":false,"label":null,"note":"'서쪽으로 돌궐에 속했다'(西屬突厥) 서술, 이후 당(725/726 흑수주)과 독자 교섭. ko.wikipedia 요약의 '645년 안시성에 말갈군' 서술은 원문 대조에 실패해 미확정(등급 E).","source":"korea"},"geometry":{"type":"Point","coordinates":[133,48]}},{"type":"Feature","properties":{"id":"gr-mohe-blob-baeksan","layer":"hypothesis","nameEn":"Baeksan Mohe sphere (approx.)","nameKo":"백산말갈 영향 범위(개략)","category":"말갈 부별 영향 범위(작성)","role":"korean","startYear":500,"endYear":668,"confidence":"medium","license":"original (authored)","wikipedia":null,"wikidata":null,"sources":["RESEARCH_V02"],"uiDefault":true,"label":[127.3,42.428],"note":"신당서 '白山本臣高麗'를 근거로 백두산·압록강 상류·혼강·두만강 상류를 감싼 옅은 범위. 반경은 위치 불확실성(±100km)이지 지배 경계가 아님. [v0.4] '영토보다 옅은 폴리곤' 표현: 점 위치(±100~250km)를 감싸는 타원이며 실제 형상이 아님.","source":"korea"},"geometry":{"type":"Polygon","coordinates":[[[128.701,41.801],[128.516,41.583],[128.269,41.401],[127.975,41.264],[127.646,41.179],[127.3,41.15],[126.954,41.179],[126.625,41.264],[126.331,41.401],[126.084,41.583],[125.899,41.801],[125.784,42.044],[125.745,42.3],[125.784,42.556],[125.899,42.799],[126.084,43.017],[126.331,43.199],[126.625,43.336],[126.954,43.421],[127.3,43.45],[127.646,43.421],[127.975,43.336],[128.269,43.199],[128.516,43.017],[128.701,42.799],[128.816,42.556],[128.855,42.3],[128.816,42.044],[128.701,41.801]]]}},{"type":"Feature","properties":{"id":"gr-mohe-blob-sumo","layer":"hypothesis","nameEn":"Sumo Mohe sphere (approx.)","nameKo":"속말말갈 영향 범위(개략)","category":"말갈 부별 영향 범위(작성)","role":"korean","startYear":500,"endYear":668,"confidence":"low","license":"original (authored)","wikipedia":null,"wikidata":null,"sources":["RESEARCH_V02"],"uiDefault":true,"label":[125.8,44.15],"note":"수서 '고구려와 접해 늘 침구' + 신당서 '고구려에 부속한 속말말갈'(발해 건국 집단). 협력과 적대가 섞인 부분적·유동적 영향. 제2송화강 중류 권역(±100~150km). [v0.4] '영토보다 옅은 폴리곤' 표현: 점 위치(±100~250km)를 감싸는 타원이며 실제 형상이 아님.","source":"korea"},"geometry":{"type":"Polygon","coordinates":[[[127.491,43.414],[127.267,43.158],[126.97,42.945],[126.614,42.784],[126.218,42.684],[125.8,42.65],[125.382,42.684],[124.986,42.784],[124.63,42.945],[124.333,43.158],[124.109,43.414],[123.97,43.7],[123.923,44],[123.97,44.3],[124.109,44.586],[124.333,44.842],[124.63,45.055],[124.986,45.216],[125.382,45.316],[125.8,45.35],[126.218,45.316],[126.614,45.216],[126.97,45.055],[127.267,44.842],[127.491,44.586],[127.63,44.3],[127.677,44],[127.63,43.7],[127.491,43.414]]]}},{"type":"Feature","properties":{"id":"gr-mohe-blob-baekdol","layer":"hypothesis","nameEn":"Baekdol Mohe (inferred; weak)","nameKo":"백돌말갈(위치 추론·근거 약함)","category":"말갈 부별 영향 범위(작성)","role":"korean","startYear":500,"endYear":668,"confidence":"speculative","license":"original (authored)","wikipedia":null,"wikidata":null,"sources":["RESEARCH_V02"],"uiDefault":true,"label":[126.3,45.344],"note":"고구려와의 직접 관계 사료를 못 찾음. 속말 북쪽이라는 추론만 있어 신뢰도 필터에서 '소수설·전승'을 켜야 보임. [v0.4] '영토보다 옅은 폴리곤' 표현: 점 위치(±100~250km)를 감싸는 타원이며 실제 형상이 아님.","source":"korea"},"geometry":{"type":"Polygon","coordinates":[[[127.962,44.636],[127.742,44.389],[127.45,44.184],[127.1,44.029],[126.711,43.933],[126.3,43.9],[125.889,43.933],[125.5,44.029],[125.15,44.184],[124.858,44.389],[124.638,44.636],[124.501,44.911],[124.455,45.2],[124.501,45.489],[124.638,45.764],[124.858,46.011],[125.15,46.216],[125.5,46.371],[125.889,46.467],[126.3,46.5],[126.711,46.467],[127.1,46.371],[127.45,46.216],[127.742,46.011],[127.962,45.764],[128.099,45.489],[128.145,45.2],[128.099,44.911],[127.962,44.636]]]}},{"type":"Feature","properties":{"id":"gr-mohe-blob-anchegol","layer":"hypothesis","nameEn":"Anchegol Mohe (no evidence found)","nameKo":"안차골말갈(근거 못 찾음)","category":"말갈 부별 영향 범위(작성)","role":"korean","startYear":500,"endYear":668,"confidence":"speculative","license":"original (authored)","wikipedia":null,"wikidata":null,"sources":["RESEARCH_V02"],"uiDefault":true,"label":[127.3,45.456],"note":"고구려와의 직접 접촉 기록을 못 찾음. [v0.4] '영토보다 옅은 폴리곤' 표현: 점 위치(±100~250km)를 감싸는 타원이며 실제 형상이 아님.","source":"korea"},"geometry":{"type":"Polygon","coordinates":[[[128.974,45.036],[128.753,44.789],[128.458,44.584],[128.106,44.429],[127.713,44.333],[127.3,44.3],[126.887,44.333],[126.494,44.429],[126.142,44.584],[125.847,44.789],[125.626,45.036],[125.489,45.311],[125.442,45.6],[125.489,45.889],[125.626,46.164],[125.847,46.411],[126.142,46.616],[126.494,46.771],[126.887,46.867],[127.3,46.9],[127.713,46.867],[128.106,46.771],[128.458,46.616],[128.753,46.411],[128.974,46.164],[129.111,45.889],[129.158,45.6],[129.111,45.311],[128.974,45.036]]]}},{"type":"Feature","properties":{"id":"gr-mohe-blob-bulyeol","layer":"hypothesis","nameEn":"Bulyeol Mohe (no evidence found)","nameKo":"불열말갈(근거 못 찾음)","category":"말갈 부별 영향 범위(작성)","role":"korean","startYear":500,"endYear":668,"confidence":"speculative","license":"original (authored)","wikipedia":null,"wikidata":null,"sources":["RESEARCH_V02"],"uiDefault":true,"label":[129.6,44.456],"note":"고구려 관련 사료 없음. 당에는 718년 이후 독자 조공. [v0.4] '영토보다 옅은 폴리곤' 표현: 점 위치(±100~250km)를 감싸는 타원이며 실제 형상이 아님.","source":"korea"},"geometry":{"type":"Polygon","coordinates":[[[131.245,44.036],[131.027,43.789],[130.738,43.584],[130.392,43.429],[130.006,43.333],[129.6,43.3],[129.194,43.333],[128.808,43.429],[128.462,43.584],[128.173,43.789],[127.955,44.036],[127.82,44.311],[127.774,44.6],[127.82,44.889],[127.955,45.164],[128.173,45.411],[128.462,45.616],[128.808,45.771],[129.194,45.867],[129.6,45.9],[130.006,45.867],[130.392,45.771],[130.738,45.616],[131.027,45.411],[131.245,45.164],[131.38,44.889],[131.426,44.6],[131.38,44.311],[131.245,44.036]]]}},{"type":"Feature","properties":{"id":"gr-mohe-blob-hosil","layer":"hypothesis","nameEn":"Hosil Mohe (no evidence found)","nameKo":"호실말갈(근거 못 찾음)","category":"말갈 부별 영향 범위(작성)","role":"korean","startYear":500,"endYear":668,"confidence":"speculative","license":"original (authored)","wikipedia":null,"wikidata":null,"sources":["RESEARCH_V02"],"uiDefault":true,"label":[131.597,44.844],"note":"고구려와 직접 관계 사료 없음. 지리상 가장 먼 쪽. [v0.4] '영토보다 옅은 폴리곤' 표현: 점 위치(±100~250km)를 감싸는 타원이며 실제 형상이 아님.","source":"korea"},"geometry":{"type":"Polygon","coordinates":[[[133.648,44.136],[133.43,43.889],[133.14,43.684],[132.794,43.529],[132.407,43.433],[132,43.4],[131.593,43.433],[131.206,43.529],[130.86,43.684],[130.57,43.889],[130.352,44.136],[130.217,44.411],[130.171,44.7],[130.217,44.989],[130.352,45.264],[130.57,45.511],[130.86,45.716],[131.206,45.871],[131.593,45.967],[132,46],[132.407,45.967],[132.794,45.871],[133.14,45.716],[133.43,45.511],[133.648,45.264],[133.783,44.989],[133.829,44.7],[133.783,44.411],[133.648,44.136]]]}},{"type":"Feature","properties":{"id":"gr-mohe-blob-heuksu","layer":"hypothesis","nameEn":"Heishui Mohe (no subordination evidence)","nameKo":"흑수말갈(복속 근거 못 찾음)","category":"말갈 부별 영향 범위(작성)","role":"korean","startYear":500,"endYear":668,"confidence":"speculative","license":"original (authored)","wikipedia":null,"wikidata":null,"sources":["RESEARCH_V02"],"uiDefault":true,"label":[131.994,47.154],"note":"신당서는 '서쪽으로 돌궐에 속했다(西屬突厥)'고 씀. 이후 당(725/726 흑수주)과 독자 교섭. [v0.4] '영토보다 옅은 폴리곤' 표현: 점 위치(±100~250km)를 감싸는 타원이며 실제 형상이 아님.","source":"korea"},"geometry":{"type":"Polygon","coordinates":[[[135.154,47.306],[134.869,47.002],[134.491,46.749],[134.037,46.558],[133.532,46.44],[133,46.4],[132.468,46.44],[131.963,46.558],[131.509,46.749],[131.131,47.002],[130.846,47.306],[130.669,47.644],[130.609,48],[130.669,48.356],[130.846,48.694],[131.131,48.998],[131.509,49.251],[131.963,49.442],[132.468,49.56],[133,49.6],[133.532,49.56],[134.037,49.442],[134.491,49.251],[134.869,48.998],[135.154,48.694],[135.331,48.356],[135.391,48],[135.331,47.644],[135.154,47.306]]]}},{"type":"Feature","properties":{"id":"gr-nen-min","layer":"hypothesis","nameEn":"Goguryeo northern sphere: minimal (old Buyeo core)","nameKo":"고구려 북방 영향권: 최소형(길림~농안 옛 부여 핵심, 494~668)","category":"고구려 북방(부여·눈강) 영향권","role":"korean","startYear":494,"endYear":668,"confidence":"low","license":"original (authored)","wikipedia":null,"wikidata":null,"sources":["RESEARCH_V02"],"uiDefault":true,"label":[125.975,44.05],"note":"435년 북위 사신 이오: 고구려 북쪽은 '옛 부여(舊夫餘)'까지(북사). 모두루묘지 '북부여수사'=길림 일대(여호규), 부여성(농안설). 문헌·성곽이 받쳐주는 범위. 손으로 그린 도식.","source":"korea"},"geometry":{"type":"Polygon","coordinates":[[[125.8,44.9],[126.9,44.5],[127.1,43.6],[126.2,43.2],[125,43.5],[124.9,44.6],[125.8,44.9]]]}},{"type":"Feature","properties":{"id":"gr-nen-main","layer":"hypothesis","nameEn":"Goguryeo northern sphere: mainstream reading","nameKo":"고구려 북방 영향권: 통설형(제2송화강·이통하 평원, 송화강 남안까지)","category":"고구려 북방(부여·눈강) 영향권","role":"korean","startYear":494,"endYear":668,"confidence":"low","license":"original (authored)","wikipedia":null,"wikidata":null,"sources":["RESEARCH_V02"],"uiDefault":true,"label":[125.958,44.1],"note":"최소형 + 제2송화강·이통하 평원 ~ 송화강 본류 남안·휘발하 가장자리(속말말갈과 접함). 천리장성 북단·부여성, 속말 일부 '고구려에 부속' 서술에 근거한 개략 영향 한계. 눈강 유역과 송화강 북안은 포함하지 않음. [v0.5] 북변을 송화강 남안선(삼차하~하얼빈; 발해 교과서형 폴리곤 북변과 같은 강줄기)에 맞춰 조정 — 기존엔 임의로 45.25~45.4°N였음.","source":"korea"},"geometry":{"type":"Polygon","coordinates":[[[124.75,45.4],[126.6,45.75],[127.6,45.9],[127.6,44.6],[127.4,43.4],[126.3,43],[124.4,43.6],[124.4,45.2],[124.75,45.4]]]}},{"type":"Feature","properties":{"id":"gr-nen-max","layer":"hypothesis","nameEn":"Goguryeo northern sphere: maximal — Nen basin (claim at full strength)","nameKo":"[상한 검증용] 고구려 북방 영향권: 눈강 유역까지(네가 제기한 최대 해석)","category":"고구려 북방(부여·눈강) 영향권","role":"korean","startYear":494,"endYear":668,"confidence":"speculative","license":"original (authored)","wikipedia":null,"wikidata":null,"sources":["RESEARCH_V02"],"uiDefault":true,"label":[124.374,45.85],"note":"'송화강 북쪽 눈강 유역까지 세력권'을 그대로 그려 범위를 가늠하려는 상한. 열람한 사료·개설서·고고 자료 어디에도 근거를 못 찾았고, 오히려 물길의 눈강-조어하 우회로, 독자 사신을 보낸 두막루(부여 계승국), 고구려 유적 무보고와 어긋남.","source":"korea"},"geometry":{"type":"Polygon","coordinates":[[[123,47.7],[124.8,47.8],[126.4,46.3],[127,45.4],[127.4,44.3],[126.9,43.4],[125,43.4],[123.5,43.9],[122.2,44.4],[122,46.3],[123,47.7]]]}},{"type":"Feature","properties":{"id":"gr-nen-null","layer":"site","nameEn":"Nen basin / E. Inner Mongolia — no Goguryeo remains found in surveyed sources","nameKo":"눈강 유역·내몽골 동부: 고구려 성·기와·무덤 보고를 못 찾음(조사 결과)","category":"조사 결과 없음(널 결과)","role":"korean","startYear":494,"endYear":668,"confidence":"low","license":"original (authored)","wikipedia":null,"wikidata":null,"sources":["RESEARCH_V02"],"uiDefault":false,"label":null,"note":"싱안맹·후룬베이얼, 지린 서부(바이청·쑹위안), 헤이룽장 눈강·송화강 북안에서 고구려 성·무덤·기와가 보고된 사례를 열람 범위에서 못 찾았다. 영문 위키 '중국 내 고구려 성 목록'(20곳)에도 내몽골·헤이룽장 항목이 없고, 확인되는 층은 선비·거란·요금. '석관묘'는 이 지역에서 청동기 서단산문화(기원전 9~6세기)부터 나오는 형식이라 고구려 특정 유물이 아니고, 기와는 요금 도시에서 매우 흔함. 본 점은 '조사했으나 못 찾음'을 표시한 것이며 '없다'의 증명이 아님(《고고》·《북방문물》 발굴 보고서 미열람).","source":"korea"},"geometry":{"type":"Point","coordinates":[124.29,45.5]}},{"type":"Feature","properties":{"id":"gr-lx3-min","layer":"hypothesis","nameEn":"Goguryeo Liaoxi sphere: minimal (Muryeora strip W of Liao R.)","nameKo":"고구려 요서 영향권: 최소형(요하 서안 무려라 일대, 6~7세기)","category":"고구려 요서(재조사) 영향권","role":"korean","startYear":598,"endYear":645,"confidence":"medium","license":"original (authored)","wikipedia":null,"wikidata":null,"sources":["RESEARCH_V02"],"uiDefault":true,"label":[122.7,41.9],"note":"사료가 직접 받쳐주는 것만: 수서 '요수 서쪽에서 적의 무려라를 함락(612)' — 요하 서안의 관진(초소). 신민 일대(±20km). 이 상자는 초소 주변을 넉넉히 감싼 도식(약 60×90km)이며 조사된 경계가 아님. 5세기 요서 지배를 보이는 증거는 아님.","source":"korea"},"geometry":{"type":"Polygon","coordinates":[[[123,42.3],[123,41.5],[122.4,41.5],[122.4,42.3],[123,42.3]]]}},{"type":"Feature","properties":{"id":"gr-lx3-main","layer":"hypothesis","nameEn":"Goguryeo Liaoxi sphere: mainstream reading (E of Yiwulu–lower Daling)","nameKo":"고구려 요서 영향권: 통설형(6세기 후반, 의무려산~대릉하 하류 동쪽 ~ 요하)","category":"고구려 요서(재조사) 영향권","role":"korean","startYear":570,"endYear":645,"confidence":"low","license":"original (authored)","wikipedia":null,"wikidata":null,"sources":["RESEARCH_V02"],"uiDefault":true,"label":[122.259,41.7],"note":"이정빈(2018, 동북아역사넷 인용): 6세기 후반 수와 고구려의 경계는 의무려산~대릉하 하류. 그 동쪽 요하까지가 고구려 세력범위, 서북쪽 거란·말갈은 부용(영토가 아님), 영주(조양)·대릉하 상류는 수 쪽. 꼭짓점은 작성자의 도식. 그 이전(후연·북연·북위) 기간에는 이 범위를 고구려가 계속 가졌다는 근거가 없음.","source":"korea"},"geometry":{"type":"Polygon","coordinates":[[[123,41.5],[122.4,40.9],[121.8449,40.8604],[121.8414,40.9131],[121.827,40.9334],[121.827,40.9486],[121.8594,40.9671],[121.8738,40.9891],[121.8666,40.9958],[121.7766,40.935],[121.7802,40.908],[121.7438,40.8531],[121.7,40.85],[121.3,41],[121.55,41.5],[121.6,41.9],[122.8,42.2],[123,41.5]]]}},{"type":"Feature","properties":{"id":"gr-lx3-max","layer":"hypothesis","nameEn":"Goguryeo Liaoxi zone of activity — maximal (raids + NW Khitan/Mohe influence)","nameKo":"[상한] 고구려 요서 '활동·영향 범위' 최대형(395~612, 습격 도달 + 서북 거란·말갈 영향)","category":"고구려 요서(재조사) 영향권","role":"korean","startYear":395,"endYear":645,"confidence":"speculative","license":"original (authored)","wikipedia":null,"wikidata":null,"sources":["RESEARCH_V02"],"uiDefault":true,"label":[121.394,42.1],"note":"395 패려 원정, 402 숙군·404 연군, 436 화룡성 진입, 479 지두우 모의, 6세기 거란 만 가 기거, 598 영주 방면 습격을 모두 감싼 외곽선 — 습격 도달범위와 부용 영향이지 통치 영역이 아님. 일부러 과하게 그렸고 시라무렌 유역은 맨 위 끝에서 원정·부용 수준으로만 닿음.","source":"korea"},"geometry":{"type":"Polygon","coordinates":[[[123,42.4],[123,41.5],[122.4,40.9],[121.8464,40.8539],[121.8414,40.9131],[121.827,40.9334],[121.827,40.9486],[121.8594,40.9671],[121.8738,40.9891],[121.8666,40.9958],[121.7766,40.935],[121.7802,40.908],[121.7406,40.8489],[121.575,40.8422],[121.5102,40.8793],[121.449,40.8861],[121.431,40.9131],[121.3626,40.9401],[121.2978,40.8996],[121.2726,40.903],[121.2582,40.9199],[121.2438,40.9063],[121.2258,40.9266],[121.2006,40.93],[121.1754,40.9215],[121.107,40.8726],[121.0839,40.8664],[120.5,41.2],[119.9,41.8],[119.6,42.6],[119.5,43.8],[122.5,43.6],[123,42.4]]]}},{"type":"Feature","properties":{"id":"lx-muryeora","layer":"site","nameEn":"Muryeora (Wuli-luo) — ford post W of Liao River (Xinmin area)","nameKo":"무려라(武厲邏) — 요하 서안 관진(신민 일대 비정)","category":"요서 지점(고구려 원정)","role":"korean","startYear":590,"endYear":645,"confidence":"medium","license":"original (authored)","wikipedia":null,"wikidata":null,"sources":["RESEARCH_V02"],"uiDefault":false,"label":null,"note":"수서: 612년 수군이 '요수 서쪽에서 적의 무려라를 함락'(그 원정의 유일한 성과). 각주는 관진(초소)으로, 위치는 요하 서안 신민 부근. 연대는 수대 기록이며 5세기까지 올릴 근거는 없음. 동북아역사넷 한글 서술 중 '영주와 마주한 요서 서부'라는 대목은 요약 오류일 수 있어 쓰지 않음.","source":"korea"},"geometry":{"type":"Point","coordinates":[122.83,41.98]}},{"type":"Feature","properties":{"id":"lx-divide","layer":"line","nameEn":"Goguryeo–Sui frontier (Yiwulu Mts – lower Daling; Lee 2018, via NAHF)","nameKo":"고구려-수 경계 추정선(이정빈 2018: 의무려산~대릉하 하류)","category":"요서 지점(고구려 원정)","role":"korean","startYear":570,"endYear":645,"confidence":"low","license":"original (authored)","wikipedia":null,"wikidata":null,"sources":["RESEARCH_V02"],"uiDefault":false,"label":null,"note":"동북아역사넷이 인용한 이정빈(2018)의 6세기 후반 경계(의무려산~대릉하 하류)를 세 점으로 잇는 도식선. 이는 북제가 아니라 수 시기 근거이며, '북제군이 대릉하 서안에 머물러서 동쪽은 고구려가 잡고 있었다'는 추론은 침묵 논증으로 사료가 말하는 게 아님.","source":"korea"},"geometry":{"type":"LineString","coordinates":[[121.6,41.9],[121.7,41.6],[121.3,41]]}},{"type":"Feature","properties":{"id":"gr-lx3-broad","layer":"hypothesis","nameEn":"Goguryeo Liaoxi sphere: comprehensive (402–645, continuous)","nameKo":"고구려 요서 영향권: 포괄형(402~645 연속 — 습격 도달점·부용 거란·요하 서안을 모두 감쌈)","category":"고구려 요서(재조사) 영향권","role":"korean","startYear":402,"endYear":645,"confidence":"low","license":"original (authored)","wikipedia":null,"wikidata":null,"sources":["RESEARCH_V02"],"uiDefault":true,"label":[121.45,42.1],"note":"402 숙군·404 연군 → 436 화룡성 진입 → 479 지두우 모의·거란 이동 → 6세기 거란 만 가 기거(570경) → 598 영주 방면 습격 → 612 무려라까지, 사료로 확인되는 접점을 모두 포함하는 포괄형. 402~645를 끊기지 않게 표시한 것은 요청에 따른 표현이다 — 사료 자체는 402·404·436·479·570경·598·612에 점으로 있고 그 사이(405~435, 437~478, 480~569)는 기록이 없거나 얇다(523년 영주 진공은 근거 못 찾음). 즉 '연속 지배'가 아니라 '이 범위 안에서 반복해서 작용했다'는 영향권이며, 조양(영주)·대릉하 상류는 후연·북연·북위·북제·수의 중심이라 '고구려 영토'가 아님. 통설형(의무려산~요하)은 이 안의 더 진한 핵심으로 겹쳐 그림.","source":"korea"},"geometry":{"type":"Polygon","coordinates":[[[123,42.4],[123,41.5],[122.4,40.9],[121.8464,40.8539],[121.8414,40.9131],[121.827,40.9334],[121.827,40.9486],[121.8594,40.9671],[121.8738,40.9891],[121.8666,40.9958],[121.7766,40.935],[121.7802,40.908],[121.7406,40.8489],[121.575,40.8422],[121.5102,40.8793],[121.449,40.8861],[121.431,40.9131],[121.3626,40.9401],[121.2978,40.8996],[121.2726,40.903],[121.2582,40.9199],[121.2438,40.9063],[121.2258,40.9266],[121.2006,40.93],[121.1754,40.9215],[121.107,40.8726],[121.0839,40.8664],[120.5,41.2],[119.9,41.8],[119.9,43],[122.2,43],[123,42.4]]]}},{"type":"Feature","properties":{"id":"gr-primorye-possible","layer":"hypothesis","nameEn":"[Possible only] Lower Tumen–Posyet: possible Goguryeo cultural reach","nameKo":"[가능성만] 두만강 하류(훈춘)~포시예트만: 고구려 문화·영향이 닿았을 '가능' 지대(영토 아님)","category":"고구려 최동단 검증(작성)","role":"korean","startYear":250,"endYear":668,"confidence":"speculative","license":"original (authored)","wikipedia":null,"wikidata":null,"sources":["RESEARCH_V02"],"uiDefault":true,"label":[130.38,42.657],"note":"질문: 연해주에 말갈이 있었고 고구려가 말갈과 자주 협력했으니 고구려가 연해주까지 진출했을까? — 판정: 확정 불가(가능성 수준의 추론은 배제되지 않지만 자료로 확인되지 않음). 책성(훈춘)은 문헌상 비교적 탄탄한 동방 거점(217 후한 유민 안치, 신당서: 동경 용원부=柵城府)이라 그 연장선상 영향을 상상할 수 있으나, 크라스키노 44구역 제6생활면(14C AD250~550)은 '고구려시기 가능성이 매우 높다'는 헤지 표현이고 고구려계 유물·온돌은 미확인, 크라딘(2023)은 고구려를 언급하지 않으며 구들을 발해·여진에만 귀속한다. 고구려와 협력한 말갈은 속말·백산 등 만주 중남부 집단이라 연해주 말갈(호실·불열·월희 등)과 직접 연결되지 않고, en.wikipedia 'History of Primorye'는 직접 통제 증거가 없다고 쓴다. 두만강 이북·우수리 계곡으로 넓힐 근거는 없어 폴리곤은 이 좁은 지대로 한정했다. 폴리곤 형태는 추론이고 좌표 다수가 일반 지식이다.","source":"korea"},"geometry":{"type":"Polygon","coordinates":[[[130.98,42.72],[130.98,42.6354],[130.9135,42.6017],[130.8739,42.6034],[130.8163,42.6338],[130.8379,42.6422],[130.8883,42.6388],[130.9099,42.6169],[130.9315,42.6186],[130.9459,42.6304],[130.9495,42.6523],[130.8487,42.6608],[130.7875,42.654],[130.8307,42.6743],[130.8379,42.6912],[130.8271,42.6996],[130.7695,42.681],[130.7443,42.681],[130.7191,42.6996],[130.6579,42.6642],[130.6615,42.6439],[130.6831,42.6439],[130.7335,42.6152],[130.7299,42.5797],[130.7623,42.6],[130.7731,42.5966],[130.7839,42.5797],[130.8415,42.5578],[130.8739,42.5274],[130.8703,42.5172],[130.8595,42.524],[130.8415,42.5189],[130.8451,42.4868],[130.8379,42.4717],[130.7875,42.4615],[130.7803,42.4531],[130.7458,42.359],[130.5645,42.315],[130.5391,42.318],[130.5103,42.3366],[130.4815,42.3399],[130.4671,42.3349],[130.4707,42.3214],[130.4563,42.3112],[130.4383,42.3095],[130.4203,42.3247],[130.4059,42.3247],[130.4059,42.3079],[130.3881,42.294],[130.1,42.42],[130.1,43.02],[130.62,43.02],[130.98,42.72]]]}},{"type":"Feature","properties":{"id":"gr-chaekseong","layer":"site","nameEn":"Chaekseong (Hunchun, Wenteheibu fortress) — Goguryeo eastern base","nameKo":"책성(柵城) 비정지 — 훈춘 온특혁부성(고구려 동방 거점)","category":"고구려 성·유적","role":"korean","startYear":217,"endYear":668,"confidence":"medium","license":"original (authored)","wikipedia":null,"wikidata":null,"sources":["RESEARCH_V02"],"uiDefault":false,"label":null,"note":"고국천왕 때(217) 후한 유민을 책성에 안치(ko.wikipedia 고구려), 신당서는 발해 동경 용원부를 '柵城府'로도 부름, 온특혁부성은 '고구려 때 축조 추정'인 성. 고구려가 두만강 하류에 닿았다는 가장 강한 근거이나 유적 수준에서는 '추정'. 팔련성(발해 동경)과의 정확한 관계는 확인하지 못함.","source":"korea"},"geometry":{"type":"Point","coordinates":[130.37,42.86]}}]}