{"type":"FeatureCollection","properties":{"year":400,"source":"korea","fillHint":"layer in polity|polity_prehistory|hypothesis; prefer uiDefault"},"features":[{"type":"Feature","properties":{"id":"clio-byeonhan--91","layer":"polity","nameEn":"Byeonhan","nameKo":"변한(가야 권역)","category":"국가(Cliopatria)","role":"korean","startYear":-91,"endYear":533,"confidence":"medium","license":"CC-BY-4.0 (Cliopatria, Seshat) — 단순화·클리핑 등 변경 있음","wikipedia":"Byeonhan confederacy","wikidata":"Q1378584","sources":["CLIO"],"uiDefault":true,"label":[128.445,35.291],"note":null,"source":"korea"},"geometry":{"type":"Polygon","coordinates":[[[128.8692,35.1297],[128.6375,35.1297],[128.4986,35.001],[128.8074,35.001],[128.6849,34.7436],[128.3297,34.8079],[128.3136,34.9366],[128.0821,34.9366],[128.0679,34.7436],[127.7595,34.7436],[127.6221,34.615],[127.545,34.615],[127.451,34.7436],[127.5723,35.001],[127.4484,35.0653],[127.6331,35.4514],[127.5557,35.4514],[127.93,35.902],[128.2083,35.8377],[128.2225,35.7089],[128.6096,35.7089],[128.6239,35.5802],[129.0108,35.5802],[129.0711,35.3871],[129.349,35.3227],[129.3177,35.2584],[129.1471,35.0653],[128.8846,35.001],[128.9155,35.0653],[128.8383,35.0653],[128.8692,35.1297]]]}},{"type":"Feature","properties":{"id":"clio-goguryeo-395","layer":"polity","nameEn":"Goguryeo","nameKo":"고구려","category":"국가(Cliopatria)","role":"korean","startYear":395,"endYear":401,"confidence":"medium","license":"CC-BY-4.0 (Cliopatria, Seshat) — 단순화·클리핑 등 변경 있음","wikipedia":"Goguryeo","wikidata":"Q28370","sources":["CLIO"],"uiDefault":true,"label":[126.084,39.935],"note":null,"source":"korea"},"geometry":{"type":"Polygon","coordinates":[[[129.8822,41.1977],[129.7558,40.8736],[129.2378,40.6792],[129.0777,40.4201],[128.6822,40.2906],[128.368,40.0317],[127.9346,39.967],[127.5833,39.7729],[127.6653,39.6436],[127.4414,39.2557],[127.7978,39.1911],[127.9234,38.9972],[128.3638,38.8034],[129.1002,37.5773],[129.2563,37.5773],[129.3872,37.3838],[129.353,37.3193],[129.207,37.1904],[128.6954,37.2549],[127.9944,36.8037],[127.8718,36.8682],[127.9381,36.9971],[127.8156,37.0615],[127.8824,37.1904],[127.6172,37.5773],[127.6855,37.7062],[127.598,37.8352],[126.6025,37.5773],[126.5245,37.5773],[126.2459,37.6417],[126.3477,37.8352],[125.8449,37.7707],[125.8347,37.8998],[125.6783,37.8998],[125.3871,37.6417],[125.231,37.6417],[125.2981,37.7707],[125.2093,37.8998],[124.8967,37.8998],[125.0767,38.0933],[124.7637,38.0933],[124.8664,38.2869],[124.7881,38.2869],[124.9614,38.6097],[125.1533,38.6743],[125.1885,38.7389],[125.0316,38.7389],[125.39,39.385],[125.3057,39.5143],[124.8697,39.5789],[124.8646,39.7083],[124.5124,39.6436],[124.3446,39.9023],[124.2657,39.9023],[124.57,40.2906],[124.8836,40.4201],[125.0769,40.744],[124.9977,40.744],[125.0353,41.068],[124.8366,41.1328],[124.7572,41.1328],[124.0018,41.4571],[124.0417,41.522],[123.8029,41.522],[123.8429,41.5869],[123.5643,41.6518],[123.6044,41.7167],[123.3654,41.7167],[123.4055,41.7816],[123.1268,41.8465],[123.167,41.9114],[123.2468,41.9114],[124.6072,42.1712],[125.4589,42.6262],[126.4678,42.8213],[130.3335,43.0816],[130.6546,43.0816],[130.61,43.0165],[130.7705,43.0165],[130.7615,42.8864],[130.9219,42.8864],[130.7446,42.6262],[130.9048,42.6262],[130.7728,42.4312],[130.3221,42.2362],[129.6977,41.6518],[129.7774,41.6518],[129.7269,41.3274],[129.8822,41.1977]]]}},{"type":"Feature","properties":{"id":"clio-tamna-263","layer":"polity","nameEn":"Tamna","nameKo":"탐라","category":"국가(Cliopatria)","role":"korean","startYear":263,"endYear":681,"confidence":"medium","license":"CC-BY-4.0 (Cliopatria, Seshat) — 단순화·클리핑 등 변경 있음","wikipedia":"Tamna","wikidata":"Q28057","sources":["CLIO"],"uiDefault":true,"label":[126.568,33.393],"note":null,"source":"korea"},"geometry":{"type":"Polygon","coordinates":[[[126.1388,33.2002],[126.3563,33.5217],[126.9988,33.5859],[126.7801,33.2645],[126.7035,33.2645],[126.1388,33.2002]]]}},{"type":"Feature","properties":{"id":"clio-baekje-395","layer":"polity","nameEn":"Baekje","nameKo":"백제","category":"국가(Cliopatria)","role":"korean","startYear":395,"endYear":475,"confidence":"medium","license":"CC-BY-4.0 (Cliopatria, Seshat) — 단순화·클리핑 등 변경 있음","wikipedia":"Baekje","wikidata":"Q28428","sources":["CLIO"],"uiDefault":true,"label":[127.235,36.095],"note":null,"source":"korea"},"geometry":{"type":"Polygon","coordinates":[[[127.1297,34.5506],[127.2968,34.7436],[127.2196,34.7436],[127.0229,34.4863],[126.6262,34.2933],[126.4246,34.3577],[126.4837,34.4863],[126.3476,34.3577],[126.1166,34.3577],[126.4784,34.8079],[126.1998,34.8723],[126.3812,35.2584],[126.3039,35.2584],[126.5192,35.7089],[126.7678,35.902],[126.6128,35.902],[126.6757,36.0308],[126.5206,36.0308],[126.4286,36.1596],[126.4516,36.6749],[126.2638,36.6105],[126.0498,36.8037],[126.3032,36.9971],[126.6475,37.0615],[126.7023,37.3193],[126.5688,37.5128],[126.6025,37.5773],[127.598,37.8352],[127.6855,37.7062],[127.6172,37.5773],[127.8824,37.1904],[127.8156,37.0615],[127.9381,36.9971],[127.8718,36.8682],[127.9944,36.8037],[127.8959,36.6105],[128.0187,36.546],[127.9667,36.2884],[128.0897,36.224],[127.8526,35.902],[127.93,35.902],[127.5557,35.4514],[127.6331,35.4514],[127.4484,35.0653],[127.5723,35.001],[127.451,34.7436],[127.545,34.615],[127.515,34.5506],[127.2243,34.422],[127.1297,34.5506]]]}},{"type":"Feature","properties":{"id":"clio-silla-378","layer":"polity","nameEn":"Silla","nameKo":"신라","category":"국가(Cliopatria)","role":"korean","startYear":378,"endYear":533,"confidence":"medium","license":"CC-BY-4.0 (Cliopatria, Seshat) — 단순화·클리핑 등 변경 있음","wikipedia":"Silla","wikidata":"Q28456","sources":["CLIO"],"uiDefault":true,"label":[128.733,36.417],"note":null,"source":"korea"},"geometry":{"type":"Polygon","coordinates":[[[129.4434,35.5158],[129.349,35.3227],[129.0711,35.3871],[129.0108,35.5802],[128.6239,35.5802],[128.6096,35.7089],[128.2225,35.7089],[128.2083,35.8377],[127.93,35.902],[127.8526,35.902],[128.0897,36.224],[127.9667,36.2884],[128.0187,36.546],[127.8959,36.6105],[127.9944,36.8037],[128.6954,37.2549],[129.207,37.1904],[129.353,37.3193],[129.431,37.3193],[129.4069,37.126],[129.5393,36.9326],[129.439,36.7393],[129.5167,36.7393],[129.4173,36.546],[129.495,36.546],[129.4214,36.0952],[129.5765,36.0952],[129.6669,35.9664],[129.5524,35.5802],[129.5208,35.5158],[129.4434,35.5158]]]}},{"type":"Feature","properties":{"id":"clio-later-yan-395","layer":"polity","nameEn":"Later Yan","nameKo":"후연","category":"이웃 정치체(맥락)","role":"context","startYear":395,"endYear":401,"confidence":"context","license":"CC-BY-4.0 (Cliopatria, Seshat) — 단순화·클리핑 등 변경 있음","wikipedia":"Later Yan","wikidata":"Q1534482","sources":["CLIO"],"uiDefault":false,"label":[123.422,40.355],"note":null,"source":"korea"},"geometry":{"type":"Polygon","coordinates":[[[124.9977,40.744],[125.0769,40.744],[124.8836,40.4201],[124.57,40.2906],[124.2286,39.8376],[123.5974,39.8376],[122.936,39.6436],[122.1704,39.2557],[121.9519,38.9972],[121.7162,38.9972],[121.4217,38.7389],[121.0293,38.7389],[121.2007,39.0618],[121.5151,39.0618],[121.6901,39.385],[121.2965,39.385],[121.2096,39.5143],[121.2807,39.6436],[121.4383,39.6436],[121.5033,39.9023],[121.7765,39.967],[122.2306,40.4849],[122.1061,40.6792],[121.827,40.744],[121.8237,40.8736],[121.1098,40.8736],[120.9967,40.6792],[120.6473,40.4849],[120.5003,40.2259],[119.3804,39.7729],[119.2153,39.3203],[118.9894,39.1911],[118.4498,39.0618],[118.0569,39.0618],[118.0457,39.1911],[117.776,39.1265],[117.5764,38.7389],[117.6549,38.7389],[117.6025,38.4806],[117.7592,38.4806],[117.7727,38.3515],[118.0536,38.2869],[118.0674,38.1578],[118.583,38.0933],[118.6476,38.2224],[118.8042,38.2224],[118.7718,38.1578],[119.4571,37.9643],[119.3928,37.8352],[119.2366,37.8352],[118.984,37.3193],[119.14,37.3193],[119.1557,37.1904],[119.7011,37.1904],[119.8266,37.4483],[120.2022,37.5773],[120.1881,37.7062],[120.7538,37.8998],[121.112,37.8352],[121.171,37.6417],[121.4833,37.6417],[121.4969,37.5128],[122.1535,37.5773],[122.1211,37.5128],[122.7129,37.4483],[122.4424,37.0615],[122.5664,36.9971],[122.5031,36.8682],[122.1605,36.8037],[122.1456,36.9326],[121.9121,36.9326],[121.2121,36.6105],[120.9789,36.6105],[120.9648,36.4172],[120.7318,36.4172],[120.6585,36.0952],[120.3185,36.0308],[119.9865,35.6445],[119.6187,35.5158],[119.5034,35.2584],[119.2716,35.2584],[118.5826,34.7436],[118.4284,34.7436],[118.435,34.9366],[118.2807,34.9366],[118.1199,34.7436],[117.8115,34.7436],[117.8392,34.8079],[117.5306,34.8079],[117.5367,35.001],[117.3116,35.194],[117,35.1905],[117,41.113],[117.7577,41.3922],[118.8298,41.4571],[118.7918,41.3922],[119.4281,41.3922],[119.39,41.3274],[121.0213,41.2625],[122.9277,41.9114],[123.167,41.9114],[123.1268,41.8465],[123.4055,41.7816],[123.3654,41.7167],[123.6044,41.7167],[123.5643,41.6518],[123.8429,41.5869],[123.8029,41.522],[124.0417,41.522],[124.0018,41.4571],[124.7572,41.1328],[125.0353,41.068],[124.9977,40.744]]]}},{"type":"Feature","properties":{"id":"gaya-early","layer":"hypothesis","nameEn":"Early Gaya confederacy (schematic)","nameKo":"전기 가야 연맹(개략)","category":"국가(작성)","role":"korean","startYear":42,"endYear":400,"confidence":"low","license":"original (authored)","wikipedia":null,"wikidata":null,"sources":["KOWIKI_GAYA"],"uiDefault":true,"label":[128.625,35.368],"note":"변한 12국을 결집한 금관가야(구야국, 김해) 중심 연맹. 전기 42~400년경, 532년 신라 법흥왕에게 금관가야 멸망. Cliopatria의 'Byeonhan'이 좁게 그려져 있어 보충.","source":"korea"},"geometry":{"type":"MultiPolygon","coordinates":[[[[128.0191,34.917],[128.0185,34.8963],[128,34.9],[128,34.9121],[128.0191,34.917]]],[[[128.9,35.75],[129.25,35.5],[129.25,35.2366],[129.1927,35.155],[129.1207,35.15],[129.1279,35.1263],[129.1243,35.101],[129.1027,35.0926],[129.0631,35.1213],[129.0379,35.0976],[129.0235,35.0605],[129.0127,35.0554],[128.9983,35.0757],[129.0019,35.0453],[128.9839,35.0537],[128.9659,35.0436],[128.9515,35.0723],[128.9623,35.1196],[128.9587,35.1365],[128.9191,35.0824],[128.9047,35.0807],[128.9047,35.1213],[128.8975,35.1213],[128.8831,35.0807],[128.7931,35.0824],[128.7823,35.1111],[128.7715,35.0841],[128.7607,35.0791],[128.7391,35.0875],[128.7283,35.1044],[128.6995,35.0959],[128.6959,35.1432],[128.6815,35.1314],[128.6815,35.1162],[128.6383,35.15],[128.6167,35.1432],[128.6239,35.1567],[128.6131,35.177],[128.6095,35.2108],[128.6023,35.2141],[128.5771,35.1888],[128.5771,35.1787],[128.6023,35.1213],[128.6275,35.0909],[128.6311,35.0807],[128.6239,35.0689],[128.6527,35.0622],[128.6023,35.0571],[128.5807,35.0875],[128.5123,35.1044],[128.4799,35.0993],[128.4691,35.0959],[128.4799,35.0757],[128.3899,35.0487],[128.3827,35.0233],[128.3719,35.0132],[128.3719,35.0065],[128.4727,35.0504],[128.4871,35.0504],[128.4979,35.02],[128.4907,34.9963],[128.4583,34.9879],[128.4259,34.9929],[128.4187,34.9828],[128.4403,34.9659],[128.4331,34.8899],[128.4439,34.8832],[128.4619,34.9034],[128.4727,34.8899],[128.4367,34.8427],[128.3827,34.8393],[128.3827,34.8545],[128.4115,34.8562],[128.4151,34.8629],[128.3395,34.8731],[128.3251,34.8967],[128.3575,34.9102],[128.3359,34.9474],[128.3179,34.9338],[128.3035,34.9085],[128.2783,34.9068],[128.2567,34.9305],[128.2243,34.9372],[128.2135,34.9322],[128.2063,34.8899],[128.1379,34.8916],[128.1199,34.9001],[128.1163,34.9237],[128.0623,34.9271],[128.0515,34.9389],[128.0551,35.047],[128.0695,35.0824],[128.0263,35.0352],[128.0011,35.0335],[128.0191,34.998],[128,34.9917],[128,35.6],[128.9,35.75]]],[[[128.6059,34.8359],[128.5915,34.8427],[128.5303,34.8089],[128.4907,34.8494],[128.4871,34.8697],[128.5231,34.8984],[128.5735,34.9102],[128.6455,34.8899],[128.6167,34.922],[128.6095,34.9541],[128.6239,34.9541],[128.6923,34.9862],[128.6815,35.0048],[128.6887,35.0233],[128.7031,35.0335],[128.7211,35.0267],[128.7175,34.9659],[128.7355,34.9355],[128.7355,34.922],[128.7139,34.8764],[128.7427,34.8883],[128.7489,34.8664],[128.6026,34.8274],[128.6059,34.8359]]],[[[128.4295,34.8275],[128.4387,34.8123],[128.3903,34.8219],[128.4295,34.8275]]],[[[128.3503,34.8359],[128.376,34.8248],[128.3391,34.8322],[128.3503,34.8359]]],[[[128.0443,34.8933],[128.0456,34.8909],[128.0393,34.8921],[128.0443,34.8933]]],[[[128.8039,35.0571],[128.8363,35.0605],[128.8435,35.0216],[128.8327,34.9946],[128.8255,34.9929],[128.8003,35.0487],[128.8039,35.0571]]]]}},{"type":"Feature","properties":{"id":"gaya-late","layer":"hypothesis","nameEn":"Late Gaya confederacy (Daegaya-led, schematic)","nameKo":"후기 가야 연맹(대가야 주도, 개략)","category":"국가(작성)","role":"korean","startYear":400,"endYear":562,"confidence":"low","license":"original (authored)","wikipedia":null,"wikidata":null,"sources":["KOWIKI_GAYA"],"uiDefault":true,"label":[128.034,35.45],"note":"5세기경 대가야(고령) 주도권 확보, 섬진강 유역과 전북 남원·진안·임실·장수 일대로 확대했다고 정리됨. 562년 진흥왕에게 대가야 정복. 시작 시점은 근사.","source":"korea"},"geometry":{"type":"MultiPolygon","coordinates":[[[[128.6,36.2],[128.9,35.7],[128.5168,35.1039],[128.4691,35.0959],[128.4799,35.0757],[128.3899,35.0487],[128.3827,35.0233],[128.3719,35.0132],[128.3719,35.0065],[128.4824,35.0504],[128.45,35],[128.2572,34.9299],[128.2243,34.9372],[128.2135,34.9322],[128.2079,34.912],[128.1379,34.8916],[128.1199,34.9001],[128.1163,34.9237],[128.0623,34.9271],[128.0515,34.9389],[128.0551,35.047],[128.0695,35.0824],[128.0263,35.0352],[128.0011,35.0335],[128.0191,34.998],[128.0083,34.9913],[127.9795,34.9929],[127.9543,34.9794],[127.9255,35.02],[127.9111,34.9625],[127.8895,34.9474],[127.8643,34.944],[127.8427,34.9507],[127.8319,34.944],[127.7995,34.9592],[127.7455,34.9609],[127.7203,34.9896],[127.7203,34.9659],[127.7001,34.9333],[127.3,35.2],[127.4,36.1],[128.6,36.2]]],[[[127.9723,34.846],[127.9651,34.8595],[127.9687,34.8747],[128.0011,34.9136],[128.0191,34.917],[128.0227,34.9051],[128.0119,34.8697],[128.0191,34.8663],[128.0443,34.8933],[128.0587,34.8798],[128.0641,34.8597],[127.9993,34.8361],[127.9723,34.846]]],[[[127.8291,34.8473],[127.8283,34.8697],[127.8391,34.8866],[127.8607,34.8967],[127.8715,34.9237],[127.9039,34.9406],[127.9399,34.9136],[127.9291,34.8883],[127.9039,34.8697],[127.9183,34.8359],[127.9536,34.8195],[127.9,34.8],[127.8291,34.8473]]]]}},{"type":"Feature","properties":{"id":"gaya-gimhae","layer":"site","nameEn":"Geumgwan Gaya (Gimhae)","nameKo":"금관가야(김해)","category":"가야 중심지","role":"korean","startYear":42,"endYear":532,"confidence":"medium","license":"original (authored)","wikipedia":null,"wikidata":null,"sources":["KOWIKI_GAYA"],"uiDefault":false,"label":null,"note":"532년 신라 법흥왕에게 멸망.","source":"korea"},"geometry":{"type":"Point","coordinates":[128.889,35.228]}},{"type":"Feature","properties":{"id":"gaya-goryeong","layer":"site","nameEn":"Daegaya (Goryeong)","nameKo":"대가야(고령)","category":"가야 중심지","role":"korean","startYear":400,"endYear":562,"confidence":"medium","license":"original (authored)","wikipedia":null,"wikidata":null,"sources":["KOWIKI_GAYA"],"uiDefault":false,"label":null,"note":"5세기경 주도권 확보, 562년 멸망(진흥왕).","source":"korea"},"geometry":{"type":"Point","coordinates":[128.263,35.726]}},{"type":"Feature","properties":{"id":"gaya-haman","layer":"site","nameEn":"Ara Gaya (Haman)","nameKo":"아라가야(함안)","category":"가야 중심지","role":"korean","startYear":42,"endYear":562,"confidence":"low","license":"original (authored)","wikipedia":null,"wikidata":null,"sources":["KOWIKI_GAYA"],"uiDefault":false,"label":null,"note":"말이산 고분군으로 알려진 아라가야. 존속 연도는 근사.","source":"korea"},"geometry":{"type":"Point","coordinates":[128.406,35.272]}},{"type":"Feature","properties":{"id":"gaya-goseong","layer":"site","nameEn":"So Gaya (Goseong)","nameKo":"소가야(고성)","category":"가야 중심지","role":"korean","startYear":400,"endYear":562,"confidence":"low","license":"original (authored)","wikipedia":null,"wikidata":null,"sources":["KOWIKI_GAYA","GK"],"uiDefault":false,"label":null,"note":"소가야 중심지 비정(현행 지명 기준). 존속 연도는 근사.","source":"korea"},"geometry":{"type":"Point","coordinates":[128.323,34.973]}},{"type":"Feature","properties":{"id":"gaya-changnyeong","layer":"site","nameEn":"Bihwa Gaya (Changnyeong)","nameKo":"비화가야(창녕)","category":"가야 중심지","role":"korean","startYear":400,"endYear":561,"confidence":"low","license":"original (authored)","wikipedia":null,"wikidata":null,"sources":["KOWIKI_GAYA","GK"],"uiDefault":false,"label":null,"note":"비화가야 중심지 비정(현행 지명 기준). 561년 창녕비(진흥왕)와 연결됨. 존속 연도는 근사.","source":"korea"},"geometry":{"type":"Point","coordinates":[128.492,35.545]}},{"type":"Feature","properties":{"id":"gaya-seongju","layer":"site","nameEn":"Seongsan Gaya (Seongju)","nameKo":"성산가야(성주)","category":"가야 중심지","role":"korean","startYear":400,"endYear":562,"confidence":"low","license":"original (authored)","wikipedia":null,"wikidata":null,"sources":["KOWIKI_GAYA","GK"],"uiDefault":false,"label":null,"note":"성산가야 중심지 비정(현행 지명 기준). 존속 연도는 근사.","source":"korea"},"geometry":{"type":"Point","coordinates":[128.283,35.919]}},{"type":"Feature","properties":{"id":"cap-gungnae","layer":"site","nameEn":"Gungnae (Ji'an)","nameKo":"국내성(집안)","category":"도읍","role":"korean","startYear":3,"endYear":427,"confidence":"high","license":"original (authored)","wikipedia":null,"wikidata":null,"sources":["KOWIKI_GOGURYEO"],"uiDefault":false,"label":null,"note":"삼국사기 기준 유리왕 22년(서기 3) 천도. 위키 정리 본문에는 '기원전 3년'으로 적혀 연대 표기가 갈림.","source":"korea"},"geometry":{"type":"Point","coordinates":[126.19,41.13]}},{"type":"Feature","properties":{"id":"cap-wirye","layer":"site","nameEn":"Wiryeseong (Pungnap Fortress)","nameKo":"하남위례성(풍납토성)","category":"도읍","role":"korean","startYear":-18,"endYear":475,"confidence":"medium","license":"original (authored)","wikipedia":null,"wikidata":null,"sources":["KOWIKI_BAEKJE"],"uiDefault":false,"label":null,"note":"백제 건국 도읍 위례성을 풍납토성 일대로 보는 견해에 따른 좌표(위치 비정에 이견이 있음). 475년 장수왕에게 함락.","source":"korea"},"geometry":{"type":"Point","coordinates":[127.1155,37.5255]}},{"type":"Feature","properties":{"id":"cap-gyeongju","layer":"site","nameEn":"Geumseong (Gyeongju)","nameKo":"금성(경주)","category":"도읍","role":"korean","startYear":-57,"endYear":935,"confidence":"high","license":"original (authored)","wikipedia":null,"wikidata":null,"sources":["KOWIKI_SILLA"],"uiDefault":false,"label":null,"note":"사로국~신라~통일신라 도읍(건국 -57은 삼국사기 기준). 935년 고려에 항복.","source":"korea"},"geometry":{"type":"Point","coordinates":[129.22,35.835]}},{"type":"Feature","properties":{"id":"gr-ext-5c-early","layer":"hypothesis","nameEn":"Goguryeo – Gwanggaeto to early Jangsu (schematic)","nameKo":"고구려 – 광개토왕~장수왕 전기(391~474) 통제 범위(개략)","category":"고구려 영역(작성)","role":"korean","startYear":391,"endYear":474,"confidence":"low","license":"original (authored)","wikipedia":null,"wikidata":null,"sources":["RESEARCH_V02"],"uiDefault":true,"label":[125.948,41.136],"note":"후연과의 전쟁(400~407)으로 요동 확보(서쪽 한계는 요하), 410년 동부여 원정(광개토왕릉비), 396년 한강 이북 백제 58성 공략, 모두루 묘지의 '북부여수사' 등으로 길림~농안 일대까지 관할. 427 평양 천도. 서쪽 요서는 원정 도달 범위이지 지속 통치로 확인되지 않음(별도 폴리곤 gr-liaoxi-raid 참고). 직접 통제(성곽·무덤·관직·비문 등 근거가 있는 범위)를 개략 도식화한 것이며 영향권·조공권은 포함하지 않음. 정밀한 경계선이 아니라 수십 km 이상 오차. Cliopatria의 고구려 폴리곤과 어긋날 수 있음(Cliopatria 410~494 폴리곤은 북만주까지 덮어 통설보다 넓게 보임). [v0.3] 북쪽 구간(제2송화강 중류·길림 일대)은 속말말갈이 살던 권역과 겹쳐서 실제로는 직접 통제가 아니라 영향권일 수 있음 — '고구려–말갈 영향권' 폴리곤과 함께 볼 것. [v0.7] 동단(130.86°E)은 두만강 하구·훈춘~포시예트만 서쪽 모서리까지를 도식으로 감싼 것일 뿐 크라스키노를 '직접 통제'했다는 뜻이 아니다(크라스키노는 '검증' 그룹의 옅은 가능 지대 참고). 농안 일대(부여 후기 중심, 494까지 존속)를 포함하는 것도 통설 도식의 한계 — 이 구간은 관할·영향 정도가 다르다.","source":"korea"},"geometry":{"type":"MultiPolygon","coordinates":[[[[121.3338,38.9679],[121.341,38.978],[121.3266,39.0118],[121.3338,39.027],[121.3518,39.0388],[121.395,39.0422],[121.4274,39.0151],[121.467,39.0151],[121.5462,39.0489],[121.6326,39.0692],[121.6758,39.0877],[121.6902,39.1181],[121.6794,39.1367],[121.6506,39.1587],[121.6434,39.1755],[121.6074,39.1806],[121.593,39.1924],[121.6074,39.2009],[121.6002,39.2211],[121.6254,39.2245],[121.6326,39.2363],[121.5894,39.2634],[121.611,39.2752],[121.6578,39.2667],[121.719,39.2971],[121.737,39.3123],[121.7298,39.3309],[121.7802,39.3714],[121.8378,39.3647],[121.8666,39.3697],[121.9134,39.3951],[121.9422,39.4001],[121.9314,39.417],[121.8486,39.3866],[121.7442,39.3984],[121.7082,39.3951],[121.719,39.3714],[121.5246,39.3647],[121.4922,39.3883],[121.4598,39.4744],[121.4346,39.5082],[121.4202,39.5166],[121.3554,39.5217],[121.3,39.5038],[121.3,39.5936],[121.3266,39.6028],[121.3806,39.6011],[121.449,39.6146],[121.4706,39.6315],[121.4634,39.6467],[121.4994,39.6534],[121.5246,39.618],[121.5318,39.623],[121.539,39.6416],[121.5246,39.6534],[121.5498,39.6787],[121.539,39.6923],[121.5174,39.6872],[121.5066,39.6939],[121.4922,39.721],[121.4562,39.748],[121.485,39.7632],[121.4886,39.7784],[121.4778,39.7868],[121.4706,39.8105],[121.5102,39.824],[121.5354,39.8611],[121.5678,39.8594],[121.6146,39.8712],[121.6362,39.8966],[121.6866,39.9219],[121.7082,39.927],[121.773,39.9202],[121.8054,39.9489],[121.809,39.9658],[121.8378,39.9709],[121.8738,39.9911],[121.881,39.9979],[121.8738,40.0165],[121.827,40.0232],[121.881,40.0418],[121.9278,40.0772],[121.9314,40.1009],[121.9962,40.1245],[122.007,40.1566],[121.9926,40.187],[122.0394,40.1971],[122.0934,40.2275],[122.1078,40.263],[122.1078,40.3103],[122.1798,40.3525],[122.2122,40.3812],[122.205,40.4268],[122.2518,40.4302],[122.2518,40.4538],[122.2878,40.4724],[122.2878,40.4893],[122.3022,40.5028],[122.277,40.5433],[122.2266,40.5788],[122.1762,40.5872],[122.1366,40.6243],[122.169,40.6531],[122.169,40.6868],[122.1582,40.702],[122.1222,40.6801],[122.0682,40.7358],[122.0217,40.7574],[122.15,40.9],[122.5,41.6],[122.9,42.2],[123.5,42.9],[124.1,43.4],[124.6,44.2],[125.2,44.7],[126.4,44.9],[127.4,44.5],[128.4,44],[129.6,43.7],[130.7,43.3],[130.8203,42.6987],[130.7695,42.681],[130.7443,42.681],[130.7191,42.6996],[130.6579,42.6642],[130.6615,42.6439],[130.6831,42.6439],[130.7335,42.6152],[130.7299,42.5797],[130.7623,42.6],[130.7839,42.5797],[130.8415,42.5578],[130.85,42.5498],[130.8556,42.5222],[130.8415,42.5189],[130.8379,42.5105],[130.8451,42.4936],[130.8379,42.4717],[130.7875,42.4615],[130.7803,42.4531],[130.7443,42.3535],[130.7047,42.296],[130.5967,42.2623],[130.5967,42.2977],[130.5679,42.3146],[130.5391,42.318],[130.5103,42.3366],[130.4671,42.3349],[130.4707,42.3214],[130.4563,42.3112],[130.4383,42.3095],[130.4203,42.3247],[130.4059,42.3247],[130.4059,42.3079],[130.3843,42.291],[130.3915,42.264],[130.4059,42.2606],[130.4023,42.242],[130.3771,42.2572],[130.3663,42.2555],[130.3591,42.2437],[130.3699,42.2319],[130.3519,42.2167],[130.3339,42.2133],[130.3303,42.1913],[130.3087,42.1829],[130.3159,42.2184],[130.3087,42.2369],[130.2943,42.2369],[130.2295,42.1829],[130.2007,42.1728],[130.2007,42.1019],[130.1755,42.0985],[130.1611,42.085],[130.1683,42.0765],[130.1503,42.0748],[130.1215,42.09],[130.0927,42.09],[130.0747,42.0782],[130.0675,42.0512],[130.0531,42.0512],[130.0351,42.0124],[130.0351,41.9955],[130.0279,41.9921],[130.0135,42.014],[130.0027,42.0107],[130.0027,41.9904],[129.9811,41.982],[130.0027,41.9617],[129.9739,41.9414],[129.9559,41.8925],[129.9127,41.911],[129.8983,41.9043],[129.8839,41.857],[129.8839,41.8249],[129.8515,41.7641],[129.8443,41.7591],[129.8263,41.7776],[129.8119,41.7776],[129.7759,41.7591],[129.7507,41.6966],[129.6895,41.6493],[129.6679,41.5767],[129.6499,41.5497],[129.6607,41.526],[129.6535,41.494],[129.6607,41.4653],[129.7003,41.4281],[129.7147,41.4197],[129.7363,41.4214],[129.7579,41.3927],[129.7975,41.3859],[129.8047,41.3729],[129.2872,40.6829],[129.2719,40.7088],[129.2323,40.7054],[129.2179,40.697],[129.1963,40.6379],[129.1747,40.6041],[129.1711,40.5686],[129.1603,40.5652],[129.0775,40.4724],[129.0307,40.4741],[128.9767,40.4606],[128.8615,40.3711],[128.8291,40.3677],[128.8147,40.3542],[128.7643,40.3457],[128.7535,40.3356],[128.7211,40.339],[128.6887,40.3305],[128.6707,40.3103],[128.6563,40.3103],[128.6563,40.3204],[128.6383,40.3137],[128.6203,40.2968],[128.6167,40.2714],[128.6563,40.2579],[128.6671,40.241],[128.6635,40.2005],[128.6275,40.1803],[128.5879,40.187],[128.5447,40.1667],[128.5267,40.1431],[128.5087,40.1347],[128.4799,40.1347],[128.4367,40.1043],[128.4115,40.0958],[128.3647,40.0975],[128.3395,40.0671],[128.3287,40.0283],[128.3035,40.0333],[128.2819,40.0654],[128.2639,40.0772],[128.2351,40.0671],[128.2279,40.057],[128.2351,40.03],[128.1919,40.03],[128.1559,40.0165],[128.1379,40.0266],[128.0083,40.0452],[127.9975,40.0198],[127.9651,40.0046],[127.9399,39.9742],[127.9075,39.9844],[127.8895,39.9607],[127.8823,39.9016],[127.8751,39.8932],[127.7815,39.8848],[127.7959,39.8763],[127.7923,39.8662],[127.7635,39.8544],[127.7275,39.8577],[127.6951,39.8476],[127.6807,39.8172],[127.6627,39.8071],[127.6231,39.8307],[127.6087,39.8105],[127.5619,39.7834],[127.5511,39.7615],[127.5223,39.7463],[127.5007,39.7075],[127.5115,39.65],[127.5511,39.6365],[127.5691,39.618],[127.5763,39.5943],[127.5367,39.5521],[127.5187,39.5099],[127.5619,39.3444],[127.5619,39.3157],[127.5439,39.3022],[127.5223,39.3157],[127.5259,39.3444],[127.5439,39.3714],[127.4935,39.4339],[127.4683,39.4305],[127.4251,39.3917],[127.3783,39.3782],[127.3891,39.3664],[127.4251,39.3579],[127.4539,39.368],[127.4683,39.3647],[127.4719,39.3478],[127.4683,39.3393],[127.4251,39.3309],[127.4143,39.341],[127.3927,39.341],[127.3999,39.3241],[127.3711,39.2397],[127.3927,39.2026],[127.4539,39.1654],[127.4719,39.1688],[127.4719,39.1941],[127.4899,39.1941],[127.5115,39.157],[127.5331,39.1468],[127.6087,39.1519],[127.6303,39.1468],[127.6627,39.1215],[127.7599,39.1164],[127.8247,39.0438],[127.8499,39.0016],[127.8859,38.9746],[127.8895,38.9611],[127.9147,38.9645],[127.9255,38.9341],[127.9615,38.9172],[128.0155,38.8581],[128.0911,38.8429],[128.2099,38.7281],[128.2819,38.7551],[128.3215,38.7112],[128.3467,38.696],[128.3611,38.6791],[128.3647,38.6251],[128.4403,38.5052],[128.4727,38.4258],[128.5627,38.289],[128.6419,38.1286],[128.6779,38.0949],[128.6923,38.0645],[128.9158,37.8106],[128.9,37.7],[127.3,37.5],[126.6422,37.5],[126.6295,37.5072],[126.6264,37.5],[126.6058,37.5],[126.6043,37.5494],[126.5611,37.6069],[126.5323,37.7555],[126.5359,37.769],[126.5467,37.7707],[126.6043,37.7538],[126.6475,37.7656],[126.6619,37.7571],[126.6691,37.7284],[126.6619,37.6727],[126.6907,37.6525],[126.7555,37.6373],[126.6799,37.6862],[126.7015,37.7436],[126.6835,37.7943],[126.7015,37.8298],[126.6943,37.8365],[126.6655,37.8281],[126.6511,37.7994],[126.5935,37.774],[126.4351,37.8483],[126.3991,37.8922],[126.3775,37.8889],[126.2587,37.845],[126.2011,37.845],[126.1579,37.8298],[126.1471,37.8196],[126.1651,37.769],[126.1615,37.7403],[126.1579,37.7335],[126.1111,37.7403],[126.0859,37.801],[126.0643,37.8027],[126.0571,37.8703],[126.0247,37.8534],[126.0139,37.8551],[125.9995,37.8855],[125.9599,37.9125],[125.9455,37.9024],[125.9491,37.8889],[125.9743,37.8737],[125.9851,37.823],[125.9563,37.8399],[125.9203,37.845],[125.8951,37.8652],[125.8339,37.9429],[125.8051,37.9513],[125.8051,37.9885],[125.7979,37.9935],[125.5963,38.0324],[125.5783,38.0256],[125.5783,38.0087],[125.5963,37.9919],[125.6395,37.9733],[125.6755,37.9783],[125.6863,37.9716],[125.6791,37.953],[125.7007,37.9581],[125.7187,37.953],[125.6971,37.926],[125.7331,37.9328],[125.7403,37.926],[125.7151,37.9074],[125.6863,37.899],[125.6683,37.899],[125.6323,37.926],[125.6287,37.9024],[125.6395,37.8568],[125.6215,37.8365],[125.6431,37.823],[125.6395,37.8129],[125.6107,37.8061],[125.6215,37.7656],[125.5927,37.7639],[125.5747,37.774],[125.5819,37.7825],[125.5711,37.7875],[125.5531,37.7825],[125.5495,37.7707],[125.5279,37.7723],[125.5207,37.7808],[125.5279,37.796],[125.5027,37.7791],[125.4739,37.7318],[125.4379,37.72],[125.3839,37.7166],[125.3623,37.6795],[125.3479,37.6761],[125.3335,37.6862],[125.3479,37.7386],[125.3623,37.7605],[125.3911,37.7538],[125.4451,37.774],[125.3767,37.7825],[125.3911,37.796],[125.4343,37.8196],[125.4559,37.823],[125.5063,37.8129],[125.5243,37.8179],[125.5279,37.8433],[125.4991,37.8399],[125.4775,37.8568],[125.5099,37.8838],[125.5099,37.8939],[125.4631,37.9041],[125.4451,37.9209],[125.4235,37.9125],[125.4307,37.899],[125.3839,37.8922],[125.4451,37.8601],[125.4451,37.8433],[125.4271,37.8568],[125.3731,37.8686],[125.3479,37.8652],[125.3767,37.8433],[125.3263,37.8129],[125.3083,37.8095],[125.3011,37.823],[125.2399,37.823],[125.2507,37.8382],[125.2939,37.8601],[125.3083,37.8787],[125.3011,37.8956],[125.2579,37.9142],[125.2615,37.9328],[125.2399,37.9294],[125.2075,37.8804],[125.1571,37.8669],[125.0995,37.8753],[125.0449,37.8996],[125.01,37.931],[125.0131,37.9395],[125.0048,37.9357],[124.9891,37.9498],[125.0743,37.98],[125.1175,37.9632],[125.1643,37.9632],[125.1859,37.98],[125.1787,37.9885],[125.1571,37.98],[125.1427,37.9834],[125.1139,38.002],[125.1067,38.0341],[125.1175,38.0425],[125.2003,38.0493],[125.2147,38.0459],[125.2255,38.0223],[125.2471,38.0206],[125.2543,38.0543],[125.2723,38.0628],[125.2651,38.078],[125.1391,38.0982],[125.0131,38.0628],[124.9374,38.0982],[124.887,38.132],[124.8654,38.1067],[124.8219,38.1003],[124.7618,38.1543],[124.7718,38.1759],[124.8222,38.186],[124.8546,38.2266],[124.8798,38.2299],[124.9194,38.1894],[124.9914,38.2266],[124.9662,38.235],[124.9158,38.2283],[124.869,38.2654],[124.8834,38.3549],[124.9266,38.4089],[124.9482,38.4512],[124.9734,38.463],[124.9734,38.441],[125.0167,38.4984],[125.0203,38.5153],[124.995,38.5356],[124.9986,38.566],[124.9806,38.5845],[124.9842,38.5913],[124.9986,38.593],[125.0167,38.5829],[125.0383,38.5913],[125.0599,38.5677],[125.1031,38.593],[125.1283,38.5795],[125.1355,38.5913],[125.1355,38.6251],[125.1175,38.6453],[125.1247,38.6656],[125.1391,38.6622],[125.1571,38.6318],[125.1787,38.6352],[125.1787,38.6707],[125.2039,38.6521],[125.2687,38.6707],[125.3011,38.6572],[125.3443,38.6876],[125.3983,38.6943],[125.4415,38.6859],[125.4523,38.7044],[125.4631,38.7078],[125.5063,38.6859],[125.5207,38.6521],[125.5315,38.6538],[125.5459,38.6791],[125.5567,38.6774],[125.5855,38.642],[125.6395,38.6268],[125.6575,38.6318],[125.6323,38.6588],[125.5891,38.6656],[125.5279,38.7213],[125.4775,38.7281],[125.4487,38.777],[125.4379,38.7754],[125.4235,38.7551],[125.4127,38.7551],[125.4343,38.7365],[125.4199,38.7298],[125.3875,38.7179],[125.3551,38.7348],[125.3515,38.7213],[125.3407,38.7179],[125.3155,38.7213],[125.3011,38.7348],[125.2975,38.7213],[125.3083,38.7078],[125.2795,38.7027],[125.2615,38.7078],[125.2435,38.7281],[125.2687,38.7551],[125.2543,38.7618],[125.2543,38.7838],[125.2399,38.7939],[125.2255,38.7956],[125.2291,38.772],[125.2183,38.7399],[125.1895,38.7382],[125.1715,38.7635],[125.1463,38.777],[125.1355,38.8041],[125.1535,38.8919],[125.1715,38.9391],[125.2003,38.9746],[125.2003,38.9864],[125.2723,39.081],[125.3335,39.0827],[125.2831,39.0894],[125.2939,39.1435],[125.2867,39.1519],[125.3083,39.1654],[125.3443,39.1688],[125.3299,39.1941],[125.3443,39.2127],[125.3659,39.2211],[125.4127,39.2144],[125.3947,39.2465],[125.4307,39.3005],[125.4451,39.3106],[125.4163,39.3208],[125.4127,39.3343],[125.4199,39.3512],[125.4055,39.3647],[125.4235,39.3579],[125.4451,39.3664],[125.4595,39.3849],[125.3587,39.3984],[125.3587,39.4136],[125.3839,39.4407],[125.3443,39.4339],[125.3443,39.4592],[125.3983,39.5014],[125.4127,39.5386],[125.4415,39.547],[125.4523,39.5707],[125.4451,39.5842],[125.2867,39.5217],[125.2363,39.5622],[125.2111,39.5724],[125.2255,39.5909],[125.1571,39.5909],[125.1715,39.5639],[125.1175,39.5656],[125.0959,39.6028],[125.0383,39.6078],[125.0095,39.6348],[124.9878,39.6382],[124.959,39.6619],[124.9482,39.6635],[124.9374,39.6467],[124.9014,39.6619],[124.8942,39.6923],[124.8798,39.7041],[124.833,39.726],[124.8114,39.7277],[124.8006,39.7395],[124.7718,39.7412],[124.761,39.748],[124.7466,39.7834],[124.7394,39.7615],[124.7538,39.7345],[124.743,39.6906],[124.7574,39.6872],[124.7538,39.672],[124.7286,39.6652],[124.743,39.645],[124.7178,39.6467],[124.6962,39.6382],[124.6494,39.6129],[124.6386,39.5909],[124.6242,39.5977],[124.6278,39.6112],[124.6098,39.6281],[124.6278,39.645],[124.6314,39.6635],[124.6458,39.6703],[124.6458,39.6973],[124.6242,39.6939],[124.6098,39.7142],[124.5846,39.7243],[124.5882,39.7666],[124.5666,39.7784],[124.563,39.8138],[124.4334,39.8307],[124.419,39.824],[124.4046,39.8408],[124.3974,39.8662],[124.3614,39.8712],[124.3506,39.8932],[124.3218,39.9135],[124.3686,39.9405],[124.383,40.003],[124.4046,40.0283],[124.4658,40.0148],[124.4982,40.0232],[124.4118,40.0367],[124.3902,40.0485],[124.3686,40.0975],[124.3578,40.0891],[124.3614,40.0114],[124.3074,39.9607],[124.3002,39.9405],[124.1166,39.8324],[124.0878,39.8527],[124.041,39.824],[123.987,39.8105],[123.9438,39.8408],[123.9114,39.824],[123.8862,39.8223],[123.807,39.8375],[123.7746,39.8189],[123.7206,39.8307],[123.6414,39.878],[123.6558,39.9202],[123.6306,39.9033],[123.591,39.7851],[123.5622,39.7699],[123.5334,39.7969],[123.5118,39.7986],[123.4938,39.7902],[123.429,39.726],[123.411,39.7345],[123.4074,39.7463],[123.4182,39.824],[123.3966,39.8189],[123.4038,39.8105],[123.3858,39.7902],[123.3138,39.7767],[123.2742,39.8105],[123.2634,39.7969],[123.2562,39.8003],[123.2526,39.8172],[123.2346,39.802],[123.267,39.7547],[123.249,39.748],[123.2094,39.7547],[123.2058,39.7345],[123.2562,39.7243],[123.2706,39.7075],[123.267,39.7007],[123.1734,39.6652],[123.1266,39.6652],[123.1086,39.6906],[123.0582,39.6754],[123.0078,39.6804],[122.9934,39.6652],[122.979,39.6669],[122.979,39.6585],[122.997,39.65],[122.9934,39.6365],[122.9646,39.6112],[122.9466,39.6196],[122.871,39.6061],[122.8494,39.618],[122.781,39.5605],[122.709,39.5352],[122.6766,39.515],[122.6478,39.5318],[122.637,39.5082],[122.5866,39.4677],[122.5614,39.4862],[122.5542,39.4812],[122.5614,39.4609],[122.5542,39.4559],[122.4714,39.417],[122.3958,39.4103],[122.385,39.3951],[122.3562,39.3883],[122.3202,39.3613],[122.2914,39.3512],[122.2662,39.3174],[122.2518,39.3241],[122.241,39.2853],[122.115,39.2009],[122.1042,39.1587],[122.1366,39.1587],[122.1618,39.1468],[122.1258,39.1418],[122.0718,39.1046],[122.0466,39.0996],[122.0394,39.0911],[122.0502,39.0675],[122.043,39.059],[121.989,39.0624],[121.9602,39.0405],[121.9422,39.0371],[121.9026,39.0489],[121.8882,39.0422],[121.9134,39.0303],[121.9242,39.0084],[121.881,39.027],[121.827,39.0371],[121.8378,39.0151],[121.881,38.9966],[121.8954,38.9814],[121.8882,38.9628],[121.8594,38.9442],[121.8126,38.9729],[121.773,39.0219],[121.7442,39.0337],[121.7262,39.0303],[121.719,39.0202],[121.737,39.0016],[121.6722,39.0084],[121.6362,38.9949],[121.6542,38.9898],[121.6542,38.9628],[121.593,38.9493],[121.5858,38.9408],[121.6182,38.9256],[121.6758,38.9223],[121.6938,38.9104],[121.7046,38.8919],[121.6974,38.8632],[121.6758,38.8716],[121.6542,38.8581],[121.5822,38.8632],[121.5534,38.8581],[121.485,38.8091],[121.3446,38.8142],[121.3,38.7946],[121.3,38.9673],[121.3338,38.9679]]],[[[121.3194,39.4542],[121.3302,39.4761],[121.3518,39.4829],[121.4238,39.4744],[121.449,39.4508],[121.4418,39.4407],[121.4166,39.4407],[121.4346,39.417],[121.4346,39.3866],[121.4202,39.3731],[121.4022,39.3714],[121.3374,39.3782],[121.3554,39.4069],[121.3806,39.4255],[121.377,39.4423],[121.341,39.4407],[121.3,39.3943],[121.3,39.4454],[121.3194,39.4542]]],[[[130.8019,42.6506],[130.7875,42.654],[130.8255,42.6726],[130.8287,42.6564],[130.8019,42.6506]]],[[[130.8307,42.6253],[130.8163,42.6338],[130.832,42.6399],[130.8354,42.6229],[130.8307,42.6253]]],[[[126.4069,37.4897],[126.4207,37.4971],[126.4747,37.4988],[126.4927,37.5072],[126.4999,37.5309],[126.5143,37.5343],[126.5647,37.514],[126.5766,37.5],[126.4069,37.4897]]],[[[125.2651,37.7369],[125.2759,37.7335],[125.2795,37.7487],[125.3371,37.769],[125.2975,37.7284],[125.2591,37.7068],[125.2415,37.7227],[125.2651,37.7369]]],[[[125.1823,37.8196],[125.1931,37.8162],[125.1645,37.792],[125.1504,37.8047],[125.1823,37.8196]]],[[[126.4099,37.6406],[126.4171,37.6525],[126.3667,37.7268],[126.3703,37.7859],[126.4063,37.8213],[126.4243,37.8247],[126.5179,37.7673],[126.5215,37.7436],[126.5143,37.7234],[126.5287,37.6964],[126.5287,37.6508],[126.5431,37.6305],[126.5287,37.6254],[126.5071,37.5967],[126.4747,37.6102],[126.4639,37.6035],[126.4099,37.6018],[126.3919,37.6086],[126.3703,37.6305],[126.4099,37.6406]]],[[[126.3127,37.7453],[126.3271,37.7419],[126.3307,37.7166],[126.3775,37.6795],[126.3811,37.6693],[126.3703,37.6575],[126.3487,37.6575],[126.2803,37.6997],[126.2911,37.7048],[126.3127,37.7453]]],[[[126.2227,37.7605],[126.2191,37.7707],[126.2335,37.8027],[126.2479,37.8112],[126.2623,37.8146],[126.2947,37.8027],[126.3343,37.801],[126.3415,37.7926],[126.3199,37.7622],[126.2551,37.769],[126.2227,37.7605]]],[[[125.7079,37.6727],[125.7043,37.6609],[125.6863,37.6525],[125.6791,37.6778],[125.7079,37.6727]]],[[[124.851,39.5166],[124.8582,39.5285],[124.8438,39.5437],[124.8582,39.5437],[124.8546,39.5741],[124.869,39.5808],[124.869,39.596],[124.8834,39.6044],[124.8798,39.6129],[124.9266,39.6044],[124.9086,39.5943],[124.9338,39.5504],[124.8834,39.5268],[124.8618,39.5082],[124.8186,39.4947],[124.8366,39.5217],[124.851,39.5166]]],[[[124.8834,38.5288],[124.905,38.4951],[124.8402,38.5103],[124.8222,38.5221],[124.8006,38.5086],[124.7898,38.517],[124.7934,38.5339],[124.8438,38.5558],[124.8834,38.5288]]],[[[124.6926,39.5352],[124.7034,39.5369],[124.707,39.5302],[124.6962,39.5031],[124.6854,39.5031],[124.6818,39.5217],[124.6926,39.5352]]],[[[124.6746,39.5707],[124.6998,39.5622],[124.6746,39.5386],[124.6458,39.547],[124.5954,39.5386],[124.6314,39.5656],[124.6746,39.5707]]],[[[124.5918,39.4474],[124.6134,39.4575],[124.6206,39.4322],[124.6026,39.4271],[124.5918,39.4474]]],[[[124.2426,39.802],[124.2246,39.7919],[124.2102,39.7953],[124.221,39.8189],[124.2354,39.8172],[124.2426,39.802]]],[[[123.1662,39.0658],[123.1446,39.081],[123.1806,39.0911],[123.195,39.0523],[123.159,39.0286],[123.1446,39.0438],[123.1518,39.0624],[123.1662,39.0658]]],[[[123.0186,39.5437],[123.0402,39.5302],[123.0294,39.5082],[123.0042,39.4981],[122.979,39.4998],[122.9646,39.515],[122.9682,39.5403],[122.9898,39.5487],[123.0186,39.5437]]],[[[122.637,39.2279],[122.637,39.2346],[122.7198,39.2414],[122.7414,39.2363],[122.727,39.2093],[122.691,39.1941],[122.6982,39.2211],[122.637,39.2279]]],[[[122.6442,39.2549],[122.5866,39.2583],[122.5326,39.2718],[122.5038,39.2971],[122.5362,39.2988],[122.583,39.2836],[122.6442,39.2786],[122.6838,39.2617],[122.6442,39.2549]]],[[[122.3778,39.1604],[122.3346,39.1468],[122.3202,39.1654],[122.3562,39.1958],[122.403,39.2144],[122.3886,39.1941],[122.403,39.1587],[122.3886,39.1519],[122.3778,39.1604]]]]}},{"type":"Feature","properties":{"id":"gr-didouyu","layer":"hypothesis","nameEn":"Didouyu location (schematic)","nameKo":"지두우(地豆于) 위치(개략) — 479년 고구려·유연 분할 시도 대상","category":"이웃 정치체(작성)","role":"korean","startYear":400,"endYear":560,"confidence":"low","license":"original (authored)","wikipedia":null,"wikidata":null,"sources":["RESEARCH_V02"],"uiDefault":true,"label":[120.95,44.05],"note":"위서 물길전(위치)·거란전 권100(479 모의) 기록: 지두우는 실위 서쪽 천여 리, 실위는 물길 북쪽 천 리. 태화 3년(479) 고구려가 유연과 몰래 지두우를 취해 나누려 모의(장수왕 67년). 실행·점유의 증거는 열람하지 못함. 대흥안령 서쪽 시린궈러~퉁랴오 일대(내몽골)로 비정하는 견해가 다수. 광개토왕(재위 391~413)이 아니라 장수왕 시기 사건임. 시기·위치 모두 사용자 제기와 다름. 연대(400~560)는 화면용 근사.","source":"korea"},"geometry":{"type":"Polygon","coordinates":[[[121.5,46.5],[123,44.8],[122.8,43.3],[120,42.8],[117.5,43],[117,44.5],[118.5,46.2],[121.5,46.5]]]}},{"type":"Feature","properties":{"id":"by-buyeo-late","layer":"hypothesis","nameEn":"Buyeo – late rump (schematic)","nameKo":"부여(346~494 잔존기, 개략)","category":"부여 계열(작성)","role":"korean","startYear":346,"endYear":494,"confidence":"low","license":"original (authored)","wikipedia":null,"wikidata":null,"sources":["RESEARCH_V02"],"uiDefault":true,"label":[125.191,44.6],"note":"346 전연 침공(왕 현과 5만여 명 피랍) 뒤 고구려 영향권, 457 '북부여'가 북위에 조공, 470년대 물길에 쫓김(위서), 494 왕실이 고구려에 항복. 농안~쑹위안 일대 잔존 폴리곤은 추정(매우 개략).","source":"korea"},"geometry":{"type":"Polygon","coordinates":[[[125.5,46],[126.4,45.2],[126.2,43.9],[125,43.4],[124,44],[124.2,45.6],[125.5,46]]]}},{"type":"Feature","properties":{"id":"by-dongbuyeo-t1","layer":"hypothesis","nameEn":"Eastern Buyeo – Tumen basin view (majority, no site)","nameKo":"동부여 – 두만강 유역설(다수설, 유적 미확정)","category":"부여 계열(작성)","role":"korean","startYear":285,"endYear":410,"confidence":"low","license":"original (authored)","wikipedia":null,"wikidata":null,"sources":["RESEARCH_V02"],"uiDefault":true,"label":[130.207,42.85],"note":"한국민족문화대백과·위키: 285년 모용외 침공 뒤 부여 왕실이 북옥저(두만강 유역, 연변~훈춘)로 피난해 형성. 광개토왕릉비 영락 20년(410)에 '동부여는 옛 추모왕의 속민이나 반란해 조공하지 않아' 친정, 64성 1,400촌 공파(64성·1,400촌은 비문 기록 수치). 그러나 ① 고고학적으로 확정된 동부여 유적 없음, ② 삼국지에 '동부여' 항목 없음(읍루가 북옥저와 접함), ③ 박노석(2019)은 북옥저가 280년경까지 고구려 영역이라 부여 피난지로 부적합하다고 비판. 훈춘은 지리적 기준점일 뿐 사료가 지명한 곳이 아님. 삼국사기의 해부루 → 가섭원(동해가) 이야기와 기원전 86/59년 연대는 전설 연대로 학계가 그대로 받지 않음. 고구려 대무신왕이 서기 22년 죽인 대소는 부여 본국 왕으로 보는 것이 자연스러워 동부여와 섞으면 안 됨.","source":"korea"},"geometry":{"type":"Polygon","coordinates":[[[131.4,43],[131.1738,42.6041],[131.1583,42.6017],[131.1259,42.6169],[131.1187,42.6675],[131.1043,42.6675],[131.0863,42.6405],[131.0359,42.6456],[130.9963,42.6405],[130.9531,42.627],[130.9315,42.6067],[130.8883,42.6],[130.8163,42.6338],[130.8379,42.6422],[130.8883,42.6388],[130.9099,42.6169],[130.9315,42.6186],[130.9459,42.6304],[130.9495,42.6523],[130.8487,42.6608],[130.8019,42.6506],[130.7875,42.654],[130.8307,42.6743],[130.8379,42.6912],[130.8271,42.6996],[130.7695,42.681],[130.7443,42.681],[130.7191,42.6996],[130.6579,42.6642],[130.6615,42.6439],[130.6831,42.6439],[130.7335,42.6152],[130.7299,42.5797],[130.7623,42.6],[130.7731,42.5966],[130.7839,42.5797],[130.8415,42.5578],[130.8739,42.5274],[130.8703,42.5172],[130.8595,42.524],[130.8415,42.5189],[130.8451,42.4868],[130.8379,42.4717],[130.7875,42.4615],[130.7803,42.4531],[130.7443,42.3535],[130.7047,42.296],[130.5967,42.2623],[130.5967,42.2977],[130.5823,42.3079],[130.5391,42.318],[130.5103,42.3366],[130.4815,42.3399],[130.4671,42.3349],[130.4707,42.3214],[130.4563,42.3112],[130.4383,42.3095],[130.4203,42.3247],[130.4059,42.3247],[130.4059,42.3079],[130.3843,42.291],[130.3879,42.2707],[130.4059,42.2606],[130.4059,42.2488],[130.4023,42.242],[130.3771,42.2572],[130.3663,42.2555],[130.3591,42.2437],[130.3656,42.2366],[130.311,42.2311],[130.2943,42.2369],[130.2826,42.2283],[130,42.2],[129.2,42.4],[129,43.3],[130.6,43.6],[131.4,43]]]}},{"type":"Feature","properties":{"id":"by-dongbuyeo-t2","layer":"hypothesis","nameEn":"Eastern Buyeo = Dongye view (weak)","nameKo":"동부여 – 동예(함경도)설(약함, 정약용)","category":"부여 계열(작성)","role":"korean","startYear":285,"endYear":410,"confidence":"speculative","license":"original (authored)","wikipedia":null,"wikidata":null,"sources":["RESEARCH_V02"],"uiDefault":true,"label":[127.051,39.707],"note":"한국민족문화대백과: 정약용이 동부여를 함경도 지역의 동예와 연결. 후한서 '부여는 본래 예의 땅' 등을 근거로 하나, 광개토왕릉비의 '추모왕은 북부여 출신' 서술과 동예·부여가 별개 항목이라는 점에서 약해졌다고 정리. 강릉 동부여설은 열람한 자료에서 지지 근거를 못 찾음. 위치는 매우 개략(함경남도 해안 일대).","source":"korea"},"geometry":{"type":"Polygon","coordinates":[[[128.4,40.6],[128.46,40.1199],[128.4115,40.0958],[128.3647,40.0975],[128.3395,40.0671],[128.3287,40.0283],[128.3035,40.0333],[128.2819,40.0654],[128.2639,40.0772],[128.2351,40.0671],[128.2279,40.057],[128.2351,40.03],[128.1919,40.03],[128.1559,40.0165],[128.1379,40.0266],[128.0083,40.0452],[127.9975,40.0198],[127.9651,40.0046],[127.9399,39.9742],[127.9075,39.9844],[127.8895,39.9607],[127.8823,39.9016],[127.8751,39.8932],[127.7815,39.8848],[127.7959,39.8763],[127.7923,39.8662],[127.7635,39.8544],[127.7275,39.8577],[127.6951,39.8476],[127.6807,39.8172],[127.6627,39.8071],[127.6231,39.8307],[127.6087,39.8105],[127.5619,39.7834],[127.5511,39.7615],[127.5223,39.7463],[127.5043,39.7159],[127.5007,39.699],[127.5115,39.65],[127.5511,39.6365],[127.5691,39.618],[127.5763,39.5943],[127.5367,39.5521],[127.5187,39.5099],[127.5619,39.3444],[127.5619,39.3157],[127.5439,39.3022],[127.5223,39.3157],[127.5259,39.3444],[127.5439,39.3714],[127.4935,39.4339],[127.4827,39.4373],[127.4251,39.3917],[127.3783,39.3782],[127.3891,39.3664],[127.4251,39.3579],[127.4539,39.368],[127.4683,39.3647],[127.4719,39.3478],[127.4683,39.3393],[127.4251,39.3309],[127.4143,39.341],[127.3927,39.341],[127.3999,39.3241],[127.3711,39.2397],[127.3927,39.2026],[127.4539,39.1654],[127.4719,39.1688],[127.4719,39.1941],[127.4899,39.1941],[127.5115,39.157],[127.5331,39.1468],[127.6087,39.1519],[127.6303,39.1468],[127.6627,39.1215],[127.7599,39.1164],[127.8247,39.0438],[127.8499,39.0016],[127.8859,38.9746],[127.8895,38.9611],[127.9147,38.9645],[127.9274,38.9327],[126.6,38.8],[126.6,40.2],[128.4,40.6]]]}},{"type":"Feature","properties":{"id":"by-bukbuyeo-admin","layer":"hypothesis","nameEn":"Northern Buyeo under Goguryeo governorship (schematic)","nameKo":"북부여(고구려 관할기, 모두루묘지 '북부여수사')","category":"부여 계열(작성)","role":"korean","startYear":400,"endYear":494,"confidence":"low","license":"original (authored)","wikipedia":null,"wikidata":null,"sources":["RESEARCH_V02"],"uiDefault":true,"label":[126.839,43.6],"note":"모두루묘지는 모두루가 광개토왕 대에 '북부여수사(守事)'였다고 기록 → 고구려가 옛 부여 땅(길림시 일대로 보는 해설) 일부를 관할했다는 근거. 다만 '북'이 부여 자체를 가리키는지 고구려 기준 방위인지, 범위가 어디까지인지는 불명. '북부여'는 ⓐ 부여의 별칭, ⓑ 고구려 관할 북부여, ⓒ 위서의 두막루(옛 북부여), ⓓ 삼국사기·유사의 해모수·해부루 전설 국가가 섞여 쓰이므로 구분 필요.","source":"korea"},"geometry":{"type":"Polygon","coordinates":[[[127.2,45],[128.3,44],[127.6,43],[126.4,42.8],[125.6,43.2],[125.8,44.6],[127.2,45]]]}},{"type":"Feature","properties":{"id":"by-dongtuanshan","layer":"site","nameEn":"Dongtuanshan (Jilin; Buyeo royal-city candidate)","nameKo":"동단산성·남성자(길림, 부여 왕성 후보)","category":"부여 유적","role":"korean","startYear":-108,"endYear":494,"confidence":"medium","license":"original (authored)","wikipedia":null,"wikidata":null,"sources":["RESEARCH_V02"],"uiDefault":false,"label":null,"note":"길림시 쑹화강 동안. 부여 초·중기 도성 후보. 왕성/위성 산성/'북부여' 거점 논쟁이 남아 있음. 청동기~고구려·발해·요금 유물 중첩.","source":"korea"},"geometry":{"type":"Point","coordinates":[126.5976,43.852]}},{"type":"Feature","properties":{"id":"by-nongan","layer":"site","nameEn":"Nong'an (late Buyeo centre / Buyeoseong standard identification)","nameKo":"농안(부여 후기 중심·부여성 통설지)","category":"부여 유적","role":"korean","startYear":346,"endYear":668,"confidence":"medium","license":"original (authored)","wikipedia":null,"wikidata":null,"sources":["RESEARCH_V02"],"uiDefault":false,"label":null,"note":"346년 이후 부여 중심 서천설, 고구려 천리장성 북단 부여성의 통설 비정지, 발해 부여부 유력지. 요·금 황룡부/부여부 옛 성이 겹쳐 있어 부여·고구려 시기 층위는 확정 못 함.","source":"korea"},"geometry":{"type":"Point","coordinates":[125.175,44.435]}},{"type":"Feature","properties":{"id":"gr-hwando","layer":"site","nameEn":"Hwando Mountain City (Ji'an)","nameKo":"환도산성(집안)","category":"고구려 성·유적","role":"korean","startYear":209,"endYear":427,"confidence":"high","license":"original (authored)","wikipedia":null,"wikidata":null,"sources":["RESEARCH_V02"],"uiDefault":false,"label":null,"note":"국내성의 산성 짝. 244 위 관구검 침입·342 전연 침입에서 함락. UNESCO 세계유산.","source":"korea"},"geometry":{"type":"Point","coordinates":[126.1632,41.1465]}},{"type":"Feature","properties":{"id":"gr-daeseongsan","layer":"site","nameEn":"Daeseongsan Fortress (Pyongyang)","nameKo":"대성산성(평양)","category":"고구려 성·유적","role":"korean","startYear":400,"endYear":668,"confidence":"medium","license":"original (authored)","wikipedia":null,"wikidata":null,"sources":["RESEARCH_V02"],"uiDefault":false,"label":null,"note":"안학궁과 짝을 이루는 평양 도읍기 산성. 둘레 약 7.2km.","source":"korea"},"geometry":{"type":"Point","coordinates":[125.8283,39.0739]}},{"type":"Feature","properties":{"id":"gr-yodong","layer":"site","nameEn":"Yodong Fortress (Liaoyang)","nameKo":"요동성(랴오양)","category":"고구려 성·유적","role":"korean","startYear":400,"endYear":668,"confidence":"medium","license":"original (authored)","wikipedia":null,"wikidata":null,"sources":["RESEARCH_V02"],"uiDefault":false,"label":null,"note":"645 당군이 함락한 요동 방어 중심. 한대 양평. 요동 확보는 광개토왕기 후연 전쟁의 결과.","source":"korea"},"geometry":{"type":"Point","coordinates":[123.176,41.279]}},{"type":"Feature","properties":{"id":"gr-sinseong","layer":"site","nameEn":"Sinseong / Gaoershan (Fushun)","nameKo":"신성(무순 고이산성)","category":"고구려 성·유적","role":"korean","startYear":300,"endYear":668,"confidence":"medium","license":"original (authored)","wikipedia":null,"wikidata":null,"sources":["RESEARCH_V02"],"uiDefault":false,"label":null,"note":"훈허가 요동평야로 나가는 서쪽 관문. 400년 후연 침공 대상, 668 함락.","source":"korea"},"geometry":{"type":"Point","coordinates":[123.96,41.88]}},{"type":"Feature","properties":{"id":"gr-yongdamsan","layer":"site","nameEn":"Longtanshan Fortress (Jilin)","nameKo":"용담산성(길림)","category":"고구려 성·유적","role":"korean","startYear":300,"endYear":668,"confidence":"medium","license":"original (authored)","wikipedia":null,"wikidata":null,"sources":["RESEARCH_V02"],"uiDefault":false,"label":null,"note":"쑹화강 유역 최북단급 고구려 산성으로 소개. 부여기 사용 여부는 자료마다 달라 연대 미확정.","source":"korea"},"geometry":{"type":"Point","coordinates":[126.58,43.85]}},{"type":"Feature","properties":{"id":"gr-namso-mokjeo","layer":"site","nameEn":"Namso / Mokjeo (Xinbin area)","nameKo":"남소성·목저성(신빈 일대)","category":"고구려 성·유적","role":"korean","startYear":300,"endYear":668,"confidence":"low","license":"original (authored)","wikipedia":null,"wikidata":null,"sources":["RESEARCH_V02"],"uiDefault":false,"label":null,"note":"400년(남소성)·406년(목저성) 후연과의 전투 관련. 두 후보 산성이 있어 지역 수준으로만 표시.","source":"korea"},"geometry":{"type":"Point","coordinates":[125.04,41.73]}},{"type":"Feature","properties":{"id":"bj-h-liaoxi","layer":"hypothesis","nameEn":"Baekje Liaoxi / Jinping hypothesis (minority)","nameKo":"[소수설] 백제 요서 진평군 가설(통전 '유성·북평 사이')","category":"백제 가설(검증 대상)","role":"korean","startYear":346,"endYear":420,"confidence":"speculative","license":"original (authored)","wikipedia":null,"wikidata":null,"sources":["RESEARCH_V02"],"uiDefault":true,"label":[119.801,40.412],"note":"송서·양서·남사·통전에 '백제가 요서(진평군 진평현)를 차지했다'는 기술이 실재하나 북조 사서·삼국사기·백제 자신의 472년 표문에는 없음. 국사편찬위원회 서술은 남조의 외교 인식 반영일 가능성을 높게 봄. 실제 점령설은 소수설(신채호·정인보·이도학 등이 지지). 폴리곤은 통전의 위치 서술에 착안한 가설의 시각화이지 증거가 아님. 편년도 학자마다 다름(근초고왕·근구수왕·약 370년).","source":"korea"},"geometry":{"type":"Polygon","coordinates":[[[120.5,41.2],[121,41],[120.7594,40.5789],[120.6786,40.5213],[120.6606,40.4842],[120.603,40.4656],[120.5958,40.4217],[120.5454,40.4031],[120.5382,40.3829],[120.549,40.3761],[120.5886,40.3846],[120.5922,40.3677],[120.5022,40.3272],[120.5033,40.2463],[120.4088,40.1938],[120.3582,40.1921],[120.3078,40.1803],[120.261,40.1465],[120.117,40.0992],[119.9514,40.057],[119.9154,40.0367],[119.9118,39.9979],[119.8758,39.9945],[119.811,39.9726],[119.775,39.9506],[119.7498,39.9523],[119.7066,39.9354],[119.6598,39.932],[119.6202,39.9118],[119.5338,39.8915],[119.5194,39.8577],[119.5302,39.8155],[119.4654,39.8155],[119.3682,39.748],[119.3372,39.7093],[118.9,39.6],[118.5,40.2],[119.5,40.6],[120.5,41.2]]]}},{"type":"Feature","properties":{"id":"gr-kraskino-area44","layer":"site","nameEn":"Kraskino Area 44, lowest living surface 6 — reported as 'Goguryeo period'","nameKo":"크라스키노 44구역 최하층(제6생활면) — '발해 이전 고구려시기'로 보고됨","category":"연해주 유적(고구려시기 층 논쟁)","role":"korean","startYear":250,"endYear":550,"confidence":"low","license":"original (authored)","wikipedia":null,"wikidata":null,"sources":["RESEARCH_V02"],"uiDefault":false,"label":null,"note":"동북아역사재단 2021 보고서: 제6생활면은 방사성탄소연대 두 개(AD 250~440, 420~550)와 층위로 발해 이전 '고구려시기'로 판단, 다만 '가능성이 매우 높다'는 표현. 제6생활면 출토는 화재 맞은 석축 건물 기초 잔해·구덩이·토기 윗부분 1점+다수 토기편·철제 칼·못·무쇠솥 다리로 보고되며 토기의 양식 귀속이 없고 시루·부뚜막도 언급이 없음 — 즉 '고구려식 토기 3점+시루+부뚜막' 조합은 열람 범위에서 못 찾음. 2008 보고서는 530년 연대가 이상치라고 스스로 표시했고 2007 보고서는 '고구려 영향 토기 제작기술'을 말함. 러시아 측(2011)은 거주 시작을 7세기 말~8세기 초로 봄. 연합뉴스 2009와 위키의 '본래 고구려 영토'는 이 530년 단일 연대에서 나온 말. 정치적 지배의 증거가 아님.","source":"korea"},"geometry":{"type":"Point","coordinates":[130.77,42.69]}},{"type":"Feature","properties":{"id":"gr-kraskino-zone","layer":"hypothesis","nameEn":"Posyet Bay / Kraskino: single-site Goguryeo-period occupation trace (not territory)","nameKo":"[단일 유적 증거] 포시예트만 크라스키노 일대: 고구려시기 점유 흔적(영토 아님)","category":"고구려 최동단 검증(작성)","role":"korean","startYear":250,"endYear":550,"confidence":"speculative","license":"original (authored)","wikipedia":null,"wikidata":null,"sources":["RESEARCH_V02"],"uiDefault":true,"label":[130.891,42.678],"note":"유적 하나(44구역 최하층)의 '고구려시기' 층서·연대 판정을 둘러싼 25×22km 상자. 그 이상의 의미를 두지 말 것 — 연해주와 두만강 유역을 이어 그리지 않았고, 어떤 자료도 고구려 국경을 포시예트까지 긋지 않는다. 사료상 동쪽 끝은 동옥저를 병합해 바다에 이른 것(태조왕 56, 위키 요약)과 두만강 유역까지가 열람 범위의 최대.","source":"korea"},"geometry":{"type":"MultiPolygon","coordinates":[[[[130.65,42.78],[130.95,42.78],[130.95,42.6241],[130.9315,42.6067],[130.8883,42.6],[130.8163,42.6338],[130.8379,42.6422],[130.8883,42.6388],[130.9099,42.6169],[130.9315,42.6186],[130.9459,42.6304],[130.9495,42.6523],[130.8487,42.6608],[130.8019,42.6506],[130.7875,42.654],[130.8307,42.6743],[130.8379,42.6912],[130.8271,42.6996],[130.7695,42.681],[130.7443,42.681],[130.7191,42.6996],[130.6579,42.6642],[130.6615,42.6439],[130.6831,42.6439],[130.7335,42.6152],[130.73,42.58],[130.65,42.58],[130.65,42.78]]],[[[130.7623,42.6],[130.7837,42.58],[130.7303,42.58],[130.7623,42.6]]]]}},{"type":"Feature","properties":{"id":"gr-lx3-max","layer":"hypothesis","nameEn":"Goguryeo Liaoxi zone of activity — maximal (raids + NW Khitan/Mohe influence)","nameKo":"[상한] 고구려 요서 '활동·영향 범위' 최대형(395~612, 습격 도달 + 서북 거란·말갈 영향)","category":"고구려 요서(재조사) 영향권","role":"korean","startYear":395,"endYear":645,"confidence":"speculative","license":"original (authored)","wikipedia":null,"wikidata":null,"sources":["RESEARCH_V02"],"uiDefault":true,"label":[121.394,42.1],"note":"395 패려 원정, 402 숙군·404 연군, 436 화룡성 진입, 479 지두우 모의, 6세기 거란 만 가 기거, 598 영주 방면 습격을 모두 감싼 외곽선 — 습격 도달범위와 부용 영향이지 통치 영역이 아님. 일부러 과하게 그렸고 시라무렌 유역은 맨 위 끝에서 원정·부용 수준으로만 닿음.","source":"korea"},"geometry":{"type":"Polygon","coordinates":[[[123,42.4],[123,41.5],[122.4,40.9],[121.8464,40.8539],[121.8414,40.9131],[121.827,40.9334],[121.827,40.9486],[121.8594,40.9671],[121.8738,40.9891],[121.8666,40.9958],[121.7766,40.935],[121.7802,40.908],[121.7406,40.8489],[121.575,40.8422],[121.5102,40.8793],[121.449,40.8861],[121.431,40.9131],[121.3626,40.9401],[121.2978,40.8996],[121.2726,40.903],[121.2582,40.9199],[121.2438,40.9063],[121.2258,40.9266],[121.2006,40.93],[121.1754,40.9215],[121.107,40.8726],[121.0839,40.8664],[120.5,41.2],[119.9,41.8],[119.6,42.6],[119.5,43.8],[122.5,43.6],[123,42.4]]]}},{"type":"Feature","properties":{"id":"lx-suqun","layer":"site","nameEn":"Suqun — NAHF identification: Beizhen","nameKo":"숙군성(宿軍城) — 동북아역사넷 비정: 랴오닝 베이전(北鎭)","category":"요서 지점(고구려 원정)","role":"korean","startYear":398,"endYear":410,"confidence":"medium","license":"original (authored)","wikipedia":null,"wikidata":null,"sources":["RESEARCH_V02"],"uiDefault":false,"label":null,"note":"402년 고구려가 공격하자 후연 평주자사 모용귀가 성을 버리고 도주(자치통감, 동북아역사넷 인용) — 전초 초소가 아니라 자사급 거점. '조양시 인근'은 틀림(조양은 서쪽 약 115km). 공석구 초록은 다링강 동안 왕가 유적으로 비정.","source":"korea"},"geometry":{"type":"Point","coordinates":[121.79,41.6]}},{"type":"Feature","properties":{"id":"lx-yangun","layer":"site","nameEn":"Yan Commandery — NAHF identification: Yi County","nameKo":"연군(燕郡) — 동북아역사넷 비정: 의현(義縣)","category":"요서 지점(고구려 원정)","role":"korean","startYear":398,"endYear":410,"confidence":"medium","license":"original (authored)","wikipedia":null,"wikidata":null,"sources":["RESEARCH_V02"],"uiDefault":false,"label":null,"note":"404년 '고구려가 연군을 쳐 100여 명을 죽이고 약탈'(진서, 寇燕郡殺略百餘人) — 약탈이지 함락·점령이 아님. 위키 요약의 '연군=베이징 근방'은 후연의 요서 연군과 한·진대 연국을 혼동한 것으로 봄(근거 없음). 당서 '용성 동쪽 180리'와 조양~이현 거리가 맞음(작성자 계산).","source":"korea"},"geometry":{"type":"Point","coordinates":[121.24,41.53]}},{"type":"Feature","properties":{"id":"lx-helong","layer":"site","nameEn":"Helong (Longcheng), Chaoyang — where Goguryeo troops entered in 436","nameKo":"화룡성(和龍城=龍城, 조양) — 436 고구려군 진입지","category":"요서 지점(고구려 원정)","role":"korean","startYear":341,"endYear":436,"confidence":"high","license":"original (authored)","wikipedia":null,"wikidata":null,"sources":["RESEARCH_V02"],"uiDefault":false,"label":null,"note":"북연 도성. 436년 장수왕이 갈로·맹광을 보내 동문으로 들어가 곽생을 격파·약탈하고 풍홍과 1만여 호를 데리고 나옴. 점령·주둔 없이 회군. 북위 추격대는 요수에서 고필이 제지, 태무제는 토벌을 접음. [v0.7] 주의: 여기 '화룡성'은 북연·후연의 수도 龍城/和龍(조양)이며 발해 중경 현덕부 관련 '화룡(和龍, 지린성 허룽)'과 다른 곳이다. 436년 방화 주체는 사료·위키마다 다르게 서술한다(고구려군이 궁궐에 불을 질렀다는 서술도, 풍홍 쪽이 태웠다는 서술도 있음).","source":"korea"},"geometry":{"type":"Point","coordinates":[120.45,41.57]}},{"type":"Feature","properties":{"id":"lx-baeryeo","layer":"site","nameEn":"Baeryeo campaign target — Khitan of the Xilamulun basin (395)","nameKo":"패려(稗麗) 원정 목표: 시라무렌강 유역 거란(395)","category":"요서 지점(고구려 원정)","role":"korean","startYear":391,"endYear":410,"confidence":"low","license":"original (authored)","wikipedia":null,"wikidata":null,"sources":["RESEARCH_V02"],"uiDefault":false,"label":null,"note":"비문 영락 5년(395): 왕이 패려를 직접 쳐 3부락 6~700영을 깨뜨림, 양평도를 거쳐 사냥하며 귀환 — 원정 기록이지 점령 기록이 아님. 패려=시라무렌 거란은 '추정'(동북아역사넷). 염수·부산 위치는 열람 자료에 없음.","source":"korea"},"geometry":{"type":"Point","coordinates":[120.5,43.4]}},{"type":"Feature","properties":{"id":"gr-primorye-possible","layer":"hypothesis","nameEn":"[Possible only] Lower Tumen–Posyet: possible Goguryeo cultural reach","nameKo":"[가능성만] 두만강 하류(훈춘)~포시예트만: 고구려 문화·영향이 닿았을 '가능' 지대(영토 아님)","category":"고구려 최동단 검증(작성)","role":"korean","startYear":250,"endYear":668,"confidence":"speculative","license":"original (authored)","wikipedia":null,"wikidata":null,"sources":["RESEARCH_V02"],"uiDefault":true,"label":[130.38,42.657],"note":"질문: 연해주에 말갈이 있었고 고구려가 말갈과 자주 협력했으니 고구려가 연해주까지 진출했을까? — 판정: 확정 불가(가능성 수준의 추론은 배제되지 않지만 자료로 확인되지 않음). 책성(훈춘)은 문헌상 비교적 탄탄한 동방 거점(217 후한 유민 안치, 신당서: 동경 용원부=柵城府)이라 그 연장선상 영향을 상상할 수 있으나, 크라스키노 44구역 제6생활면(14C AD250~550)은 '고구려시기 가능성이 매우 높다'는 헤지 표현이고 고구려계 유물·온돌은 미확인, 크라딘(2023)은 고구려를 언급하지 않으며 구들을 발해·여진에만 귀속한다. 고구려와 협력한 말갈은 속말·백산 등 만주 중남부 집단이라 연해주 말갈(호실·불열·월희 등)과 직접 연결되지 않고, en.wikipedia 'History of Primorye'는 직접 통제 증거가 없다고 쓴다. 두만강 이북·우수리 계곡으로 넓힐 근거는 없어 폴리곤은 이 좁은 지대로 한정했다. 폴리곤 형태는 추론이고 좌표 다수가 일반 지식이다.","source":"korea"},"geometry":{"type":"Polygon","coordinates":[[[130.98,42.72],[130.98,42.6354],[130.9135,42.6017],[130.8739,42.6034],[130.8163,42.6338],[130.8379,42.6422],[130.8883,42.6388],[130.9099,42.6169],[130.9315,42.6186],[130.9459,42.6304],[130.9495,42.6523],[130.8487,42.6608],[130.7875,42.654],[130.8307,42.6743],[130.8379,42.6912],[130.8271,42.6996],[130.7695,42.681],[130.7443,42.681],[130.7191,42.6996],[130.6579,42.6642],[130.6615,42.6439],[130.6831,42.6439],[130.7335,42.6152],[130.7299,42.5797],[130.7623,42.6],[130.7731,42.5966],[130.7839,42.5797],[130.8415,42.5578],[130.8739,42.5274],[130.8703,42.5172],[130.8595,42.524],[130.8415,42.5189],[130.8451,42.4868],[130.8379,42.4717],[130.7875,42.4615],[130.7803,42.4531],[130.7458,42.359],[130.5645,42.315],[130.5391,42.318],[130.5103,42.3366],[130.4815,42.3399],[130.4671,42.3349],[130.4707,42.3214],[130.4563,42.3112],[130.4383,42.3095],[130.4203,42.3247],[130.4059,42.3247],[130.4059,42.3079],[130.3881,42.294],[130.1,42.42],[130.1,43.02],[130.62,43.02],[130.98,42.72]]]}},{"type":"Feature","properties":{"id":"gr-chaekseong","layer":"site","nameEn":"Chaekseong (Hunchun, Wenteheibu fortress) — Goguryeo eastern base","nameKo":"책성(柵城) 비정지 — 훈춘 온특혁부성(고구려 동방 거점)","category":"고구려 성·유적","role":"korean","startYear":217,"endYear":668,"confidence":"medium","license":"original (authored)","wikipedia":null,"wikidata":null,"sources":["RESEARCH_V02"],"uiDefault":false,"label":null,"note":"고국천왕 때(217) 후한 유민을 책성에 안치(ko.wikipedia 고구려), 신당서는 발해 동경 용원부를 '柵城府'로도 부름, 온특혁부성은 '고구려 때 축조 추정'인 성. 고구려가 두만강 하류에 닿았다는 가장 강한 근거이나 유적 수준에서는 '추정'. 팔련성(발해 동경)과의 정확한 관계는 확인하지 못함.","source":"korea"},"geometry":{"type":"Point","coordinates":[130.37,42.86]}},{"type":"Feature","properties":{"id":"war-gwanggaeto-400-silla-relief","layer":"battle","nameEn":"Goguryeo relief of Silla against Wa/Baekje/Gaya (400)","nameKo":"영락 10년(400) 신라 구원 - 임나가라 종발성","category":"전쟁·전투","role":"korean","startYear":399,"endYear":400,"confidence":"medium","license":"original (authored; facts from cited pages)","wikipedia":null,"wikidata":null,"sources":["RESEARCH_V02"],"uiDefault":false,"label":null,"note":"Stele Yeongnak 9 (399) - 10 (400) sequence; 'Wa' role and readings of the stele inscriptions are disputed between Korean and Japanese scholars (en-wiki). 'Imna-gara Jongbal fortress' location unknown.","source":"korea"},"geometry":null},{"type":"Feature","properties":{"id":"war-goguryeo-later-yan-400-sinseong-namso","layer":"battle","nameEn":"Later Yan surprise attack on Sinseong and Namso (400)","nameKo":"후연의 신성·남소성 기습 (400)","category":"전쟁·전투","role":"korean","startYear":400,"endYear":400,"confidence":"medium","license":"original (authored; facts from cited pages)","wikipedia":null,"wikidata":null,"sources":["RESEARCH_V02"],"uiDefault":false,"label":null,"note":"Date 26 March 400 and commanders from en-wiki 'Goguryeo-Yan Wars'; ko-wiki 광개토대왕 says Goguryeo 'repulsed' a 400 invasion - accounts differ on the outcome. Locations not identified in extract.","source":"korea"},"geometry":null}]}