{"type":"FeatureCollection","properties":{"year":-1000,"source":"korea","fillHint":"layer in polity|polity_prehistory|hypothesis; prefer uiDefault"},"features":[{"type":"Feature","properties":{"id":"hbm-paleokoreans","layer":"polity_prehistory","nameEn":"Paleo-Koreans (1500/1000/700 BC snapshots)","nameKo":"Paleo-Koreans(basemaps, BC 1500~700 스냅샷)","category":"선사·문화권(basemaps)","role":"korean","startYear":-1500,"endYear":-501,"confidence":"low","license":"GPL-3.0 (historical-basemaps) — 이 폴리곤을 포함한 결과물 재배포 시 GPL 조건 검토 필요","wikipedia":null,"wikidata":null,"sources":["HBM"],"uiDefault":true,"label":[127.931,37.191],"note":"세 스냅샷(BC 1500·1000·700)의 폴리곤이 동일. 한반도 본토 중심의 개략 범위.","source":"korea"},"geometry":{"type":"Polygon","coordinates":[[[128.3388,40.0166],[128.2362,39.9696],[127.9313,39.9562],[127.6715,39.8664],[127.4408,39.6237],[127.2769,39.2217],[127.4046,39.0753],[127.956,38.6941],[128.4511,38.2554],[129.1293,37.3079],[129.25,37.0089],[129.2353,36.2451],[129.1775,35.9587],[129.2417,35.9079],[129.4668,35.9275],[129.4122,35.7429],[129.2853,35.5073],[129.06,35.1698],[128.9178,35.0296],[128.8085,35.0103],[128.553,35.1052],[128.438,35.0604],[128.1645,34.7995],[127.9707,34.8372],[127.8405,34.9385],[127.596,34.8935],[127.3591,34.8042],[126.8245,34.4286],[126.6168,34.4091],[126.4096,34.269],[126.3601,34.6688],[126.2254,35.164],[126.3003,35.3677],[126.525,35.578],[126.5248,35.737],[126.6264,35.9281],[126.6069,35.9916],[126.4367,36.1313],[126.3938,36.2648],[126.4006,36.4748],[126.3614,36.6275],[126.2315,36.6845],[125.9603,36.7221],[126.2548,36.9073],[126.3909,36.9585],[126.6854,36.8382],[126.7996,36.9466],[126.7863,37.0739],[126.443,37.4743],[126.3919,37.6143],[126.2097,37.7541],[126.0525,37.6009],[125.909,37.5115],[125.7412,37.785],[125.5617,37.8355],[125.2694,37.4847],[125.1816,37.6564],[125.077,37.7709],[124.7697,37.9359],[124.6937,38.1395],[124.7362,38.2798],[124.9294,38.4649],[125.2686,38.5676],[125.2937,38.6887],[125.0279,38.8156],[125.2961,39.3643],[125.2065,39.4853],[124.9223,39.6186],[124.6884,39.6054],[124.5481,39.5413],[124.407,39.5983],[126.2929,40.296],[128.3388,40.0166]]]}},{"type":"Feature","properties":{"id":"bz-songguk","layer":"site","nameEn":"Songguk-ri","nameKo":"송국리 유적(부여)","category":"선사·청동기","role":"korean","startYear":-1500,"endYear":-300,"confidence":"medium","license":"original (authored)","wikipedia":null,"wikidata":null,"sources":["GK","ENWIKI_MUMUN"],"uiDefault":false,"label":null,"note":"송국리형 문화의 표지 유적(호서·호남 중심).","source":"korea"},"geometry":{"type":"Point","coordinates":[126.87,36.28]}},{"type":"Feature","properties":{"id":"bz-daepyeong","layer":"site","nameEn":"Daepyeong","nameKo":"대평리 유적(진주)","category":"선사·청동기","role":"korean","startYear":-1500,"endYear":-300,"confidence":"medium","license":"original (authored)","wikipedia":null,"wikidata":null,"sources":["GK","ENWIKI_MUMUN"],"uiDefault":false,"label":null,"note":"중기 무문토기 시대의 대규모 밭·취락 유적.","source":"korea"},"geometry":{"type":"Point","coordinates":[128.09,35.16]}},{"type":"Feature","properties":{"id":"bz-dolmen-ganghwa","layer":"site","nameEn":"Ganghwa dolmens","nameKo":"강화 부근리 고인돌","category":"선사·청동기","role":"korean","startYear":-1500,"endYear":-300,"confidence":"medium","license":"original (authored)","wikipedia":null,"wikidata":null,"sources":["GK","ENWIKI_MUMUN"],"uiDefault":false,"label":null,"note":"유네스코 고인돌 유적 3곳 중 하나(강화). 탁자식 고인돌로 알려짐.","source":"korea"},"geometry":{"type":"Point","coordinates":[126.43,37.8]}},{"type":"Feature","properties":{"id":"bz-dolmen-gochang","layer":"site","nameEn":"Gochang dolmens","nameKo":"고창 고인돌 유적","category":"선사·청동기","role":"korean","startYear":-1500,"endYear":-300,"confidence":"medium","license":"original (authored)","wikipedia":null,"wikidata":null,"sources":["GK","ENWIKI_MUMUN"],"uiDefault":false,"label":null,"note":"유네스코 고인돌 유적 3곳 중 하나(고창).","source":"korea"},"geometry":{"type":"Point","coordinates":[126.58,35.43]}},{"type":"Feature","properties":{"id":"bz-dolmen-hwasun","layer":"site","nameEn":"Hwasun dolmens","nameKo":"화순 고인돌 유적","category":"선사·청동기","role":"korean","startYear":-1500,"endYear":-300,"confidence":"medium","license":"original (authored)","wikipedia":null,"wikidata":null,"sources":["GK","ENWIKI_MUMUN"],"uiDefault":false,"label":null,"note":"유네스코 고인돌 유적 3곳 중 하나(화순).","source":"korea"},"geometry":{"type":"Point","coordinates":[126.94,35.03]}},{"type":"Feature","properties":{"id":"cul-bipa","layer":"hypothesis","nameEn":"Liaoning-type (mandolin) bronze dagger area (schematic)","nameKo":"비파형동검(요령식동검) 분포권(개략)","category":"선사·문화권","role":"korean","startYear":-1000,"endYear":-300,"confidence":"low","license":"original (authored)","wikipedia":null,"wikidata":null,"sources":["KOWIKI_GOJOSEON"],"uiDefault":true,"label":[123.331,41.298],"note":"비파형동검은 고조선의 세력 범위를 보여 주는 유물로 보는 견해가 많으나, 유형에 따라 동호 계열 문화 지역이 섞여 있어 주의가 필요하다고 정리됨. 분포 경계는 도식.","source":"korea"},"geometry":{"type":"MultiPolygon","coordinates":[[[[122,43.4],[125.6,43.3],[127.2,41.6],[127,40],[125.8,38.7],[125.6344,38.6558],[125.5891,38.6656],[125.5279,38.7213],[125.4775,38.7281],[125.4487,38.777],[125.4379,38.7754],[125.4235,38.7551],[125.4127,38.7551],[125.4343,38.7365],[125.4199,38.7298],[125.3875,38.7179],[125.3551,38.7348],[125.3515,38.7213],[125.3407,38.7179],[125.3155,38.7213],[125.3011,38.7348],[125.2975,38.7213],[125.3083,38.7078],[125.2795,38.7027],[125.2615,38.7078],[125.2435,38.7281],[125.2687,38.7551],[125.2543,38.7618],[125.2543,38.7838],[125.2399,38.7939],[125.2255,38.7956],[125.2291,38.772],[125.2183,38.7399],[125.1895,38.7382],[125.1715,38.7635],[125.1463,38.777],[125.1355,38.8041],[125.1535,38.8919],[125.1715,38.9391],[125.2003,38.9746],[125.2003,38.9864],[125.2723,39.081],[125.3335,39.0827],[125.2831,39.0894],[125.2939,39.1435],[125.2867,39.1519],[125.3083,39.1654],[125.3443,39.1688],[125.3299,39.1941],[125.3443,39.2127],[125.3659,39.2211],[125.4127,39.2144],[125.3947,39.2465],[125.4307,39.3005],[125.4451,39.3106],[125.4163,39.3208],[125.4127,39.3343],[125.4199,39.3512],[125.4055,39.3647],[125.4235,39.3579],[125.4451,39.3664],[125.4595,39.3849],[125.3587,39.3984],[125.3587,39.4136],[125.3839,39.4407],[125.3443,39.4339],[125.3443,39.4592],[125.3983,39.5014],[125.4127,39.5386],[125.4415,39.547],[125.4523,39.5707],[125.4451,39.5842],[125.2867,39.5217],[125.2363,39.5622],[125.2111,39.5724],[125.2255,39.5909],[125.1571,39.5909],[125.1715,39.5639],[125.1175,39.5656],[125.0959,39.6028],[125.0383,39.6078],[125.0095,39.6348],[124.9878,39.6382],[124.959,39.6619],[124.9482,39.6635],[124.9374,39.6467],[124.9014,39.6619],[124.8942,39.6923],[124.8798,39.7041],[124.833,39.726],[124.8114,39.7277],[124.8006,39.7395],[124.7718,39.7412],[124.761,39.748],[124.7466,39.7834],[124.7394,39.7615],[124.7538,39.7345],[124.743,39.6906],[124.7574,39.6872],[124.7538,39.672],[124.7286,39.6652],[124.743,39.645],[124.7178,39.6467],[124.6962,39.6382],[124.6494,39.6129],[124.6386,39.5909],[124.6242,39.5977],[124.6278,39.6112],[124.6098,39.6281],[124.6278,39.645],[124.6314,39.6635],[124.6458,39.6703],[124.6458,39.6973],[124.6242,39.6939],[124.6098,39.7142],[124.5846,39.7243],[124.5882,39.7666],[124.5666,39.7784],[124.563,39.8138],[124.4334,39.8307],[124.419,39.824],[124.4046,39.8408],[124.3974,39.8662],[124.3614,39.8712],[124.3506,39.8932],[124.3218,39.9135],[124.3686,39.9405],[124.383,40.003],[124.4046,40.0283],[124.4658,40.0148],[124.4982,40.0232],[124.4118,40.0367],[124.3902,40.0485],[124.3686,40.0975],[124.3578,40.0891],[124.3614,40.0114],[124.3074,39.9607],[124.3002,39.9405],[124.1166,39.8324],[124.0878,39.8527],[124.041,39.824],[123.987,39.8105],[123.9438,39.8408],[123.9114,39.824],[123.8862,39.8223],[123.807,39.8375],[123.7746,39.8189],[123.7206,39.8307],[123.6414,39.878],[123.6558,39.9202],[123.6306,39.9033],[123.591,39.7851],[123.5622,39.7699],[123.5334,39.7969],[123.5118,39.7986],[123.4938,39.7902],[123.429,39.726],[123.411,39.7345],[123.4074,39.7463],[123.4182,39.824],[123.3966,39.8189],[123.4038,39.8105],[123.3858,39.7902],[123.3138,39.7767],[123.2742,39.8105],[123.2634,39.7969],[123.2562,39.8003],[123.2526,39.8172],[123.2346,39.802],[123.267,39.7547],[123.249,39.748],[123.2094,39.7547],[123.2058,39.7345],[123.2562,39.7243],[123.2706,39.7075],[123.267,39.7007],[123.1734,39.6652],[123.1266,39.6652],[123.1086,39.6906],[123.0582,39.6754],[123.0078,39.6804],[122.9934,39.6652],[122.979,39.6669],[122.979,39.6585],[122.997,39.65],[122.9934,39.6365],[122.9646,39.6112],[122.9466,39.6196],[122.871,39.6061],[122.8494,39.618],[122.781,39.5605],[122.709,39.5352],[122.6874,39.5183],[122.6766,39.515],[122.6478,39.5318],[122.637,39.5082],[122.5866,39.4677],[122.5614,39.4862],[122.5542,39.4812],[122.5614,39.4609],[122.4966,39.4271],[122.4462,39.412],[122.3958,39.4103],[122.385,39.3951],[122.3562,39.3883],[122.3202,39.3613],[122.2914,39.3512],[122.2662,39.3174],[122.2518,39.3241],[122.241,39.2853],[122.115,39.2009],[122.1042,39.1587],[122.1366,39.1587],[122.1618,39.1468],[122.1258,39.1418],[122.0718,39.1046],[122.0466,39.0996],[122.0394,39.0911],[122.0502,39.0675],[122.043,39.059],[121.989,39.0624],[121.9602,39.0405],[121.9422,39.0371],[121.9026,39.0489],[121.8882,39.0422],[121.9134,39.0303],[121.9242,39.0084],[121.881,39.027],[121.827,39.0371],[121.8378,39.0151],[121.881,38.9966],[121.8954,38.9814],[121.8882,38.9628],[121.8594,38.9442],[121.8126,38.9729],[121.773,39.0219],[121.7442,39.0337],[121.7262,39.0303],[121.719,39.0202],[121.737,39.0016],[121.6722,39.0084],[121.6362,38.9949],[121.6542,38.9898],[121.6542,38.9628],[121.593,38.9493],[121.5858,38.9408],[121.6182,38.9256],[121.6758,38.9223],[121.6938,38.9104],[121.7046,38.8919],[121.6974,38.8632],[121.6758,38.8716],[121.6542,38.8581],[121.5822,38.8632],[121.5534,38.8581],[121.4994,38.8142],[121.4714,38.81],[121.1106,38.9363],[121.1286,38.9476],[121.179,38.9543],[121.2186,38.9408],[121.2582,38.9493],[121.2906,38.9679],[121.3338,38.9679],[121.341,38.978],[121.3266,39.0118],[121.3338,39.027],[121.3518,39.0388],[121.395,39.0422],[121.4274,39.0151],[121.467,39.0151],[121.5462,39.0489],[121.6326,39.0692],[121.6758,39.0877],[121.6902,39.1181],[121.6794,39.1367],[121.6506,39.1587],[121.6434,39.1755],[121.6074,39.1806],[121.593,39.1924],[121.6074,39.2009],[121.6002,39.2211],[121.6254,39.2245],[121.6326,39.2363],[121.5894,39.2634],[121.611,39.2752],[121.6578,39.2667],[121.719,39.2971],[121.737,39.3123],[121.7298,39.3309],[121.7802,39.3714],[121.8378,39.3647],[121.8666,39.3697],[121.9134,39.3951],[121.9422,39.4001],[121.9314,39.417],[121.8486,39.3866],[121.7442,39.3984],[121.7082,39.3951],[121.719,39.3714],[121.5246,39.3647],[121.4922,39.3883],[121.4598,39.4744],[121.4202,39.5166],[121.341,39.52],[121.305,39.5014],[121.2726,39.515],[121.2366,39.515],[121.2222,39.5285],[121.305,39.5977],[121.3806,39.6011],[121.449,39.6146],[121.4706,39.6315],[121.4634,39.6467],[121.4994,39.6534],[121.5246,39.618],[121.5318,39.623],[121.539,39.6416],[121.5246,39.6534],[121.5498,39.6787],[121.539,39.6923],[121.5174,39.6872],[121.5066,39.6939],[121.4922,39.721],[121.4562,39.748],[121.485,39.7632],[121.4886,39.7784],[121.4778,39.7868],[121.4706,39.8105],[121.5102,39.824],[121.5354,39.8611],[121.5678,39.8594],[121.6146,39.8712],[121.6362,39.8966],[121.6866,39.9219],[121.7082,39.927],[121.773,39.9202],[121.8054,39.9489],[121.809,39.9658],[121.8378,39.9709],[121.8738,39.9911],[121.881,39.9979],[121.8738,40.0165],[121.827,40.0232],[121.881,40.0418],[121.9278,40.0772],[121.9314,40.1009],[121.9962,40.1245],[122.007,40.1566],[121.9926,40.187],[122.0394,40.1971],[122.0934,40.2275],[122.1078,40.263],[122.1078,40.3103],[122.1798,40.3525],[122.2122,40.3812],[122.205,40.4268],[122.2518,40.4302],[122.2518,40.4538],[122.2878,40.4724],[122.2878,40.4893],[122.3022,40.5028],[122.295,40.523],[122.2266,40.5788],[122.1762,40.5872],[122.151,40.6041],[122.1366,40.6243],[122.169,40.6531],[122.169,40.6868],[122.1582,40.702],[122.1222,40.6801],[122.0682,40.7358],[121.8702,40.8152],[121.8522,40.832],[121.8414,40.9131],[121.827,40.9334],[121.827,40.9486],[121.8594,40.9671],[121.8738,40.9891],[121.8666,40.9958],[121.7766,40.935],[121.7802,40.908],[121.7406,40.8489],[121.575,40.8422],[121.5102,40.8793],[121.449,40.8861],[121.431,40.9131],[121.3626,40.9401],[121.2978,40.8996],[121.2726,40.903],[121.2582,40.9199],[121.2438,40.9063],[121.2258,40.9266],[121.2006,40.93],[121.1754,40.9215],[121.107,40.8726],[121.0782,40.8624],[121.0818,40.8287],[121.0674,40.8185],[121.0674,40.8033],[121.0494,40.7966],[121.0314,40.827],[121.0062,40.8337],[120.9702,40.8185],[120.963,40.8067],[120.9702,40.7831],[120.945,40.7662],[120.9378,40.7409],[120.9954,40.7358],[121.0206,40.7189],[120.963,40.7088],[120.9414,40.6919],[120.8694,40.6784],[120.8478,40.6834],[120.8262,40.6733],[120.8082,40.6176],[120.7902,40.5923],[120.7686,40.5855],[120.6786,40.5213],[120.6606,40.4842],[120.603,40.4656],[120.5958,40.4217],[120.5454,40.4031],[120.5382,40.3829],[120.549,40.3761],[120.5886,40.3846],[120.5922,40.3677],[120.5022,40.3272],[120.5058,40.2495],[120.4734,40.214],[120.4374,40.1938],[120.3582,40.1921],[120.3078,40.1803],[120.261,40.1465],[120.117,40.0992],[119.9514,40.057],[119.9154,40.0367],[119.9118,39.9979],[119.8758,39.9945],[119.811,39.9726],[119.775,39.9506],[119.7498,39.9523],[119.7066,39.9354],[119.6598,39.932],[119.6202,39.9118],[119.5338,39.8915],[119.5194,39.8577],[119.5302,39.8155],[119.5,39.8141],[119.5,42.2],[122,43.4]]],[[[125.0203,38.5153],[124.995,38.5356],[124.9986,38.566],[124.9806,38.5845],[124.9842,38.5913],[124.9986,38.593],[125.0167,38.5829],[125.0383,38.5913],[125.0599,38.5677],[125.1031,38.593],[125.1283,38.5795],[125.1355,38.5913],[125.1355,38.6251],[125.1175,38.6453],[125.1247,38.6656],[125.1391,38.6622],[125.1571,38.6318],[125.1787,38.6352],[125.1787,38.6707],[125.2039,38.6521],[125.2687,38.6707],[125.3011,38.6572],[125.3443,38.6876],[125.3983,38.6943],[125.4415,38.6859],[125.4523,38.7044],[125.4631,38.7078],[125.5063,38.6859],[125.5207,38.6521],[125.5315,38.6538],[125.5459,38.6791],[125.5567,38.6774],[125.5849,38.6426],[125.0117,38.4898],[125.0203,38.5153]]],[[[124.851,39.5166],[124.8582,39.5285],[124.8438,39.5437],[124.8582,39.5437],[124.8546,39.5741],[124.869,39.5808],[124.869,39.596],[124.8834,39.6044],[124.8798,39.6129],[124.9266,39.6044],[124.9086,39.5943],[124.9338,39.5504],[124.8834,39.5268],[124.8618,39.5082],[124.8186,39.4947],[124.8366,39.5217],[124.851,39.5166]]],[[[124.8834,38.5288],[124.905,38.4951],[124.8402,38.5103],[124.8222,38.5221],[124.8006,38.5086],[124.7898,38.517],[124.7934,38.5339],[124.8438,38.5558],[124.8834,38.5288]]],[[[124.6926,39.5352],[124.7034,39.5369],[124.707,39.5302],[124.6962,39.5031],[124.6854,39.5031],[124.6818,39.5217],[124.6926,39.5352]]],[[[124.6746,39.5707],[124.6998,39.5622],[124.6746,39.5386],[124.6458,39.547],[124.5954,39.5386],[124.6314,39.5656],[124.6746,39.5707]]],[[[124.5918,39.4474],[124.6134,39.4575],[124.6206,39.4322],[124.6026,39.4271],[124.5918,39.4474]]],[[[124.2426,39.802],[124.2246,39.7919],[124.2102,39.7953],[124.221,39.8189],[124.2354,39.8172],[124.2426,39.802]]],[[[123.1662,39.0658],[123.1446,39.081],[123.1806,39.0911],[123.195,39.0523],[123.159,39.0286],[123.1446,39.0438],[123.1518,39.0624],[123.1662,39.0658]]],[[[123.0186,39.5437],[123.0402,39.5302],[123.0294,39.5082],[123.0042,39.4981],[122.979,39.4998],[122.9646,39.515],[122.9682,39.5403],[122.9898,39.5487],[123.0186,39.5437]]],[[[122.637,39.2279],[122.637,39.2346],[122.7198,39.2414],[122.7414,39.2363],[122.727,39.2093],[122.691,39.1941],[122.6982,39.2211],[122.637,39.2279]]],[[[122.6442,39.2549],[122.5866,39.2583],[122.5326,39.2718],[122.5038,39.2971],[122.5362,39.2988],[122.583,39.2836],[122.6442,39.2786],[122.6838,39.2617],[122.6442,39.2549]]],[[[122.3778,39.1604],[122.3346,39.1468],[122.3202,39.1654],[122.3562,39.1958],[122.403,39.2144],[122.3886,39.1941],[122.403,39.1587],[122.3886,39.1519],[122.3778,39.1604]]],[[[121.4202,39.3731],[121.4022,39.3714],[121.3374,39.3782],[121.3554,39.4069],[121.3806,39.4255],[121.377,39.4423],[121.3626,39.4457],[121.341,39.4407],[121.2978,39.3917],[121.2654,39.3866],[121.2582,39.3917],[121.2582,39.412],[121.2654,39.4339],[121.3122,39.4474],[121.341,39.4812],[121.413,39.4761],[121.4418,39.4626],[121.449,39.4508],[121.4418,39.4407],[121.4166,39.4407],[121.4346,39.417],[121.4346,39.3866],[121.4202,39.3731]]]]}},{"type":"Feature","properties":{"id":"cul-dolmen-tak","layer":"hypothesis","nameEn":"Table-type dolmen area (schematic)","nameKo":"탁자식(북방식) 고인돌 밀집권(개략)","category":"선사·문화권","role":"korean","startYear":-1500,"endYear":-300,"confidence":"low","license":"original (authored)","wikipedia":null,"wikidata":null,"sources":["KOWIKI_GOJOSEON","GK"],"uiDefault":true,"label":[125.972,39.45],"note":"탁자식 고인돌은 요동~서북한 지역에 집중된다는 통설을 도식화. 실제 분포는 유적 단위 데이터로 교체 필요.","source":"korea"},"geometry":{"type":"MultiPolygon","coordinates":[[[[123.6,41.2],[124.4,40.6],[126.6,39.8],[126.6,37.8],[126.5413,37.7947],[126.4351,37.8483],[126.3991,37.8922],[126.2587,37.845],[126.1795,37.8399],[126.1471,37.8196],[126.1651,37.7605],[126.1058,37.7551],[126.0859,37.801],[126.0643,37.8027],[126.0571,37.8703],[126.0247,37.8534],[126.0139,37.8551],[125.9995,37.8855],[125.9599,37.9125],[125.9455,37.9024],[125.9491,37.8889],[125.9743,37.8737],[125.9851,37.823],[125.9563,37.8399],[125.9203,37.845],[125.8951,37.8652],[125.8339,37.9429],[125.8051,37.9513],[125.8051,37.9885],[125.7979,37.9935],[125.5963,38.0324],[125.5783,38.0256],[125.5783,38.0087],[125.5963,37.9919],[125.6395,37.9733],[125.6755,37.9783],[125.6863,37.9716],[125.6791,37.953],[125.7007,37.9581],[125.7187,37.953],[125.6971,37.926],[125.7331,37.9328],[125.7403,37.926],[125.7151,37.9074],[125.6863,37.899],[125.6683,37.899],[125.6323,37.926],[125.6287,37.9024],[125.6395,37.8568],[125.6215,37.8365],[125.6431,37.823],[125.6395,37.8129],[125.6107,37.8061],[125.6215,37.7656],[125.5927,37.7639],[125.5747,37.774],[125.5819,37.7825],[125.5711,37.7875],[125.5531,37.7825],[125.5495,37.7707],[125.5279,37.7723],[125.5207,37.7808],[125.5279,37.796],[125.5027,37.7791],[125.4739,37.7318],[125.4379,37.72],[125.3839,37.7166],[125.3692,37.6881],[125.3352,37.685],[125.3479,37.7386],[125.3623,37.7605],[125.3911,37.7538],[125.4451,37.774],[125.3767,37.7825],[125.3911,37.796],[125.4343,37.8196],[125.4559,37.823],[125.5063,37.8129],[125.5243,37.8179],[125.5279,37.8433],[125.4991,37.8399],[125.4775,37.8568],[125.5099,37.8838],[125.5099,37.8939],[125.4631,37.9041],[125.4451,37.9209],[125.4235,37.9125],[125.4307,37.899],[125.3839,37.8922],[125.4451,37.8601],[125.4451,37.8433],[125.3983,37.8652],[125.3479,37.8652],[125.3767,37.8433],[125.3083,37.8095],[125.3011,37.823],[125.2399,37.823],[125.2507,37.8382],[125.2939,37.8601],[125.3083,37.8787],[125.3011,37.8956],[125.2579,37.9142],[125.2615,37.9328],[125.2399,37.9294],[125.2075,37.8804],[125.1751,37.8669],[125.0995,37.8753],[125.0635,37.8956],[125.0131,37.9057],[125.0059,37.9192],[125.0131,37.9395],[124.9806,37.926],[124.9914,37.953],[125.0383,37.9632],[125.0635,37.9783],[125.1355,37.9598],[125.1643,37.9632],[125.1859,37.98],[125.1787,37.9885],[125.1571,37.98],[125.1427,37.9834],[125.1139,38.002],[125.1067,38.0341],[125.1175,38.0425],[125.2003,38.0493],[125.2147,38.0459],[125.2255,38.0223],[125.2471,38.0206],[125.2543,38.0543],[125.2723,38.0628],[125.2651,38.078],[125.1391,38.0982],[125.0131,38.0628],[124.9374,38.0982],[124.887,38.132],[124.8762,38.1134],[124.8402,38.1016],[124.7934,38.0982],[124.6782,38.1151],[124.6674,38.1253],[124.6746,38.1371],[124.7646,38.1556],[124.7718,38.1759],[124.8222,38.186],[124.8546,38.2266],[124.8798,38.2299],[124.9194,38.1894],[124.9914,38.2266],[124.9662,38.235],[124.9158,38.2283],[124.8726,38.257],[124.869,38.2823],[124.8798,38.3448],[124.9482,38.4512],[124.9734,38.463],[124.9734,38.441],[125.0167,38.4984],[125.0203,38.5153],[124.995,38.5356],[124.9986,38.566],[124.9806,38.5845],[124.9842,38.5913],[124.9986,38.593],[125.0167,38.5829],[125.0383,38.5913],[125.0599,38.5677],[125.1031,38.593],[125.1283,38.5795],[125.1355,38.5913],[125.1355,38.6251],[125.1175,38.6453],[125.1247,38.6656],[125.1391,38.6622],[125.1571,38.6318],[125.1787,38.6352],[125.1787,38.6707],[125.2039,38.6521],[125.2687,38.6707],[125.3011,38.6572],[125.3443,38.6876],[125.3983,38.6943],[125.4415,38.6859],[125.4523,38.7044],[125.4631,38.7078],[125.5063,38.6859],[125.5207,38.6521],[125.5315,38.6538],[125.5459,38.6791],[125.5567,38.6774],[125.5855,38.642],[125.6395,38.6268],[125.6575,38.6318],[125.6323,38.6588],[125.5891,38.6656],[125.5279,38.7213],[125.4775,38.7281],[125.4487,38.777],[125.4379,38.7754],[125.4235,38.7551],[125.4127,38.7551],[125.4343,38.7365],[125.4199,38.7298],[125.3875,38.7179],[125.3551,38.7348],[125.3515,38.7213],[125.3407,38.7179],[125.3155,38.7213],[125.3011,38.7348],[125.2975,38.7213],[125.3083,38.7078],[125.2795,38.7027],[125.2615,38.7078],[125.2435,38.7281],[125.2687,38.7551],[125.2543,38.7618],[125.2543,38.7838],[125.2399,38.7939],[125.2255,38.7956],[125.2291,38.772],[125.2183,38.7399],[125.1895,38.7382],[125.1715,38.7635],[125.1463,38.777],[125.1355,38.8041],[125.1535,38.8919],[125.1715,38.9391],[125.2003,38.9746],[125.2003,38.9864],[125.2723,39.081],[125.3335,39.0827],[125.2831,39.0894],[125.2939,39.1435],[125.2867,39.1519],[125.3083,39.1654],[125.3443,39.1688],[125.3299,39.1941],[125.3443,39.2127],[125.3659,39.2211],[125.4127,39.2144],[125.3947,39.2465],[125.4307,39.3005],[125.4451,39.3106],[125.4163,39.3208],[125.4127,39.3343],[125.4199,39.3512],[125.4055,39.3647],[125.4235,39.3579],[125.4451,39.3664],[125.4595,39.3849],[125.3587,39.3984],[125.3587,39.4136],[125.3839,39.4407],[125.3443,39.4339],[125.3443,39.4592],[125.3983,39.5014],[125.4127,39.5386],[125.4415,39.547],[125.4523,39.5707],[125.4451,39.5842],[125.2867,39.5217],[125.2363,39.5622],[125.2111,39.5724],[125.2255,39.5909],[125.1571,39.5909],[125.1715,39.5639],[125.1175,39.5656],[125.0959,39.6028],[125.0383,39.6078],[125.0095,39.6348],[124.9878,39.6382],[124.959,39.6619],[124.9482,39.6635],[124.9374,39.6467],[124.9014,39.6619],[124.8942,39.6923],[124.8798,39.7041],[124.833,39.726],[124.8114,39.7277],[124.8006,39.7395],[124.7718,39.7412],[124.761,39.748],[124.7466,39.7834],[124.7394,39.7615],[124.7538,39.7345],[124.743,39.6906],[124.7574,39.6872],[124.7538,39.672],[124.7286,39.6652],[124.743,39.645],[124.7178,39.6467],[124.6962,39.6382],[124.6494,39.6129],[124.6386,39.5909],[124.6242,39.5977],[124.6278,39.6112],[124.6098,39.6281],[124.6278,39.645],[124.6314,39.6635],[124.6458,39.6703],[124.6458,39.6973],[124.6242,39.6939],[124.6098,39.7142],[124.5846,39.7243],[124.5882,39.7666],[124.5666,39.7784],[124.563,39.8138],[124.4334,39.8307],[124.419,39.824],[124.4046,39.8408],[124.3974,39.8662],[124.3614,39.8712],[124.3506,39.8932],[124.3218,39.9135],[124.3686,39.9405],[124.383,40.003],[124.4046,40.0283],[124.4658,40.0148],[124.4982,40.0232],[124.4118,40.0367],[124.3902,40.0485],[124.3686,40.0975],[124.3578,40.0891],[124.3614,40.0114],[124.3074,39.9607],[124.3002,39.9405],[124.1166,39.8324],[124.0878,39.8527],[124.041,39.824],[123.987,39.8105],[123.9438,39.8408],[123.9114,39.824],[123.8862,39.8223],[123.807,39.8375],[123.7746,39.8189],[123.7206,39.8307],[123.6414,39.878],[123.6558,39.9202],[123.6306,39.9033],[123.591,39.7851],[123.5622,39.7699],[123.5334,39.7969],[123.5118,39.7986],[123.4938,39.7902],[123.429,39.726],[123.411,39.7345],[123.4074,39.7463],[123.4182,39.824],[123.3966,39.8189],[123.4038,39.8105],[123.3858,39.7902],[123.3138,39.7767],[123.2742,39.8105],[123.2634,39.7969],[123.2562,39.8003],[123.2526,39.8172],[123.2346,39.802],[123.2634,39.7682],[123.267,39.7547],[123.2581,39.7514],[122.0008,40.1382],[122.007,40.1566],[121.9926,40.187],[122.0394,40.1971],[122.0934,40.2275],[122.1078,40.263],[122.1078,40.3103],[122.1798,40.3525],[122.2122,40.3812],[122.205,40.4268],[122.2518,40.4302],[122.2518,40.4538],[122.2878,40.4724],[122.2878,40.4893],[122.3022,40.5028],[122.277,40.5433],[122.2266,40.5788],[122.1762,40.5872],[122.151,40.6041],[122.1366,40.6243],[122.169,40.6531],[122.169,40.6868],[122.1582,40.702],[122.1222,40.6801],[122.0682,40.7358],[121.8702,40.8152],[121.8522,40.832],[121.8414,40.9131],[121.827,40.9334],[121.827,40.9486],[121.8594,40.9671],[121.8738,40.9891],[121.8666,40.9958],[121.8,40.9533],[121.8,41.2],[123.6,41.2]]],[[[126.3739,37.796],[126.4063,37.8213],[126.4243,37.8247],[126.4763,37.7888],[126.3703,37.7791],[126.3739,37.796]]],[[[126.2209,37.7655],[126.2191,37.7707],[126.2335,37.8027],[126.2479,37.8112],[126.2623,37.8146],[126.2947,37.8027],[126.3343,37.801],[126.3415,37.7926],[126.335,37.7759],[126.2209,37.7655]]],[[[125.2759,37.7335],[125.2795,37.7487],[125.3371,37.769],[125.2975,37.7284],[125.2471,37.6997],[125.2255,37.6964],[125.2219,37.7031],[125.2651,37.7369],[125.2759,37.7335]]],[[[125.1571,37.7859],[125.1463,37.7859],[125.1463,37.8027],[125.1895,37.8196],[125.1931,37.8112],[125.1571,37.7859]]],[[[125.0275,37.8196],[125.0311,37.8365],[125.0419,37.8348],[125.0419,37.8179],[125.0239,37.8078],[125.0059,37.8061],[124.9986,37.8129],[125.0275,37.8196]]],[[[124.851,39.5166],[124.8582,39.5285],[124.8438,39.5437],[124.8582,39.5437],[124.8546,39.5741],[124.869,39.5808],[124.869,39.596],[124.8834,39.6044],[124.8798,39.6129],[124.9266,39.6044],[124.9086,39.5943],[124.9338,39.5504],[124.8834,39.5268],[124.8618,39.5082],[124.8186,39.4947],[124.8366,39.5217],[124.851,39.5166]]],[[[124.8834,38.5288],[124.905,38.4951],[124.8402,38.5103],[124.8222,38.5221],[124.8006,38.5086],[124.7898,38.517],[124.7934,38.5339],[124.8438,38.5558],[124.8834,38.5288]]],[[[124.6854,37.9192],[124.6458,37.9243],[124.6134,37.9446],[124.6242,37.98],[124.6494,37.9733],[124.7034,37.9885],[124.7322,37.98],[124.743,37.9699],[124.743,37.9547],[124.7286,37.9463],[124.707,37.9564],[124.6782,37.953],[124.6782,37.9412],[124.707,37.9328],[124.6854,37.9192]]],[[[124.6746,37.8162],[124.6782,37.8247],[124.7106,37.8483],[124.725,37.8433],[124.7142,37.8095],[124.6854,37.7994],[124.6746,37.8162]]],[[[124.6926,39.5352],[124.7034,39.5369],[124.707,39.5302],[124.6962,39.5031],[124.6854,39.5031],[124.6818,39.5217],[124.6926,39.5352]]],[[[124.6746,39.5707],[124.6998,39.5622],[124.6746,39.5386],[124.6458,39.547],[124.5954,39.5386],[124.6314,39.5656],[124.6746,39.5707]]],[[[124.5918,39.4474],[124.6134,39.4575],[124.6206,39.4322],[124.6026,39.4271],[124.5918,39.4474]]],[[[124.2426,39.802],[124.2246,39.7919],[124.2102,39.7953],[124.221,39.8189],[124.2354,39.8172],[124.2426,39.802]]]]}},{"type":"Feature","properties":{"id":"asa-pyeongyang","layer":"site","nameEn":"Asadal candidate: Pyongyang","nameKo":"아사달 후보: 평양","category":"도읍·중심지(전승)","role":"korean","startYear":-2333,"endYear":-1000,"confidence":"low","license":"original (authored)","wikipedia":null,"wikidata":null,"sources":["KOWIKI_GOJOSEON","GK"],"uiDefault":false,"label":null,"note":"평양설(왕검성=평양이라는 견해가 지배적이라고 정리됨; 북한은 단군릉 주장). 표시 구간(-2333~-1000)은 화면용 임의 구간이며 실제 존속 기간 주장이 아님.","source":"korea"},"geometry":{"type":"Point","coordinates":[125.75,39.02]}},{"type":"Feature","properties":{"id":"asa-liaoyang","layer":"site","nameEn":"Asadal candidate: Liaodong","nameKo":"아사달 후보: 요동(요양 일대)","category":"도읍·중심지(전승)","role":"korean","startYear":-2333,"endYear":-1000,"confidence":"speculative","license":"original (authored)","wikipedia":null,"wikidata":null,"sources":["KOWIKI_GOJOSEON","GK"],"uiDefault":false,"label":null,"note":"요동 중심설 계열의 후보(왕검성 요령설은 소수설). 표시 구간(-2333~-1000)은 화면용 임의 구간이며 실제 존속 기간 주장이 아님.","source":"korea"},"geometry":{"type":"Point","coordinates":[123.17,41.27]}},{"type":"Feature","properties":{"id":"asa-guwol","layer":"site","nameEn":"Asadal candidate: Mt. Guwol","nameKo":"아사달 후보: 구월산(황해)","category":"도읍·중심지(전승)","role":"korean","startYear":-2333,"endYear":-1000,"confidence":"speculative","license":"original (authored)","wikipedia":null,"wikidata":null,"sources":["KOWIKI_GOJOSEON","GK"],"uiDefault":false,"label":null,"note":"조선 시대 지리서 전승에서 아사달로 비정하던 산으로 알려짐(작성자 일반 지식, 재검증 필요). 표시 구간(-2333~-1000)은 화면용 임의 구간이며 실제 존속 기간 주장이 아님.","source":"korea"},"geometry":{"type":"Point","coordinates":[125.28,38.55]}},{"type":"Feature","properties":{"id":"gj-h1","layer":"hypothesis","nameEn":"Gojoseon – Liaodong-centered","nameKo":"고조선 – 요동중심설","category":"고조선(학설)","role":"korean","startYear":-2333,"endYear":-108,"confidence":"low","license":"original (authored)","wikipedia":null,"wikidata":null,"sources":["KOWIKI_GOJOSEON"],"uiDefault":true,"label":[123.651,40.893],"note":"중심지를 랴오닝(요동)에 두는 견해. 북한도 1970년대 이전에는 랴오닝성설을 취했다고 정리됨. 연대는 전승(기원전 2333)~한 무제 멸망(기원전 108)을 화면용으로 씀.","source":"korea"},"geometry":{"type":"MultiPolygon","coordinates":[[[[121.3194,39.4542],[121.3302,39.4761],[121.3518,39.4829],[121.4238,39.4744],[121.449,39.4508],[121.4418,39.4407],[121.4166,39.4407],[121.4346,39.417],[121.4346,39.3866],[121.4202,39.3731],[121.4022,39.3714],[121.3374,39.3782],[121.3554,39.4069],[121.3806,39.4255],[121.377,39.4423],[121.341,39.4407],[121.3,39.3943],[121.3,39.4454],[121.3194,39.4542]]],[[[121.3266,39.6028],[121.3806,39.6011],[121.449,39.6146],[121.4706,39.6315],[121.4634,39.6467],[121.4994,39.6534],[121.5246,39.618],[121.5318,39.623],[121.539,39.6416],[121.5246,39.6534],[121.5498,39.6787],[121.539,39.6923],[121.5174,39.6872],[121.5066,39.6939],[121.4922,39.721],[121.4562,39.748],[121.485,39.7632],[121.4886,39.7784],[121.4778,39.7868],[121.4706,39.8105],[121.5102,39.824],[121.5354,39.8611],[121.5678,39.8594],[121.6146,39.8712],[121.6362,39.8966],[121.6866,39.9219],[121.7082,39.927],[121.773,39.9202],[121.8054,39.9489],[121.809,39.9658],[121.8378,39.9709],[121.8738,39.9911],[121.881,39.9979],[121.8738,40.0165],[121.827,40.0232],[121.881,40.0418],[121.9278,40.0772],[121.9314,40.1009],[121.9962,40.1245],[122.007,40.1566],[121.9926,40.187],[122.0394,40.1971],[122.0934,40.2275],[122.1078,40.263],[122.1078,40.3103],[122.1798,40.3525],[122.2122,40.3812],[122.205,40.4268],[122.2518,40.4302],[122.2518,40.4538],[122.2878,40.4724],[122.2878,40.4893],[122.3022,40.5028],[122.277,40.5433],[122.2266,40.5788],[122.1762,40.5872],[122.151,40.6041],[122.1366,40.6243],[122.169,40.6531],[122.169,40.6868],[122.1582,40.702],[122.1222,40.6801],[122.0682,40.7358],[121.8702,40.8152],[121.8522,40.832],[121.8414,40.9131],[121.827,40.9334],[121.827,40.9486],[121.8594,40.9671],[121.8738,40.9891],[121.8666,40.9958],[121.7766,40.935],[121.7802,40.908],[121.7406,40.8489],[121.575,40.8422],[121.5102,40.8793],[121.449,40.8861],[121.431,40.9131],[121.3626,40.9401],[121.3,40.9008],[121.3,42.5],[123.5,42.8],[125.3,42],[125.5,40.6],[124.6,39.8],[124.5649,39.7825],[124.5666,39.8071],[124.5558,39.8172],[124.4334,39.8307],[124.419,39.824],[124.4046,39.8408],[124.3974,39.8662],[124.3614,39.8712],[124.3506,39.8932],[124.3218,39.9135],[124.3686,39.9405],[124.383,40.003],[124.4046,40.0283],[124.4658,40.0148],[124.4982,40.0232],[124.4118,40.0367],[124.3902,40.0485],[124.3686,40.0975],[124.3578,40.0891],[124.3614,40.0114],[124.3074,39.9607],[124.3002,39.9405],[124.1166,39.8324],[124.0878,39.8527],[124.041,39.824],[123.987,39.8105],[123.9438,39.8408],[123.9114,39.824],[123.8862,39.8223],[123.807,39.8375],[123.7746,39.8189],[123.7206,39.8307],[123.6414,39.878],[123.6558,39.9202],[123.6306,39.9033],[123.591,39.7851],[123.5622,39.7699],[123.5334,39.7969],[123.5118,39.7986],[123.4938,39.7902],[123.429,39.726],[123.411,39.7345],[123.4074,39.7463],[123.4182,39.824],[123.3966,39.8189],[123.4038,39.8105],[123.3858,39.7902],[123.3138,39.7767],[123.2742,39.8105],[123.2634,39.7969],[123.2562,39.8003],[123.2526,39.8172],[123.2346,39.802],[123.267,39.7547],[123.249,39.748],[123.2094,39.7547],[123.2058,39.7345],[123.2562,39.7243],[123.2706,39.7075],[123.267,39.7007],[123.1734,39.6652],[123.1266,39.6652],[123.1086,39.6906],[123.0582,39.6754],[123.0078,39.6804],[122.9934,39.6652],[122.979,39.6669],[122.979,39.6585],[122.997,39.65],[122.9934,39.6365],[122.9646,39.6112],[122.9466,39.6196],[122.871,39.6061],[122.8494,39.618],[122.781,39.5605],[122.709,39.5352],[122.6874,39.5183],[122.6766,39.515],[122.6478,39.5318],[122.637,39.5082],[122.5866,39.4677],[122.5614,39.4862],[122.5542,39.4812],[122.5614,39.4609],[122.4966,39.4271],[122.4462,39.412],[122.3958,39.4103],[122.385,39.3951],[122.3562,39.3883],[122.3202,39.3613],[122.2914,39.3512],[122.2662,39.3174],[122.2518,39.3241],[122.241,39.2853],[122.115,39.2009],[122.1042,39.1587],[122.1366,39.1587],[122.1618,39.1468],[122.1258,39.1418],[122.0718,39.1046],[122.0466,39.0996],[122.0394,39.0911],[122.0502,39.0675],[122.043,39.059],[121.989,39.0624],[121.9602,39.0405],[121.9422,39.0371],[121.9026,39.0489],[121.8882,39.0422],[121.9134,39.0303],[121.9242,39.0084],[121.881,39.027],[121.827,39.0371],[121.8378,39.0151],[121.873,39],[121.7924,39],[121.773,39.0219],[121.7442,39.0337],[121.7262,39.0303],[121.719,39.0202],[121.737,39.0016],[121.6722,39.0084],[121.6499,39],[121.3309,39],[121.3266,39.0118],[121.3338,39.027],[121.3518,39.0388],[121.395,39.0422],[121.4274,39.0151],[121.467,39.0151],[121.5462,39.0489],[121.6326,39.0692],[121.6758,39.0877],[121.6902,39.1181],[121.6794,39.1367],[121.6506,39.1587],[121.6434,39.1755],[121.6074,39.1806],[121.593,39.1924],[121.6074,39.2009],[121.6002,39.2211],[121.6254,39.2245],[121.6326,39.2363],[121.5894,39.2634],[121.611,39.2752],[121.6578,39.2667],[121.719,39.2971],[121.737,39.3123],[121.7298,39.3309],[121.7802,39.3714],[121.8378,39.3647],[121.8666,39.3697],[121.9134,39.3951],[121.9422,39.4001],[121.9314,39.417],[121.8486,39.3866],[121.7442,39.3984],[121.7082,39.3951],[121.719,39.3714],[121.5246,39.3647],[121.4922,39.3883],[121.4598,39.4744],[121.4346,39.5082],[121.4202,39.5166],[121.3554,39.5217],[121.3,39.5038],[121.3,39.5936],[121.3266,39.6028]]],[[[123.177,39.0894],[123.1811,39.0905],[123.1725,39.0863],[123.177,39.0894]]],[[[123.1446,39.081],[123.1683,39.0842],[123.1495,39.0748],[123.1446,39.081]]],[[[124.2426,39.802],[124.2246,39.7919],[124.2102,39.7953],[124.221,39.8189],[124.2354,39.8172],[124.2426,39.802]]],[[[123.0186,39.5437],[123.0402,39.5302],[123.0294,39.5082],[123.0042,39.4981],[122.979,39.4998],[122.9646,39.515],[122.9682,39.5403],[122.9898,39.5487],[123.0186,39.5437]]],[[[122.637,39.2279],[122.637,39.2346],[122.7198,39.2414],[122.7414,39.2363],[122.727,39.2093],[122.691,39.1941],[122.6982,39.2211],[122.637,39.2279]]],[[[122.6442,39.2549],[122.5866,39.2583],[122.5326,39.2718],[122.5038,39.2971],[122.5362,39.2988],[122.583,39.2836],[122.6442,39.2786],[122.6838,39.2617],[122.6442,39.2549]]],[[[122.3778,39.1604],[122.3346,39.1468],[122.3202,39.1654],[122.3562,39.1958],[122.403,39.2144],[122.3886,39.1941],[122.403,39.1587],[122.3886,39.1519],[122.3778,39.1604]]]]}},{"type":"Feature","properties":{"id":"gj-h2","layer":"hypothesis","nameEn":"Gojoseon – Pyongyang/Taedong-centered","nameKo":"고조선 – 평양(대동강)중심설","category":"고조선(학설)","role":"korean","startYear":-2333,"endYear":-108,"confidence":"low","license":"original (authored)","wikipedia":null,"wikidata":null,"sources":["KOWIKI_GOJOSEON"],"uiDefault":true,"label":[126.181,39.034],"note":"고조선의 도읍을 처음부터 평양 일대로 보는 견해. 북한은 주체사상 강화 이후 이 입장으로 바뀌었고 정치적 영향이 크다는 비판이 있다고 정리됨.","source":"korea"},"geometry":{"type":"MultiPolygon","coordinates":[[[[127.2,39.2],[126.8,38.3],[125.5,38.1],[124.945,38.2009],[124.9914,38.2266],[124.9662,38.235],[124.9158,38.2283],[124.8726,38.257],[124.869,38.2823],[124.8834,38.3549],[124.9266,38.4089],[124.9482,38.4512],[124.9734,38.463],[124.9734,38.441],[125.0167,38.4984],[125.0203,38.5153],[124.995,38.5356],[124.9986,38.566],[124.9806,38.5845],[124.9842,38.5913],[124.9986,38.593],[125.0167,38.5829],[125.0383,38.5913],[125.0599,38.5677],[125.1031,38.593],[125.1283,38.5795],[125.1355,38.5913],[125.1355,38.6251],[125.1175,38.6453],[125.1247,38.6656],[125.1391,38.6622],[125.1571,38.6318],[125.1787,38.6352],[125.1787,38.6707],[125.2039,38.6521],[125.2687,38.6707],[125.3011,38.6572],[125.3443,38.6876],[125.3983,38.6943],[125.4415,38.6859],[125.4523,38.7044],[125.4631,38.7078],[125.5063,38.6859],[125.5207,38.6521],[125.5315,38.6538],[125.5459,38.6791],[125.5567,38.6774],[125.5855,38.642],[125.6395,38.6268],[125.6575,38.6318],[125.6323,38.6588],[125.5891,38.6656],[125.5279,38.7213],[125.4775,38.7281],[125.4487,38.777],[125.4379,38.7754],[125.4235,38.7551],[125.4127,38.7551],[125.4343,38.7365],[125.4199,38.7298],[125.3875,38.7179],[125.3551,38.7348],[125.3515,38.7213],[125.3407,38.7179],[125.3155,38.7213],[125.3011,38.7348],[125.2975,38.7213],[125.3083,38.7078],[125.2795,38.7027],[125.2615,38.7078],[125.2435,38.7281],[125.2687,38.7551],[125.2543,38.7618],[125.2543,38.7838],[125.2399,38.7939],[125.2255,38.7956],[125.2291,38.772],[125.2183,38.7399],[125.1895,38.7382],[125.1715,38.7635],[125.1463,38.777],[125.1355,38.8041],[125.1535,38.8919],[125.1715,38.9391],[125.2003,38.9746],[125.2003,38.9864],[125.2723,39.081],[125.3335,39.0827],[125.2831,39.0894],[125.2939,39.1435],[125.2867,39.1519],[125.3083,39.1654],[125.3443,39.1688],[125.3299,39.1941],[125.3443,39.2127],[125.3659,39.2211],[125.4127,39.2144],[125.3947,39.2465],[125.4307,39.3005],[125.4451,39.3106],[125.4163,39.3208],[125.4127,39.3343],[125.4199,39.3512],[125.4055,39.3647],[125.4235,39.3579],[125.4451,39.3664],[125.4595,39.3849],[125.3587,39.3984],[125.3587,39.4136],[125.3839,39.4407],[125.3443,39.4339],[125.3443,39.4592],[125.3983,39.5014],[125.4127,39.5386],[125.4415,39.547],[125.4523,39.5707],[125.4451,39.5842],[125.2867,39.5217],[125.2363,39.5622],[125.2111,39.5724],[125.2255,39.5909],[125.1571,39.5909],[125.1715,39.5639],[125.1175,39.5656],[125.0959,39.6028],[125.0383,39.6078],[125.0095,39.6348],[124.9878,39.6382],[124.959,39.6619],[124.9482,39.6635],[124.9374,39.6467],[124.9014,39.6619],[124.8942,39.6923],[124.8798,39.7041],[124.833,39.726],[124.8114,39.7277],[124.8006,39.7395],[124.7718,39.7412],[124.761,39.748],[124.7466,39.7834],[124.7394,39.7615],[124.7538,39.7345],[124.743,39.6906],[124.7574,39.6872],[124.7538,39.672],[124.7286,39.6652],[124.743,39.645],[124.7178,39.6467],[124.6962,39.6382],[124.6494,39.6129],[124.6386,39.5909],[124.6242,39.5977],[124.6278,39.6112],[124.6098,39.6281],[124.6278,39.645],[124.6314,39.6635],[124.6458,39.6703],[124.6458,39.6973],[124.6242,39.6939],[124.6098,39.7142],[124.5846,39.7243],[124.5882,39.7666],[124.5666,39.7784],[124.5666,39.8071],[124.5587,39.8159],[126.4,40],[127.2,39.2]]],[[[124.8798,38.2299],[124.9047,38.2082],[124.8451,38.2191],[124.8798,38.2299]]],[[[124.851,39.5166],[124.8582,39.5285],[124.8438,39.5437],[124.8582,39.5437],[124.8546,39.5741],[124.869,39.5808],[124.869,39.596],[124.8834,39.6044],[124.8798,39.6129],[124.9266,39.6044],[124.9086,39.5943],[124.9338,39.5504],[124.8834,39.5268],[124.8618,39.5082],[124.8186,39.4947],[124.8366,39.5217],[124.851,39.5166]]],[[[124.8834,38.5288],[124.905,38.4951],[124.8402,38.5103],[124.8222,38.5221],[124.8006,38.5086],[124.7898,38.517],[124.7934,38.5339],[124.8438,38.5558],[124.8834,38.5288]]],[[[124.6926,39.5352],[124.7034,39.5369],[124.707,39.5302],[124.6962,39.5031],[124.6854,39.5031],[124.6818,39.5217],[124.6926,39.5352]]],[[[124.6746,39.5707],[124.6998,39.5622],[124.6746,39.5386],[124.6458,39.547],[124.5954,39.5386],[124.6314,39.5656],[124.6746,39.5707]]],[[[124.5918,39.4474],[124.6134,39.4575],[124.6206,39.4322],[124.6026,39.4271],[124.5918,39.4474]]]]}}]}