{"type":"FeatureCollection","properties":{"year":1000,"source":"korea","fillHint":"layer in polity|polity_prehistory|hypothesis; prefer uiDefault"},"features":[{"type":"Feature","properties":{"id":"clio-tamna-936","layer":"polity","nameEn":"Tamna","nameKo":"탐라","category":"국가(Cliopatria)","role":"korean","startYear":936,"endYear":1278,"confidence":"medium","license":"CC-BY-4.0 (Cliopatria, Seshat) — 단순화·클리핑 등 변경 있음","wikipedia":"Tamna","wikidata":"Q28057","sources":["CLIO"],"uiDefault":true,"label":[126.568,33.393],"note":null,"source":"korea"},"geometry":{"type":"Polygon","coordinates":[[[126.1388,33.2002],[126.3563,33.5217],[126.9988,33.5859],[126.7801,33.2645],[126.7035,33.2645],[126.1388,33.2002]]]}},{"type":"Feature","properties":{"id":"clio-heian-japan-814","layer":"polity","nameEn":"Heian Japan","nameKo":"헤이안 일본","category":"이웃 정치체(맥락)","role":"context","startYear":814,"endYear":1093,"confidence":"context","license":"CC-BY-4.0 (Cliopatria, Seshat) — 단순화·클리핑 등 변경 있음","wikipedia":"Heian period","wikidata":"Q193292","sources":["CLIO"],"uiDefault":false,"label":[130.742,33.779],"note":null,"source":"korea"},"geometry":{"type":"Polygon","coordinates":[[[137,37.0962],[137,34.7436],[136.9363,34.7436],[136.7258,34.9366],[136.5954,34.6793],[136.7942,34.615],[136.9733,34.3577],[136.9093,34.229],[136.4475,34.229],[135.8117,33.3931],[135.4125,33.5217],[135.3511,33.7146],[135.0288,33.8432],[135.1534,34.1004],[135.0168,34.2933],[135.3429,34.4863],[135.4389,34.6793],[134.9125,34.5506],[134.6999,34.7436],[134.4686,34.7436],[133.2463,34.2933],[132.3226,34.2933],[132.1856,33.8432],[131.9085,33.9075],[131.9388,33.9718],[131.0931,33.9718],[131.0971,33.6502],[131.8181,33.7146],[131.6399,33.3288],[132.0885,33.1359],[132.001,32.943],[132.0776,32.943],[131.7807,32.6216],[131.5504,32],[130.1358,32],[130.2089,32.1717],[130.5211,32.3645],[130.5654,32.8145],[130.3736,33.0716],[130.1062,32.8145],[129.8765,32.8145],[129.9333,32.943],[129.6752,32.8788],[129.6841,33.0716],[129.5595,33.1359],[129.5982,33.3931],[129.8283,33.3931],[129.916,33.5859],[130.3293,33.6502],[130.4183,33.8432],[130.8624,33.9718],[130.8761,34.1647],[130.7992,34.1647],[130.9211,34.422],[131.414,34.4863],[131.4759,34.615],[132.5634,35.2584],[132.6925,35.5158],[134.2726,35.5802],[134.4936,35.7089],[135.3788,35.7733],[135.2786,35.5802],[135.7095,35.5158],[136.0758,35.7733],[135.9109,35.902],[136.0039,36.224],[136.4529,36.4816],[136.7063,36.8037],[136.5795,36.9971],[136.6511,37.126],[136.5732,37.126],[136.7178,37.3838],[137,37.467],[137,37.1385],[136.9627,37.126],[137,37.0962]]]}},{"type":"Feature","properties":{"id":"clio-liao-dynasty-936","layer":"polity","nameEn":"Liao Dynasty","nameKo":"요(거란)","category":"이웃 정치체(맥락)","role":"context","startYear":936,"endYear":1039,"confidence":"context","license":"CC-BY-4.0 (Cliopatria, Seshat) — 단순화·클리핑 등 변경 있음","wikipedia":"Liao dynasty","wikidata":"Q4958","sources":["CLIO"],"uiDefault":true,"label":[125.364,43.244],"note":null,"source":"korea"},"geometry":{"type":"MultiPolygon","coordinates":[[[[119.1173,47.5982],[119.4016,47.5323],[119.393,47.4006],[119.5578,47.4006],[119.5495,47.269],[119.8335,47.2032],[119.7883,47.1374],[119.982,46.9401],[119.8923,46.8086],[119.9744,46.8086],[119.8851,46.6772],[120.0046,46.6115],[119.9158,46.4802],[120.073,46.3489],[119.9849,46.2177],[120.1423,46.0865],[120.0547,45.9554],[120.2123,45.8243],[120.1252,45.6933],[120.2067,45.6933],[120.2777,45.4313],[120.4405,45.4313],[120.5499,45.1042],[120.7125,45.1042],[120.7457,44.908],[121.4278,44.7119],[121.3847,44.6466],[121.7089,44.6466],[121.6658,44.5813],[122.8808,44.5813],[122.8749,44.4507],[124.5305,44.3854],[124.4866,44.3201],[125.6189,44.3201],[127.3357,44.5813],[127.4264,44.7119],[127.7051,44.6466],[128.6882,44.7773],[129.4184,45.235],[130.4675,45.5623],[131.9636,45.8243],[132.9424,46.1521],[133.1877,46.1521],[133.1385,46.0865],[133.5305,45.9554],[133.6289,46.0865],[133.9065,46.0209],[135.414,46.2833],[135.6787,46.4145],[137,46.4659],[137,45.3139],[136.7191,45.1042],[136.1484,44.4507],[135.9866,44.4507],[135.2842,43.6027],[134.2218,43.0165],[133.2723,42.6912],[132.9519,42.6912],[132.997,42.7563],[132.5611,42.8213],[132.6062,42.8864],[132.2052,42.8864],[132.271,43.2118],[132.0999,43.0816],[131.7787,43.0816],[131.9147,43.2769],[131.7539,43.2769],[131.2251,42.6262],[130.9048,42.6262],[130.6054,42.3012],[130.3221,42.2362],[129.7823,41.7816],[129.6932,41.522],[129.8822,41.1977],[129.7558,40.8736],[129.2378,40.6792],[129.0777,40.4201],[128.6822,40.2906],[128.368,40.0317],[127.9346,39.967],[127.5833,39.7729],[127.6653,39.6436],[127.4784,39.3203],[126.0566,39.4496],[125.3536,39.3203],[125.39,39.385],[125.3057,39.5143],[124.8697,39.5789],[124.8646,39.7083],[124.5124,39.6436],[124.3446,39.9023],[124.034,39.7729],[123.5974,39.8376],[122.513,39.4496],[122.1704,39.2557],[122.0653,39.0618],[121.7162,38.9972],[121.4217,38.7389],[121.0293,38.7389],[121.2007,39.0618],[121.5151,39.0618],[121.6901,39.385],[121.2965,39.385],[121.2096,39.5143],[121.2807,39.6436],[121.4383,39.6436],[121.5033,39.9023],[121.7765,39.967],[122.2306,40.4849],[122.1061,40.6792],[121.827,40.744],[121.8237,40.8736],[121.1098,40.8736],[120.9967,40.6792],[120.6473,40.4849],[120.5003,40.2259],[119.3804,39.7729],[119.2153,39.3203],[118.4498,39.0618],[118.0569,39.0618],[118.0457,39.1911],[117.8884,39.1911],[117.5764,38.7389],[117,38.6226],[117,48.6673],[117.3831,48.7865],[118.0011,48.7204],[118.0261,48.522],[118.1922,48.522],[118.1816,48.3899],[118.6221,48.1917],[118.6488,47.9938],[118.7316,47.9938],[118.7222,47.8619],[118.8875,47.8619],[118.8416,47.7959],[119.1262,47.73],[119.1173,47.5982]]],[[[121.752,44.7119],[121.8331,44.7119],[121.7899,44.6466],[121.7089,44.6466],[121.752,44.7119]]]]}},{"type":"Feature","properties":{"id":"clio-goryeo-936","layer":"polity","nameEn":"Goryeo","nameKo":"고려","category":"국가(Cliopatria)","role":"korean","startYear":936,"endYear":1138,"confidence":"medium","license":"CC-BY-4.0 (Cliopatria, Seshat) — 단순화·클리핑 등 변경 있음","wikipedia":"Goryeo","wikidata":"Q28208","sources":["CLIO"],"uiDefault":true,"label":[127.829,36.868],"note":null,"source":"korea"},"geometry":{"type":"Polygon","coordinates":[[[129.1002,37.5773],[129.2563,37.5773],[129.4748,37.2549],[129.4069,37.126],[129.5393,36.9326],[129.3964,36.3528],[129.474,36.3528],[129.4214,36.0952],[129.5765,36.0952],[129.6669,35.9664],[129.5387,35.7089],[129.6161,35.7089],[129.1471,35.0653],[128.5294,35.0653],[128.5451,34.9366],[128.8074,35.001],[128.6849,34.7436],[128.3297,34.8079],[128.3136,34.9366],[128.0821,34.9366],[128.0679,34.7436],[127.7595,34.7436],[127.3783,34.422],[127.2243,34.422],[127.1297,34.5506],[127.2968,34.7436],[127.2196,34.7436],[126.9162,34.422],[126.4722,34.2933],[126.4837,34.4863],[126.3476,34.3577],[126.1166,34.3577],[126.4784,34.8079],[126.1998,34.8723],[126.5192,35.7089],[126.7678,35.902],[126.6128,35.902],[126.6757,36.0308],[126.5206,36.0308],[126.4286,36.1596],[126.4516,36.6749],[126.2638,36.6105],[126.0498,36.8037],[126.3032,36.9971],[126.6475,37.0615],[126.7023,37.3193],[126.5352,37.4483],[126.6025,37.5773],[126.2459,37.6417],[126.3477,37.8352],[125.8449,37.7707],[125.8347,37.8998],[125.6783,37.8998],[125.3871,37.6417],[125.231,37.6417],[125.2981,37.7707],[125.2093,37.8998],[124.8967,37.8998],[125.0767,38.0933],[124.7637,38.0933],[124.8664,38.2869],[124.7881,38.2869],[124.9614,38.6097],[125.1533,38.6743],[125.1885,38.7389],[125.0316,38.7389],[125.3536,39.3203],[126.0566,39.4496],[127.4784,39.3203],[127.4414,39.2557],[127.7978,39.1911],[127.9234,38.9972],[128.2432,38.868],[128.2068,38.8034],[128.3638,38.8034],[129.1002,37.5773]]]}},{"type":"Feature","properties":{"id":"cap-gaegyeong","layer":"site","nameEn":"Gaegyeong (Kaesong)","nameKo":"개경(개성)","category":"도읍","role":"korean","startYear":919,"endYear":1392,"confidence":"high","license":"original (authored)","wikipedia":null,"wikidata":null,"sources":["KOWIKI_GORYEO"],"uiDefault":false,"label":null,"note":"고려 도읍. 몽골 항쟁기 강화도 천도(1232~1270)가 별도로 있음.","source":"korea"},"geometry":{"type":"Point","coordinates":[126.55,37.97]}},{"type":"Feature","properties":{"id":"stele-bukhansan","layer":"site","nameEn":"Bukhansan Monument (Jinheung)","nameKo":"북한산 순수비","category":"영역 증거(순수비)","role":"korean","startYear":555,"endYear":2026,"confidence":"medium","license":"original (authored)","wikipedia":null,"wikidata":null,"sources":["KOWIKI_SILLA","GK"],"uiDefault":false,"label":null,"note":"진흥왕 한강 유역 진출(553) 이후의 순수비로 알려짐(연도 근사).","source":"korea"},"geometry":{"type":"Point","coordinates":[126.96,37.62]}},{"type":"Feature","properties":{"id":"stele-changnyeong","layer":"site","nameEn":"Changnyeong Monument (Jinheung)","nameKo":"창녕 순수비","category":"영역 증거(순수비)","role":"korean","startYear":561,"endYear":2026,"confidence":"medium","license":"original (authored)","wikipedia":null,"wikidata":null,"sources":["KOWIKI_SILLA","GK"],"uiDefault":false,"label":null,"note":"가야 방면 진출 관련 순수비로 알려짐(연도 근사).","source":"korea"},"geometry":{"type":"Point","coordinates":[128.49,35.54]}},{"type":"Feature","properties":{"id":"stele-hwangchoryeong","layer":"site","nameEn":"Hwangchoryeong Monument (Jinheung)","nameKo":"황초령 순수비","category":"영역 증거(순수비)","role":"korean","startYear":568,"endYear":2026,"confidence":"low","license":"original (authored)","wikipedia":null,"wikidata":null,"sources":["KOWIKI_SILLA","GK"],"uiDefault":false,"label":null,"note":"함경도 방면 진출을 보여 주는 순수비로 알려짐. 좌표는 지명 기준 개략.","source":"korea"},"geometry":{"type":"Point","coordinates":[127.45,40.25]}},{"type":"Feature","properties":{"id":"stele-maunryeong","layer":"site","nameEn":"Maunryeong Monument (Jinheung)","nameKo":"마운령 순수비","category":"영역 증거(순수비)","role":"korean","startYear":568,"endYear":2026,"confidence":"low","license":"original (authored)","wikipedia":null,"wikidata":null,"sources":["KOWIKI_SILLA","GK"],"uiDefault":false,"label":null,"note":"함경도 방면 진출을 보여 주는 순수비로 알려짐. 좌표는 지명 기준 개략.","source":"korea"},"geometry":{"type":"Point","coordinates":[128.4,40.35]}},{"type":"Feature","properties":{"id":"gr-gangdong6","layer":"hypothesis","nameEn":"Gangdong Six Garrisons (schematic)","nameKo":"강동6주(개략)","category":"고려(작성)","role":"korean","startYear":993,"endYear":1392,"confidence":"low","license":"original (authored)","wikipedia":null,"wikidata":null,"sources":["KOWIKI_GORYEO"],"uiDefault":true,"label":[125.252,39.928],"note":"993년 서희의 외교담판으로 압록강 동쪽 강동 6주를 확보했다고 정리됨. 범위는 압록강 이남~청천강 이북 서해안 쪽을 도식. Cliopatria의 Goryeo 북계(약 39.4°N)와 비교용.","source":"korea"},"geometry":{"type":"Polygon","coordinates":[[[124.4046,40.0283],[124.4334,40.0249],[124.4658,40.0148],[124.4982,40.0232],[124.4,40.0432],[124.4,40.35],[126.1,40.35],[126.1,39.7],[125.006,39.6356],[124.9878,39.6382],[124.959,39.6619],[124.9482,39.6635],[124.9374,39.6467],[124.9014,39.6619],[124.8942,39.6923],[124.8798,39.7041],[124.833,39.726],[124.8114,39.7277],[124.8006,39.7395],[124.7718,39.7412],[124.761,39.748],[124.7466,39.7834],[124.7394,39.7615],[124.7538,39.7345],[124.743,39.6906],[124.7574,39.6872],[124.7538,39.672],[124.7286,39.6652],[124.743,39.645],[124.7178,39.6467],[124.6746,39.6213],[124.6205,39.613],[124.6098,39.6281],[124.6278,39.645],[124.6314,39.6635],[124.6458,39.6703],[124.6458,39.6973],[124.6242,39.6939],[124.6098,39.7142],[124.5846,39.7243],[124.5882,39.7666],[124.5666,39.7784],[124.563,39.8138],[124.4334,39.8307],[124.419,39.824],[124.4046,39.8408],[124.4046,40.0283]]]}},{"type":"Feature","properties":{"id":"isl-ulleung","layer":"site","nameEn":"Ulleungdo","nameKo":"울릉도","category":"국경·경계","role":"korean","startYear":512,"endYear":2026,"confidence":"medium","license":"original (authored)","wikipedia":null,"wikidata":null,"sources":["GK","KOWIKI_DOKDO"],"uiDefault":false,"label":null,"note":"신라 이사부의 우산국 복속(512)은 위키 정리 본문에는 명시가 없어 작성자 일반 지식으로 표기. 재검증 필요.","source":"korea"},"geometry":{"type":"Point","coordinates":[130.87,37.5]}},{"type":"Feature","properties":{"id":"gr-gwanggaeto-stele","layer":"site","nameEn":"Gwanggaeto Stele (Ji'an)","nameKo":"광개토왕릉비(집안)","category":"고구려 성·유적","role":"korean","startYear":414,"endYear":2026,"confidence":"high","license":"original (authored)","wikipedia":null,"wikidata":null,"sources":["RESEARCH_V02"],"uiDefault":false,"label":null,"note":"414년 장수왕이 건립. 395~410년 원정의 동시대 기록. 신묘년 조 해석은 논쟁.","source":"korea"},"geometry":{"type":"Point","coordinates":[126.2142,41.1447]}},{"type":"Feature","properties":{"id":"bh-marianovka","layer":"site","nameEn":"Marianovskoe gorodishche (Kirovsky district)","nameKo":"마리야노프카 성터(키로프 구)","category":"연해주 발해 유적","role":"korean","startYear":700,"endYear":1250,"confidence":"low","license":"original (authored)","wikipedia":null,"wikidata":null,"sources":["RESEARCH_V02"],"uiDefault":false,"label":null,"note":"키로프 구 자료: 8~13세기. 동북아역사넷: 발해 때 사용 뒤 금(金)대에 재사용, 1995년 한러 공동조사; 소속 행정 단위 미상. 일부 요약의 '연해주 최북단 발해 성'은 재확인되지 않음. 발해 영토 확장 증거로 쓰려면 발해기 층위 확정이 먼저 필요.","source":"korea"},"geometry":{"type":"Point","coordinates":[133.5,45.1]}},{"type":"Feature","properties":{"id":"bh-nikolaevka","layer":"site","nameEn":"Nikolaevskoe gorodishche (Partizansk district)","nameKo":"니콜라예프카 성터(파르티잔스크 구)","category":"연해주 발해 유적","role":"korean","startYear":700,"endYear":1250,"confidence":"low","license":"original (authored)","wikipedia":null,"wikidata":null,"sources":["RESEARCH_V02"],"uiDefault":false,"label":null,"note":"발해기(8~10세기)와 금대(12~13세기) 층. 샤브쿠노프 1960~62 발굴. 새 해석은 이 곳이 발해 국경 밖 말갈 수령의 근거지일 수 있다고 봄(동북아역사넷 요약).","source":"korea"},"geometry":{"type":"Point","coordinates":[133.13,43.13]}},{"type":"Feature","properties":{"id":"bh-troitskoe-amur","layer":"site","nameEn":"Troitskoye burial ground (Amur Oblast, Mohe / Troitskaya group)","nameKo":"트로이츠코예 고분군(아무르주, 말갈)","category":"아무르·말갈 유적(발해 관련성 논쟁)","role":"korean","startYear":600,"endYear":1000,"confidence":"medium","license":"original (authored)","wikipedia":null,"wikidata":null,"sources":["RESEARCH_V02"],"uiDefault":false,"label":null,"note":"연해주가 아니라 아무르주 이바노프 구(벨라야 강 좌안). 백두산에서 직선 약 1,000km. 데레뱐코 발굴(1969~74)·알킨과 지린대(2004~05), 약 1,100기 이상 무덤 자리. 러시아 학계는 말갈 문화(트로이츠카야 그룹)로 보며 편년은 6~8세기설부터 8세기~11세기 초설까지 갈림(일부는 926년 이후). 네스테로프·볼코프는 트로이츠카야 그룹을 송화강 유역의 발해(속말)말갈이 8세기에 이주해 형성한 집단으로 해석 — 발해 건국 집단과의 '문화·인구 연결' 가설이며 발해 국가 통치의 증거는 아님. 정석배(2018)는 취락에서 회색 도편 9점이 상경·크라스키노 토기와 비슷하다며 발해 거주·서쪽 아무르 평원(약 북위 50.7°)까지 영역 가능성을 제기(신문 보도만 열람, 논문 미열람). NRICH 2007 목록은 '초기 중세'로만 분류. 아직 이 지역에서 발해 행정 유적(성터·관청·불교 유적)이 확인된 사례는 열람 범위에서 못 찾음.","source":"korea"},"geometry":{"type":"Point","coordinates":[127.933,50.75]}},{"type":"Feature","properties":{"id":"bh-east-nikolaevka","layer":"site","nameEn":"Nikolaevka fortress (Partizansk area) — attribution disputed","nameKo":"니콜라예프카 성터(수찬/파르티잔스카야 계곡; 귀속 논란)","category":"발해 최동단 검증","role":"korean","startYear":700,"endYear":1234,"confidence":"low","license":"original (authored)","wikipedia":null,"wikidata":null,"sources":["RESEARCH_V02"],"uiDefault":false,"label":null,"note":"둘레 1.55km·성벽 10m의 대형 성. 발해→여진 재사용. 정리부 치소 후보로 거론되지만 발해 행정 영역 안인지 자체가 논란(겔만·니키틴은 수찬 계곡을 발해 밖으로 본다). 좌표는 지역 근사.","source":"korea"},"geometry":{"type":"Point","coordinates":[133.1,43.15]}},{"type":"Feature","properties":{"id":"bh-remnant-liaoyang","layer":"site","nameEn":"Liaoyang — Balhae-remnant regimes (Dongdan, Heungnyo, Great Balhae)","nameKo":"요양(遼陽·요 동경요양부) — 발해 유민 정권 소재지(동단국 928~929, 흥료국 1029~30, 대발해 1116)","category":"발해 유민 정권","role":"korean","startYear":928,"endYear":1116,"confidence":"high","license":"original (authored)","wikipedia":null,"wikidata":null,"sources":["RESEARCH_V02"],"uiDefault":false,"label":null,"note":"요양은 요 동경요양부 소재지. 동단국 중심이 928~929년 요양으로 후퇴했고, 대조영 후손 대연림이 1029.8 흥료국(연호 天慶)을 세웠다가 1030.8 요군에 진압(약 1년), 1116 고영창이 요양에서 황제를 칭한 대발해는 금의 침공으로 같은 해 무너졌다(ko.wikipedia 요약). 정안국과는 무관. 대광현은 934 수만 호를 이끌고 고려에 귀부(고려사). 후발해는 학계의 구성 개념, 올야국(995~1114)은 위치 미상.","source":"korea"},"geometry":{"type":"Point","coordinates":[123.17,41.27]}}]}