{"type":"FeatureCollection","properties":{"year":1600,"source":"korea","fillHint":"layer in polity|polity_prehistory|hypothesis; prefer uiDefault"},"features":[{"type":"Feature","properties":{"id":"clio-ming-dynasty-1582","layer":"polity","nameEn":"Ming Dynasty","nameKo":"명","category":"이웃 정치체(맥락)","role":"context","startYear":1582,"endYear":1621,"confidence":"context","license":"CC-BY-4.0 (Cliopatria, Seshat) — 단순화·클리핑 등 변경 있음","wikipedia":"Ming dynasty","wikidata":"Q9903","sources":["CLIO"],"uiDefault":false,"label":[122.955,40.809],"note":null,"source":"korea"},"geometry":{"type":"Polygon","coordinates":[[[124.0447,40.8736],[124.1664,40.6792],[124.3655,40.6144],[124.2916,40.3554],[124.7253,40.4201],[124.2286,39.8376],[123.5974,39.8376],[122.936,39.6436],[122.1704,39.2557],[121.9519,38.9972],[121.7162,38.9972],[121.4217,38.7389],[121.0293,38.7389],[121.2007,39.0618],[121.5151,39.0618],[121.6901,39.385],[121.2965,39.385],[121.2096,39.5143],[121.2807,39.6436],[121.4383,39.6436],[121.5033,39.9023],[121.7765,39.967],[122.2306,40.4849],[122.1061,40.6792],[121.827,40.744],[121.8237,40.8736],[121.1098,40.8736],[120.9967,40.6792],[120.6473,40.4849],[120.5003,40.2259],[119.3804,39.7729],[119.2153,39.3203],[118.4498,39.0618],[118.0569,39.0618],[118.0457,39.1911],[117.8884,39.1911],[117.5764,38.7389],[117.6549,38.7389],[117.6025,38.4806],[118.0536,38.2869],[118.0674,38.1578],[118.583,38.0933],[118.6476,38.2224],[118.8042,38.2224],[118.7718,38.1578],[119.4571,37.9643],[119.3928,37.8352],[119.2366,37.8352],[118.984,37.3193],[119.14,37.3193],[119.1557,37.1904],[119.7011,37.1904],[119.8266,37.4483],[120.2022,37.5773],[120.1881,37.7062],[120.7538,37.8998],[121.112,37.8352],[121.171,37.6417],[121.4833,37.6417],[121.4969,37.5128],[122.1535,37.5773],[122.1211,37.5128],[122.7129,37.4483],[122.4742,37.126],[122.5664,36.9971],[122.3939,36.8037],[121.9121,36.9326],[121.2121,36.6105],[120.9789,36.6105],[120.9648,36.4172],[120.7318,36.4172],[120.6585,36.0952],[120.3185,36.0308],[119.9865,35.6445],[119.6187,35.5158],[119.2276,34.8079],[119.459,34.8079],[119.4309,34.7436],[119.7113,34.6793],[119.7323,34.5506],[120.3418,34.3577],[120.4894,34.1647],[120.5505,33.5859],[120.9263,33.2002],[120.9192,32.6216],[121.4026,32.4931],[121.5033,32.1717],[121.7832,32.1074],[121.8684,32],[117,32],[117,40.8763],[117.3389,40.9384],[117.2002,40.5496],[117.3586,40.5496],[117.3659,40.4201],[117.7907,40.6144],[118.4245,40.6144],[118.388,40.5496],[118.6256,40.5496],[118.632,40.4201],[118.7903,40.4201],[118.9698,40.0317],[119.3647,40.0317],[121.4541,41.5869],[121.9311,41.7167],[121.8916,41.6518],[122.0509,41.6518],[122.014,41.3274],[122.4116,41.3274],[122.8092,42.1063],[123.2119,42.3662],[123.5729,42.4312],[123.697,42.6262],[123.5784,42.6912],[123.7036,42.8864],[124.3452,42.8864],[124.3031,42.8213],[124.6619,42.7563],[124.2057,42.0413],[124.4012,41.7167],[124.3206,41.5869],[124.4003,41.5869],[124.3601,41.522],[124.5588,41.4571],[124.0447,40.8736]]]}},{"type":"Feature","properties":{"id":"clio-joseon-1600","layer":"polity","nameEn":"Joseon","nameKo":"조선","category":"국가(Cliopatria)","role":"korean","startYear":1600,"endYear":1621,"confidence":"medium","license":"CC-BY-4.0 (Cliopatria, Seshat) — 단순화·클리핑 등 변경 있음","wikipedia":"Joseon","wikidata":"Q28405","sources":["CLIO"],"uiDefault":true,"label":[126.756,38.642],"note":null,"source":"korea"},"geometry":{"type":"MultiPolygon","coordinates":[[[[126.3563,33.5217],[126.9988,33.5859],[126.7801,33.2645],[126.7035,33.2645],[126.1388,33.2002],[126.3563,33.5217]]],[[[129.7269,41.3274],[129.8822,41.1977],[129.7558,40.8736],[129.2378,40.6792],[129.0777,40.4201],[128.6822,40.2906],[128.368,40.0317],[127.9346,39.967],[127.5833,39.7729],[127.6653,39.6436],[127.4414,39.2557],[127.7978,39.1911],[127.9234,38.9972],[128.3638,38.8034],[128.84,37.9643],[129.1002,37.5773],[129.2563,37.5773],[129.4748,37.2549],[129.4069,37.126],[129.5288,37.0615],[129.3964,36.3528],[129.474,36.3528],[129.4214,36.0952],[129.5765,36.0952],[129.6669,35.9664],[129.5387,35.7089],[129.6161,35.7089],[129.1471,35.0653],[128.5294,35.0653],[128.5451,34.9366],[128.8074,35.001],[128.6849,34.7436],[128.3297,34.8079],[128.3136,34.9366],[128.0821,34.9366],[128.0679,34.7436],[127.7595,34.7436],[127.3783,34.422],[127.2243,34.422],[127.1297,34.5506],[127.2968,34.7436],[127.2196,34.7436],[127.0229,34.4863],[126.6262,34.2933],[126.4246,34.3577],[126.4837,34.4863],[126.3476,34.3577],[126.1166,34.3577],[126.4784,34.8079],[126.1998,34.8723],[126.3812,35.2584],[126.3039,35.2584],[126.5192,35.7089],[126.7678,35.902],[126.6128,35.902],[126.6757,36.0308],[126.5206,36.0308],[126.4286,36.1596],[126.4516,36.6749],[126.2638,36.6105],[126.0498,36.8037],[126.3032,36.9971],[126.6475,37.0615],[126.7023,37.3193],[126.5352,37.4483],[126.6025,37.5773],[126.2459,37.6417],[126.3477,37.8352],[125.8449,37.7707],[125.8347,37.8998],[125.6783,37.8998],[125.3871,37.6417],[125.231,37.6417],[125.2981,37.7707],[125.2093,37.8998],[124.8967,37.8998],[125.0767,38.0933],[124.7637,38.0933],[124.8664,38.2869],[124.7881,38.2869],[124.9614,38.6097],[125.1533,38.6743],[125.1885,38.7389],[125.0316,38.7389],[125.39,39.385],[125.3057,39.5143],[124.8697,39.5789],[124.8646,39.7083],[124.5124,39.6436],[124.3446,39.9023],[124.2657,39.9023],[124.7253,40.4201],[124.8045,40.4201],[125.1965,40.6792],[125.988,40.9384],[126.6323,41.7167],[126.8745,41.8465],[127.1519,41.7816],[127.3052,41.522],[128.219,41.4571],[128.3057,41.7167],[128.0287,41.7816],[127.9951,41.9764],[128.958,42.1063],[129.2096,42.3662],[129.6963,42.4962],[129.763,42.9515],[130.1284,43.0165],[130.1199,42.8864],[130.2803,42.8864],[130.3803,42.5612],[130.7366,42.4962],[130.6054,42.3012],[130.3221,42.2362],[129.74,41.7167],[129.6977,41.6518],[129.8104,41.4571],[129.7269,41.3274]]]]}},{"type":"Feature","properties":{"id":"clio-warring-states-japan-1600","layer":"polity","nameEn":"Warring States Japan","nameKo":"전국시대 일본","category":"이웃 정치체(맥락)","role":"context","startYear":1600,"endYear":1601,"confidence":"context","license":"CC-BY-4.0 (Cliopatria, Seshat) — 단순화·클리핑 등 변경 있음","wikipedia":"Azuchi-Momoyama period","wikidata":"Q204023","sources":["CLIO"],"uiDefault":false,"label":[131.562,34.068],"note":null,"source":"korea"},"geometry":{"type":"MultiPolygon","coordinates":[[[[130.7713,32.236],[130.8429,32.4013],[130.5211,32.3645],[130.6051,32.5574],[130.5086,32.6859],[130.537,32.7502],[130.795,32.8145],[130.7665,32.7502],[131.1207,32.6859],[131.0766,32.236],[131.1045,32.3002],[131.2573,32.3002],[131.278,32.1717],[131.5834,32.1717],[131.5556,32.1074],[131.632,32.1074],[131.5859,32],[130.1562,32],[130.3128,32.236],[130.7713,32.236]]],[[[128.5681,32.6216],[128.6518,32.8145],[128.8815,32.8145],[128.9299,32.7502],[128.7698,32.5574],[128.5681,32.6216]]],[[[130.3736,33.0716],[130.297,33.0716],[130.2877,32.8788],[130.4408,32.8788],[130.3274,32.6216],[130.0979,32.6216],[130.1543,32.7502],[130.0013,32.7502],[129.792,32.6216],[129.6952,32.7502],[129.7518,32.8788],[129.627,32.943],[129.6841,33.0716],[129.5595,33.1359],[129.5982,33.3931],[129.8283,33.3931],[129.916,33.5859],[130.3293,33.6502],[130.4183,33.8432],[130.6787,33.9075],[130.7087,33.9718],[130.8624,33.9718],[130.8761,34.1647],[130.7992,34.1647],[130.9211,34.422],[131.414,34.4863],[131.4759,34.615],[132.5634,35.2584],[132.6925,35.5158],[134.2726,35.5802],[134.7259,35.7089],[135.0356,35.7089],[134.9691,35.5802],[135.1464,35.3227],[135.4556,35.3227],[135.6322,35.5158],[135.7095,35.5158],[136.0758,35.7733],[135.9109,35.902],[136.0039,36.224],[136.4529,36.4816],[136.4878,36.546],[136.8412,36.4816],[136.8317,36.0308],[137,36.0308],[137,35.2584],[136.8909,35.2584],[136.5954,34.6793],[136.7942,34.615],[136.9733,34.3577],[136.9093,34.229],[136.4475,34.229],[135.8117,33.3931],[135.4125,33.5217],[135.3511,33.7146],[135.0288,33.8432],[135.1534,34.1004],[135.0168,34.2933],[135.3429,34.4863],[135.4389,34.6793],[135.0985,34.615],[134.9083,34.229],[134.6461,34.1647],[134.6949,34.422],[134.9444,34.615],[134.4686,34.7436],[134.4366,34.6793],[132.8305,34.229],[132.3226,34.2933],[132.1856,33.8432],[131.9085,33.9075],[131.9388,33.9718],[131.0931,33.9718],[131.0501,33.7146],[131.1269,33.7146],[131.0971,33.6502],[131.4043,33.6502],[131.4341,33.7146],[131.8181,33.7146],[131.6399,33.3288],[131.9172,33.2645],[132.0592,33.0716],[132.0301,33.0073],[131.4839,32.8145],[131.5127,32.8788],[131.283,32.8788],[131.3697,33.0716],[131.293,33.0716],[131.3221,33.1359],[131.2455,33.1359],[131.2746,33.2002],[130.709,33.1359],[130.4981,33.0073],[130.3449,33.0073],[130.3736,33.0716]],[[130.3546,33.1998],[130.2204,33.0716],[130.297,33.0716],[130.3546,33.1998]],[[130.4604,33.2645],[130.4895,33.3288],[130.4222,33.2645],[130.4604,33.2645]]],[[[129.8804,33.8432],[129.8212,33.7146],[129.5908,33.7146],[129.7267,33.8432],[129.8804,33.8432]]],[[[129.1065,34.1647],[129.1665,34.2933],[129.3974,34.2933],[129.3075,34.1004],[129.1065,34.1647]]],[[[129.2267,34.422],[129.2873,34.5506],[129.4415,34.5506],[129.4275,34.3577],[129.2267,34.422]]],[[[132.6666,33.3931],[132.4539,33.2645],[132.3006,33.2645],[132.3598,33.3931],[132.0233,33.3288],[132.6164,33.7789],[133.1402,33.5859],[133.7993,33.8432],[133.8918,33.7146],[134.2759,33.7146],[134.3684,33.5859],[134.2174,33.2645],[133.9874,33.2645],[133.8473,33.4574],[133.5404,33.4574],[133.1613,33.1359],[133.0334,32.6859],[132.6321,32.8145],[132.9436,33.3288],[132.6666,33.3931]]],[[[133.0996,36.1596],[133.2004,36.3528],[133.4333,36.3528],[133.3323,36.1596],[133.0996,36.1596]]],[[[136.6285,36.8037],[136.6995,36.9326],[136.6152,37.0615],[136.6511,37.126],[137,37.3172],[137,37.1471],[136.9627,37.126],[137,37.0962],[137,36.8457],[136.7487,36.7393],[136.6285,36.8037]]]]}},{"type":"Feature","properties":{"id":"clio-tokugawa-shogunate-1600","layer":"polity","nameEn":"Tokugawa Shogunate","nameKo":"도쿠가와 막부","category":"이웃 정치체(맥락)","role":"context","startYear":1600,"endYear":1601,"confidence":"context","license":"CC-BY-4.0 (Cliopatria, Seshat) — 단순화·클리핑 등 변경 있음","wikipedia":"Tokugawa shogunate","wikidata":"Q205662","sources":["CLIO"],"uiDefault":false,"label":[131.441,32.718],"note":null,"source":"korea"},"geometry":{"type":"MultiPolygon","coordinates":[[[[130.6671,32.1717],[130.3892,32.236],[130.4447,32.3645],[130.8548,32.4288],[130.7434,32.1717],[130.6671,32.1717]]],[[[130.1325,32.1717],[129.9309,32.236],[129.9934,32.5574],[130.5287,32.5574],[130.1325,32.1717]]],[[[131.1207,32.6859],[130.7665,32.7502],[130.795,32.8145],[130.537,32.7502],[130.5654,32.8145],[130.4215,33.0073],[130.709,33.1359],[131.2746,33.2002],[131.2455,33.1359],[131.3221,33.1359],[131.293,33.0716],[131.3697,33.0716],[131.283,32.8788],[131.5127,32.8788],[131.4839,32.8145],[132.0301,33.0073],[132.001,32.943],[132.0776,32.943],[131.991,32.7502],[131.7807,32.6216],[131.5834,32.1717],[131.278,32.1717],[131.2573,32.3002],[131.1045,32.3002],[131.1325,32.3645],[131.056,32.3645],[131.1122,32.4931],[131.0358,32.4931],[131.1207,32.6859]]],[[[132.6611,32.8788],[132.3839,32.943],[132.4539,33.2645],[132.6666,33.3931],[132.9436,33.3288],[132.6611,32.8788]]],[[[134.2328,34.422],[134.2014,34.3577],[134.6319,34.2933],[134.7688,34.1004],[134.6599,33.7146],[134.4452,33.5859],[134.3684,33.5859],[134.2759,33.7146],[133.8918,33.7146],[133.7993,33.8432],[133.1402,33.5859],[132.6932,33.7789],[132.8765,34.1647],[133.0304,34.1647],[133.1227,34.0361],[133.5072,34.0361],[133.6312,34.2933],[134.2328,34.422]]],[[[134.9691,35.5802],[135.069,35.7733],[135.3788,35.7733],[135.2786,35.5802],[135.6655,35.5802],[135.4556,35.3227],[135.1464,35.3227],[134.9691,35.5802]]],[[[136.9689,34.8079],[136.7702,34.8723],[136.8909,35.2584],[137,35.2584],[137,34.7436],[136.9363,34.7436],[136.9689,34.8079]]],[[[136.8412,36.4816],[136.4878,36.546],[136.7841,36.8037],[137,36.8037],[137,36.0308],[136.8317,36.0308],[136.8412,36.4816]]],[[[136.6511,37.126],[136.5732,37.126],[136.7178,37.3838],[137,37.467],[136.9933,37.3193],[136.6511,37.126]]]]}},{"type":"Feature","properties":{"id":"cap-hanyang","layer":"site","nameEn":"Hanyang / Seoul","nameKo":"한양/서울","category":"도읍","role":"korean","startYear":1394,"endYear":2026,"confidence":"high","license":"original (authored)","wikipedia":null,"wikidata":null,"sources":["GK"],"uiDefault":false,"label":null,"note":"조선 도읍(1394)~현재 대한민국 수도. 일제강점기(1910~1945)에는 경성으로 불림.","source":"korea"},"geometry":{"type":"Point","coordinates":[126.98,37.57]}},{"type":"Feature","properties":{"id":"stele-bukhansan","layer":"site","nameEn":"Bukhansan Monument (Jinheung)","nameKo":"북한산 순수비","category":"영역 증거(순수비)","role":"korean","startYear":555,"endYear":2026,"confidence":"medium","license":"original (authored)","wikipedia":null,"wikidata":null,"sources":["KOWIKI_SILLA","GK"],"uiDefault":false,"label":null,"note":"진흥왕 한강 유역 진출(553) 이후의 순수비로 알려짐(연도 근사).","source":"korea"},"geometry":{"type":"Point","coordinates":[126.96,37.62]}},{"type":"Feature","properties":{"id":"stele-changnyeong","layer":"site","nameEn":"Changnyeong Monument (Jinheung)","nameKo":"창녕 순수비","category":"영역 증거(순수비)","role":"korean","startYear":561,"endYear":2026,"confidence":"medium","license":"original (authored)","wikipedia":null,"wikidata":null,"sources":["KOWIKI_SILLA","GK"],"uiDefault":false,"label":null,"note":"가야 방면 진출 관련 순수비로 알려짐(연도 근사).","source":"korea"},"geometry":{"type":"Point","coordinates":[128.49,35.54]}},{"type":"Feature","properties":{"id":"stele-hwangchoryeong","layer":"site","nameEn":"Hwangchoryeong Monument (Jinheung)","nameKo":"황초령 순수비","category":"영역 증거(순수비)","role":"korean","startYear":568,"endYear":2026,"confidence":"low","license":"original (authored)","wikipedia":null,"wikidata":null,"sources":["KOWIKI_SILLA","GK"],"uiDefault":false,"label":null,"note":"함경도 방면 진출을 보여 주는 순수비로 알려짐. 좌표는 지명 기준 개략.","source":"korea"},"geometry":{"type":"Point","coordinates":[127.45,40.25]}},{"type":"Feature","properties":{"id":"stele-maunryeong","layer":"site","nameEn":"Maunryeong Monument (Jinheung)","nameKo":"마운령 순수비","category":"영역 증거(순수비)","role":"korean","startYear":568,"endYear":2026,"confidence":"low","license":"original (authored)","wikipedia":null,"wikidata":null,"sources":["KOWIKI_SILLA","GK"],"uiDefault":false,"label":null,"note":"함경도 방면 진출을 보여 주는 순수비로 알려짐. 좌표는 지명 기준 개략.","source":"korea"},"geometry":{"type":"Point","coordinates":[128.4,40.35]}},{"type":"Feature","properties":{"id":"isl-ulleung","layer":"site","nameEn":"Ulleungdo","nameKo":"울릉도","category":"국경·경계","role":"korean","startYear":512,"endYear":2026,"confidence":"medium","license":"original (authored)","wikipedia":null,"wikidata":null,"sources":["GK","KOWIKI_DOKDO"],"uiDefault":false,"label":null,"note":"신라 이사부의 우산국 복속(512)은 위키 정리 본문에는 명시가 없어 작성자 일반 지식으로 표기. 재검증 필요.","source":"korea"},"geometry":{"type":"Point","coordinates":[130.87,37.5]}},{"type":"Feature","properties":{"id":"gr-gwanggaeto-stele","layer":"site","nameEn":"Gwanggaeto Stele (Ji'an)","nameKo":"광개토왕릉비(집안)","category":"고구려 성·유적","role":"korean","startYear":414,"endYear":2026,"confidence":"high","license":"original (authored)","wikipedia":null,"wikidata":null,"sources":["RESEARCH_V02"],"uiDefault":false,"label":null,"note":"414년 장수왕이 건립. 395~410년 원정의 동시대 기록. 신묘년 조 해석은 논쟁.","source":"korea"},"geometry":{"type":"Point","coordinates":[126.2142,41.1447]}}]}